name|code|address|phone_number|region|lat|lng
Pochtomat|2|Toshkent shahri, Yunusobod tumani, Shahrisabz ko'chasi, 7 uy||Toshkent shahri|41.316607|69.283984
Pochtomat|6|Toshkent shahri, Olmazor tumani, Sebzar (C17 / 18), 2/1 uy||Toshkent shahri|41.3311749|69.2490926
Pochtomat|3|Toshkent shahri, Yakkasaroy tumani, Bobura ko'chasi, 40||Toshkent shahri|41.2859745|69.2530879
Pochtomat|14|Toshkent shahri, Chilonzor tumani, 3 chorak, uy 53 uyi||Toshkent shahri|41.2836016|69.2226101
Pochtomat|4|Toshkent shahri, Chilonzor tumani, Al-Xorazmy-1, 16 uy||Toshkent shahri|41.257939|69.158473
Pochtomat|27|Andijon shahri, Abduraf Fitratra ko'chasi, 214 uyi||Andijon viloyati|40.7818429|72.3479759
Pochtomat|12|Buxoro shahri, Ibrovati Mo'minov ko'chasi, 8||Buxoro viloyati|39.766156|64.42586
Pochtomat|24|Guliston shahri, A. Navoiy ko'chasi, 45 uyi||Sirdaryo viloyati|40.4961469|68.7777899
Pochtomat|25|Jizzax shahri, Street Sh. Rashidova, 46 uyi||Jizzax viloyati|40.1334899|67.8236906
Pochtomat|30|Nukus shahri, Ota Yul Street, 2 uyi||Qoraqalpog'iston Respublikasi|42.481684|59.614858
Pochtomat|28|Qarshi shahri, Mustaqillik ko'chasi, 19||Qashqadaryo viloyati|38.8393231|65.7977839
Pochtomat|11|Navoiy shahri, I. Karimov ko'chasi, 3a||Navoinsk viloyati|40.102565|65.37344
Pochtomat|10|Namangan shahri, A. Temura ko'chasi, 54-uy||Namangan viloyati|40.9998484|71.6453161
Pochtomat|23|Samarqand, pochta idorasi, 5-uy||Samarqand viloyati|39.655278|66.958889
Pochtomat|31|Termiz shahri, Barkamol avlod, 13 uy||Surxondaryo viloyati|37.225692|67.273204
Pochtomat|81|Siti Olmaliq ko'chasi Ieshir uyi 8||Toshkent viloyati|40.862469|69.59307
Pochtomat|13|Shahar Nurafshon ko'chasi Bobnn uyi 1||Toshkent viloyati|41.040195|69.35722
Pochtomat|34|CHIRCHIQ, NUR MFI, Yusupova ko'chasi, 5||Toshkent viloyati|41.469602|69.584886
Pochtomat|29|Urganch shahri, Stok P. Mulmuda, 23 uy||Xorazm viloyati|41.556336|60.635806
Pochtomat|26|Farg'ona shahri, Kashtanzor ko'chasi, 35 uyi||Farg'ona viloyati|40.383568|71.779685
Pochtomat|33|Shahar Kakand, Street Irda-Tayki, 38 uyi||Farg'ona viloyati|40.539585|70.934647
Pochtomat|35|Marg'ilon shahri, Mustaqillik ko'chasi, 221A uyi||Farg'ona viloyati|40.483409|71.721463
Pochtomat|16|Toshkent shahri, Mirzo-Ulug'bek tumani, Timur Malika ko'chasi, 3a uyi||Toshkent shahri|41.353327|69.351117
Pochtomat|15|Toshkent shahri, Chilonzor tumani, ko'chasi, 55||Toshkent shahri|41.282834|69.221961
Pochtomat|17|Toshkent shahri, Yunusobod tumani, 10 chorak, uyda 1a||Toshkent shahri|41.378378|69.283459
Pochtomat|18|Toshkent shahri, Yashnobod tumani, Tuzel Microdika, 1-chorak, 11 uy||Toshkent shahri|41.296333|69.353448
Pochtomat|21|Toshkent shahri, Yunusobod tumani, Avenue A. Temurat, 108 uyi||Toshkent shahri|41.340865|69.286806
Pochtomat|22|Toshkent shahri, Mirzo-Ulug'bek tumani, Buz-1 massiv, Ziillar ko'chasi, 9a||Toshkent shahri|41.338646|69.334777
Pochtomat|20|Toshkent shahri, Yakkasaroy tumani, Rakata massivi, Shaxjidhaxon ko'chasi, 5||Toshkent shahri|41.284223|69.245174
Pochtomat|19|Toshkent shahri, Chilonzor tumani, Bunyodkor shohona, 7 uyi||Toshkent shahri|41.257546|69.193371
Andijon TPAB|170100|Andijon shahri, A. Fitrat ko'chasi, 214 uyi|74-223-24-71|Andijon viloyati|40.7597|72.35857
Buxoro TPAB|200100|Buxoro shahri, I.Muminov ko'chasi, 8|652237330|Buxoro viloyati|39.766113|64.425784
Jizzax TPAB|130100|Fizzax shahri, Sh. Rashidov ko'chasi, 46 uyi|(72)-226-49-19|Jizzax viloyati|40.135846|67.822561
Qoraqalpoqiston TPAB|230100|Nukus shahri, Otajul ko'chasi, 2 uyi|61-222-23-11|Qoraqalpog'iston Respublikasi|42.460174|59.621066
Qashqadaryo TPAB|180100|Qarshi shahri, Mustaqillik Shox ko'chasi, 19|75-221-01-45|Qashqadaryo viloyati|38.839139|65.797667
Navoiy TPAB|210100|Navoiy shahri, I. Karimova ko'chasi, 3a uyi|(0436)223-44-80|Navoi viloyati|40.102924|65.373033
Samarqand TPAB|140100|Samarqand shahri, Pochta ko'chasi, 5 uyi|(66)233-18-63|Samarqand viloyati|39.654655|66.959569
Termiz GUPS|190100|Termiz shahri, Shodlik MFY|(+998) 76-223-01-03|Surxondaryo viloyati|37.225807368868|67.273194847377
Toshkent TPAB|111500|Nurafshon shahri, Bobura ko'chasi, 1|(70) 76-26-344|Toshkent viloyati|41.040068|69.357043
Farg'ona TPAB|150100|Farg'ona shahri, Kashtanzor ko'chasi, 35 uy|(73)-244-47-94|Farg'ona viloyati|40.383568|71.779685
Xorazm TPAB|220100|Urganch shahri, P.Maxmud ko'chasi , 23 uy|22-8-46-50|Xorazm viloyati|41.556622|60.62454
Toshkent shahri TPAB|100000|Yunusobod tumani, Shahrisabz ko’chasi, 7-uy|(71) 233-72-39|Toshkent shahri|41.31665|69.283869
Toshkent 202-son A/B|100202|Ibrat MFY, Murabbiylar, 278 uy||Toshkent shahri|41.30329|69.400257
Toshkent 2-son A/B|100002|Olmazor tumani Sag'bon ko'chasi 9-uy|(71)-244-03-46|Toshkent shahri|41.330325|69.233837
Toshkent 7-son A/B|100007|Mirzo Ulug'bek tumani Mirzo Ulug'bek ko'chasi 32-uy|(71)-269-49-26|Toshkent shahri|41.314395|69.323628
Toshkent 8-son A/B|100008|Yunusobod tumani Mustaqillik ko'chasi 5-uy|(71)-239-86-85|Toshkent shahri|41.314323|69.26565
Toshkent 9-son A/B|100009|Yunusobod tumani Xasanboy baxt ko'chasi 5а|(71)-220-58-77|Toshkent shahri|41.390629|69.254081
Toshkent 11-son A/B|100011|Shaharayxontoxur tumani Navoiy ko'chasi 26-uy|(71)-244-51-29|Toshkent shahri|41.321633|69.253565
Toshkent 15-son A/B|100015|Mirobod tumani Chexova ko'chasi 10-uy|(71)-255-29-16|Toshkent shahri|41.298412|69.278399
Toshkent 16-son A/B|100016|Mirobod tumani Elbek ko'chasi 26-uy|(71)-296-39-01|Toshkent shahri|41.295637|69.331536
Toshkent 17-son A/B|100017|Yunusobod tumani S-4 17-uy|(71)-236-00-05|Toshkent shahri|41.32009|69.274825
Toshkent 19-son A/B|100019|Olmazor tumani G'ofur G'ulom ko'chasi 2-uy|(71)-227-38-32|Toshkent shahri|41.330714|69.248619
Toshkent 47-son A/B|100047|Yashnobod tumani To'ytepa 1-uy|(71)-233-14-72|Toshkent shahri|41.305246|69.289344
Toshkent 50-son A/B|100050|Mirzo Ulug'bek tumani Massiv Qorasuv 6-uy 11-xonadon|(71)-265-94-57|Toshkent shahri|41.321673|69.353966
Toshkent 52-son A/B|100052|Mirzo Ulug'bek tumani Oqqo'rg'on ko'chasi 31а-uy|(71)-237-65-14|Toshkent shahri|41.331974|69.303662
Toshkent 53-son A/B|100053|Yunusobod tumani Mingo'rik ko'chasi 3-uy|(71)-235-29-95|Toshkent shahri|41.342973|69.300473
Toshkent 57-son A/B|100057|Olmazor tumani Usta shirin 110-uy|(71)-248-25-64|Toshkent shahri|41.350881|69.260914
Toshkent 58-son A/B|100058|Yunusobod tumani Zarbuloq ko'chasi 35-uy|(71)-289-17-62|Toshkent shahri|41.355001|69.324287
Toshkent 60-son A/B|100060|Mirobod tumani Nukus ko'chasi 2-uy|(71)-233-58-47|Toshkent shahri|41.299862|69.29
Toshkent 69-son A/B|100069|Olmazor tumani Qorasaroy ko'chasi 270-uy|(71)-248-43-34|Toshkent shahri|41.351534|69.240983
Toshkent 76-son A/B|100076|Yashnabod tumani Sanjar ko'chasi 55-uy|(71)-291-61-35|Toshkent shahri|41.291481|69.31407
Toshkent 77-son A/B|100077|Mirzo Ulug'bek tumani, Muhammad Yusuf ko'chasi, 4-uy|(71)-208-49-66|Toshkent shahri|41.321743|69.327296
Toshkent 78-son A/B|100078|Yunusobod tumani Mustaqillik ko'chasi 6-uy|(71)-238-27-12|Toshkent shahri|41.313351|69.265083
Toshkent 84-son A/B|100084|Yunusobod tumani A.Temur ko'chasi 98-uy|(71)-237-66-15|Toshkent shahri|41.337549|69.285612
Toshkent 93-son A/B|100093|Yunusobod tumani 4-mavze 47-uy|(71)-224-28-67|Toshkent shahri|41.368761|69.278602
Toshkent 95-son A/B|100095|Olmazor tumani shifonur ko'chasi 2-uy|(71)-246-64-15|Toshkent shahri|41.353072|69.218672
Toshkent 98-son A/B|100098|Olmazor tumani Qoraqamish ½ 7-uy|(71)-248-51-65|Toshkent shahri|41.358662|69.237012
Toshkent 99-son A/B|100099|Yunusobod tumani Shaxriston ko'chasi 21-uy|(71)-212-09-68|Toshkent shahri|41.351162|69.282908
Toshkent 111-son A/B|100111|Olmazor tumani Chuqursoy ko'chasi 71-uy|(71)248-53-68|Toshkent shahri|41.376371|69.240768
Toshkent 114-son A/B|100114|Yunusobod tumani 18-mavze 48-uy|(71)-209-48-01|Toshkent shahri|41.372205|69.319839
Toshkent 124-son A/B|100124|Mirzo Ulug'bek tumani Massiv. Feruza 2-uy,26-xonadon.|(71)-263-34-46|Toshkent shahri|41.360477|69.364635
Toshkent 125-son A/B|100125|Mirzo Ulug'bek tumani Mirzo Ulug'bek ko'chasi 93-uy|(71)-262-84-82|Toshkent shahri|41.34657|69.347055
Toshkent 128-son A/B|100128|Shayxontohur tumani S-13 26-uy|(71)-241-37-47|Toshkent shahri|41.329267|69.260223
Toshkent 142-son A/B|100142|Mirzo Ulug'bek tumani Buyuk ipak yo'li ko'chasi 477-1-uy|(71)-261-15-58|Toshkent shahri|41.35328|69.387269
Bektemir 158-son A/B|100158|Bektemir tumani Soliyeva ko'chasi 64-uy,1-xonadon|(71)-295-20-71|Toshkent shahri|41.235761|69.352452
Toshkent 164-son A/B|100164|Mirzo Ulug'bek tumani Yalang'och dahasi 123-uy|(71)-262-62-53|Toshkent shahri|41.350859|69.340371
Toshkent 170-son A/B|100170|Mirzo Ulug'bek tumani Mirzo Ulug'bek ko'chasi 71а-uy|(71)-268-38-55|Toshkent shahri|41.330925|69.329906
Toshkent 171-son A/B|100171|Yashnabod tumani Aviyasozlar-4 1-uy,3-xonadon|(71)-296-09-20|Toshkent shahri|41.294996|69.343272
Toshkent 174-son A/B|100174|Фаробий улица|(71)-246-03-77|Toshkent shahri|41.349572|69.191541
Toshkent 175-son A/B|100175|Olmazor tumani Qoraqamish 2/3 10-uy|(71)-229-58-51|Toshkent shahri|41.370161|69.21541
Toshkent 178-son A/B|100178|Olmazor tumani Qoraqamish 2/4 15-uy|(71)-229-25-25|Toshkent shahri|41.367582|69.205703
Toshkent 179-son A/B|100179|Olmazor tumani Olimpiya ko'chasi 9-uy|(71)-229-44-66|Toshkent shahri|41.360679|69.196069
Toshkent 180-son A/B|100180|Yunusobod tumani 15-mavze 8-uy,1-xonadon|(71)-222-87-18|Toshkent shahri|41.378939|69.298013
Toshkent 186-son A/B|100186|Shaharayxontohur tumani Qodiriy ko'chasi 1-uy|(71)-241-28-06|Toshkent shahri|41.322875|69.26715
Toshkent 187-son A/B|100187|Mirzo Ulug'bek tumani Qorasuv dahasi 71-uy, 15-xonadon|(71)-266-51-17|Toshkent shahri|41.335291|69.370362
Toshkent 190-son A/B|100190|Yunusobod tumani 9-mavze 30а-uy|(71)-221-86-98|Toshkent shahri|41.376655|69.280967
Toshkent 193-son A/B|100193|Yunusobod tumani Shaxrisabz 7-uy|(71) 207-05-66|Toshkent shahri|41.380072|69.219802
Toshkent 194-son A/B|100194|Yunusobod tumani 13-mavze 3-uy|(71)-225-04-56|Toshkent shahri|41.370613|69.294829
Toshkent 204-son A/B|100204|Yashnabod tumani Lisunova ko'chasi 1а-uy,46-xonadon|(71)-294-94-83|Toshkent shahri|41.284795|69.347433
Toshkent 206-son A/B|100206|Yunusobod tumani 17-mavze 25-uy|(71)-212-94-34|Toshkent shahri|41.368707|69.309677
Toshkent 207-son A/B|100207|Yashnabod tumani G'alabaning 40 yiliga 32-uy|(71)-293-74-77|Toshkent shahri|41.298439|69.357956
Toshkent 212-son A/B|100212|Yunusobod tumani 10-mavze 1а-uy|(71)-225-98-89|Toshkent shahri|41.378378|69.283459
Toshkent 213-son A/B|100213|Bektimir tuman X.Boyqaro ko'chasi 27а-uy|(71)-295-36-01|Toshkent shahri|41.248532|69.374817
Toshkent 214-son A/B|100214|Mirzo Ulug'bek tumani Gulyamova ko'chasi 10а-uy|(71)-289-34-87|Toshkent shahri|41.405803|69.459313
Toshkent 5-son A/B|100005|Honabod, Beruniy 115||Toshkent shahri|41.003181|69.147325
Toshkent 12-son A/B|100012|Sergeli, uy 2||Toshkent shahri|41.211756|69.229574
Toshkent 20-son A/B|100020|C-27, uy 4||Toshkent shahri|41.331603|69.219253
Toshkent 21-son A/B|100021|Akhunbabaeva ko'chasi, uy 21||Toshkent shahri|41.320823|69.235464
Toshkent 22-son A/B|100022|Boshlik ko'chasi, uy 32||Toshkent shahri|41.269995|69.248207
Toshkent 27-son A/B|100027|Bunyodkor ko'chasi, uy 6a||Toshkent shahri|41.308399|69.23782
Toshkent 29-son A/B|100029|Sh. Rashidova ko'chasi , uy 40||Toshkent shahri|41.307678|69.266281
Toshkent 31-son A/B|100031|D. Kunaeva ko'chasi, uy 8||Toshkent shahri|41.300303|69.266267
Toshkent 33-son A/B|100033|Asanova ko'chasi, uy 15||Toshkent shahri|41.208058|69.290858
Toshkent 35-son A/B|100035|Oliy Majlis||Toshkent shahri|41.305301|69.238717
Toshkent 42-son A/B|100042|Uygur ko'chasi, uy 429||Toshkent shahri|41.317825|69.194584
Toshkent 43-son A/B|100043|H. Dustliga ko'chasi , uy 9||Toshkent shahri|41.289608|69.221732
Toshkent 44-son A/B|100044|Oltin Vodiy ko'chasi , uy 11||Toshkent shahri|41.260614|69.249495
Toshkent 54-son A/B|100054|G. Golyama ko'chasi, uy 9a||Toshkent shahri|41.291786|69.194769
Toshkent 66-son A/B|100066|Almazar ko'chasi, uy 67||Toshkent shahri|41.304153|69.247768
Toshkent 68-son A/B|100068|Ibn Sino1 ko'chasi , uy 7||Toshkent shahri|41.334756|69.164868
Toshkent 70-son A/B|100070|U. Nosir ko'chasi , uy 34||Toshkent shahri|41.290199|69.258461
Toshkent 71-son A/B|100071|S. Darvoza ko'chasi , uy 202/2||Toshkent shahri|41.306377|69.215788
Toshkent 72-son A/B|100072|A. Fitrat ko'chasi , uy 28||Toshkent shahri|41.271607|69.305284
Toshkent 73-son A/B|100073|Dzharkurgan ko'chasi, uy 35||Toshkent shahri|41.269332|69.323606
Toshkent 80-son A/B|100080|Kuylyuk massiv, uy 1.21||Toshkent shahri|41.244922|69.314007
Toshkent 83-son A/B|100083|Pos. Binocor, uy 2.6||Toshkent shahri|41.178705|69.248241
Toshkent 85-son A/B|100085|Sergeli, uy 8||Toshkent shahri|41.221247|69.222722
Toshkent 88-son A/B|100088|Sergili, uy 6a||Toshkent shahri|41.23031|69.208831
Toshkent 94-son A/B|100094|Fargona Yuli ko'chasi, uy 271||Toshkent shahri|41.263611|69.316704
Toshkent 96-son A/B|100096|Chilonzar, 5-25||Toshkent shahri|41.29532|69.215992
Toshkent 97-son A/B|100097|Chilonzor, 6-31||Toshkent shahri|41.287998|69.20806
Toshkent 100-son A/B|100100|Bobur ko'chasi, uy 40||Toshkent shahri|41.285725|69.253121
Toshkent 102-son A/B|100102|Sputnik ko'chasi , uy 9.64||Toshkent shahri|41.19676|69.228015
Toshkent 105-son A/B|100105|F. Fktisov ko'chasi||Toshkent shahri|41.275655|69.300545
Toshkent 106-son A/B|100106|Beshkai ko'chasi, 1-21||Toshkent shahri|41.290984|69.171957
Toshkent 109-son A/B|100109|Chilanzar 3 quarter||Toshkent shahri|41.362433|69.184858
Toshkent 115-son A/B|100115|ko'chasi G. Karimov, uy 15||Toshkent shahri|41.28354|69.222541
Toshkent 116-son A/B|100116|Mirsarapova ko'chasi, 7||Toshkent shahri|41.275026|69.350847
Toshkent 117-son A/B|100117|Chilanzar, 20-16||Toshkent shahri|41.267578|69.180582
Toshkent 121-son A/B|100121|Salomatina ko'chasi, uy 136||Toshkent shahri|41.264721|69.22409
Toshkent 123-son A/B|100123|Chilanzar, 11-15||Toshkent shahri|41.279112|69.193864
Toshkent 126-son A/B|100126|Chilanzar, 21-6||Toshkent shahri|41.291472|69.176237
Toshkent 131-son A/B|100131|Chilanzar, 26-8||Toshkent shahri|41.279937|69.181515
Toshkent 132-son A/B|100132|Ibrat ko'chasi, uy 4||Toshkent shahri|41.314772|69.166355
Toshkent 135-son A/B|100135|Chilonzor, uy 16-27||Toshkent shahri|41.272161|69.200842
Toshkent 139-son A/B|100139|Chilanzar 23-17||Toshkent shahri|41.285903|69.17663
Toshkent 146-son A/B|100146|Stroitelnaya ko'chasi, uy 15||Toshkent shahri|41.248956|69.331462
Toshkent 147-son A/B|100147|Fargona Yuli ko'chasi, uy 693||Toshkent shahri|41.261511|69.318068
Toshkent 149-son A/B|100149|Choshtepa ko'chasi, uy 95||Toshkent shahri|41.248685|69.210112
Toshkent 151-son A/B|100151|Dikash ko'chasi, uy 2||Toshkent shahri|41.313452|69.180611
Toshkent 152-son A/B|100152|Chilanzar, 25-2||Toshkent shahri|41.282834|69.169138
Toshkent 155-son A/B|100155|1 shoh ko'chasi Vostochny, uy 1||Toshkent shahri|41.202121|69.251346
Toshkent 156-son A/B|100156|Chilonzor, uy 19-31||Toshkent shahri|41.269812|69.184707
Toshkent 160-son A/B|100160|Gagarina ko'chasi, uy 46/8||Toshkent shahri|41.249885|69.256946
Toshkent 161-son A/B|100161|K. Sharipova ko'chasi , uy 1||Toshkent shahri|41.226254|69.17732
Toshkent 163-son A/B|100163|President Apparati||Toshkent shahri|41.311274|69.264064
Toshkent 167-son A/B|100167|Kichik Beshegoch ko'chasi , uy 204||Toshkent shahri|41.272058|69.278842
Toshkent 169-son A/B|100169|Huvaido ko'chasi, uy 9||Toshkent shahri|41.340323|69.200954
Toshkent 173-son A/B|100173|Chilanzar 14-10||Toshkent shahri|41.295164|69.189573
Toshkent 182-son A/B|100182|Mohidil shoh ko'chasi, uy 8/1||Toshkent shahri|41.21087|69.29552
Toshkent 185-son A/B|100185|Nakkoshlik ko'chasi , uy 16a||Toshkent shahri|41.265751|69.200546
Toshkent 198-son A/B|100198|Qulyuk, uy 5||Toshkent shahri|41.246752|69.30077
Toshkent 208-son A/B|100208|Algaritm, uy 1||Toshkent shahri|41.257939|69.158473
Toshkent 209-son A/B|100209|Sergeli, uy 3||Toshkent shahri|41.213186|69.237014
Toshkent 210-son A/B|100210|2 Bositkhon shoh ko'chasi, uy 34||Toshkent shahri|41.286934|69.147972
Toshkent 37-son A/B|100037|Geofizika Beruniy ko'chasi, 2||Toshkent shahri|41.338751|69.387946
Toshkent 56-son A/B|100056|Milliy bog' ko'chasi, Jar boshi MFY||Toshkent shahri|41.331822|69.423975
Urganch shahar 3 A/B|220103|Urganch sh A.Beruniy kuchasi 1 uy|22-3-07-58|Xorazm viloyati|41.55215|60.63217
Urganch shahar 5 A/B|220105|Urganch sh Navboxor ko'chasi 33 uy|22-8-95-91|Xorazm viloyati|41.588404|60.584779
Urganch shahar 6 A/B|220106|Urganch sh Namangan kuchasi index10 a uy|22-5-53-47|Xorazm viloyati|41.541844|60.6367
Urganch shahar 10 A/B|220110|Urganch sh Fayazova kuchasi 23 uy|22-9-45-95|Xorazm viloyati|41.561421|60.605101
Urganch tumani Karaul PAB|220500|Urganch tumani Mustakillik - 5 uy|35-22-555|Xorazm viloyati|41.558844|60.581848
Urganch tumani Ko'palik A/B|220501|Urganch tumani Yuqori bog' maxallasi Xamid Olimjon ko'chasi|97 299 63 14|Xorazm viloyati|41.579796|60.733782
Urganch tumani Gaybu A/B|220503|Urganch tumani, Gaybu qishloq'i Xojiboylar maxalllasi Turkmanlik ko'chasi|99-560-51-53|Xorazm viloyati|41.5243014|60.6162036
Urganch tumani Chakkasholikor A/B|220509|Urganch tumani, Chakkasholikor qishloq'i Okariqlar maxallasi Gurlan ko'chasi 59 uy|62-35-24-399|Xorazm viloyati|41.583799|60.611552
Urganch tumani Yukoribog A/B|220513|Urganch tumani, Yuqoribog' MFY Qipchoq maxallasi Dangalchi ko'chasi 2 uy|62-35-35-130|Xorazm viloyati|41.564594|60.6831321
Urganch tumani Cholish A/B|220510|Urganch tumani, Cholish shchasi Munis Xorazmiy ko'chasi 31 uy|93-749-11-71|Xorazm viloyati|41.620005|60.6831321
Urganch tumani Chatko'pir A/B|220512|Urganch tumani, Chatko'pir qishloq'i Xilol maxallasi Alpomish ko'chasi 31 uy 16 yulak|91-288-98-65|Xorazm viloyati|41.588186|60.542749
Urganch tumani Bekobod A/B|220502|Urganch tumani, Bekobod qishloq'i Oqyop maxallasi Turon Zamin ko'chasi|99-465-02-51|Xorazm viloyati|41.552165|60.470384
Urganch tumani Ichiyalar A/B|220505|Urganch tumani, G'alaba qishloq'i Obod maxallasi Komillik ko'chasi|97-511-87-98|Xorazm viloyati|41.593799|60.543103
Urganch tumani Yuqori Do'rman A/B|220514|Urganch tumani, Yuqori Do'rman kishlogi Jayxun maxallasi Durman ko'chasi 1 uy|62-35-24-899|Xorazm viloyati|41.6047|60.61923
Urganch tumani Koromon A/B|220506|Urganch tumani, Qaraman qishloq'i Beruniy maxallasi Guliston ko'chasi|97-790-82-35|Xorazm viloyati|41.522071|60.509596
Urganch tumani Chandirkiyot A/B|220511|Urganch tumani, Chandirkiyot qishloq'i Qiyot maxalllasi Gujumzor ko'chasi|97-299-21-17|Xorazm viloyati|41.509097|60.665061
Xiva PAB|220900|Xiva shaxar, A.Temur ko'chasi 23 uy|377-46-06|Xorazm viloyati|41.408301193829|60.33681281907
Xiva -1 A/B|220901|Xiva shaxar, Yangiobod shaxarchasi M.Matkarimov ko'chasi 47a uy|377-24-54|Xorazm viloyati|41.408054|60.336666
Guliston A/B|220903|Xiva shaxar, Jo'ryon kishlog'i qumyop maxalla Sovod ko'cha 1-uy|99-709-93-78|Xorazm viloyati|41.467244|60.572839
Dashyak A/B|220904|Xiva shaxar, Dashyaq qishloq Gulshan 2 maxalla Baraka ko'chasi|62-374-81-53|Xorazm viloyati|41.393908|60.324289
Kishlok-kishlok A/B|220907|Xiva shaxar, Oqyop qishloq'i Qibla tozabog' maxalla Bol xovuz ko'chasi 3-uy|99-733-32-34|Xorazm viloyati|41.368331|60.34
Madaniyat A/B|220909|Xiva sh, Sayot kishlog'i Qattibosh maxalla Ko'ksaroy ko'cha|95-602-28-19|Xorazm viloyati|41.404252|60.471474
Palasulton A/B|220910|Xiva shaxar, Lolazor maxalla Istiqbol ko'cha|91-422-44-05|Xorazm viloyati|41.417992|60.404582
Uzbekistan A/B|220911|Xiva shaxar, Shomoxulum maxalla Tinchlik ko'cha 1-uy|62-374-71-22|Xorazm viloyati|41.437698|60.441558
Chanashik A/B|220912|Xiva shaxar, Chanashik maxalla Diyor ko'cha|95-602-27-51|Xorazm viloyati|41.458808|60.384288
Chinobod A/B|220913|Xiva shaxar, Chinobod qishloq'i Al-Xorazmiy maxalla Oltin boshoq ko'cha|97-525-63-35|Xorazm viloyati|41.359165|60.406665
Eskikiyat A/B|220914|Xiva shaxar, Eski-qiyot qishloq'i Buyuk yo'l ko'chasi 161-uy|99-505-35-30|Xorazm viloyati|41.408679|60.359752
Yangiarik PAB|221100|Yangiarik tumani, Mustakillik kuchasi 75 uy|62-38-54-707|Xorazm viloyati|41.362441|60.613572
Kattabog A/B|221103|Yangiarik tumani, A.O'tar qishloq'i|62-38-77-107|Xorazm viloyati|41.379725|60.53437
Kuriktom A/B|221104|Yangiarik tumani, Kuriqtom qishloq'i|95-606-27-31|Xorazm viloyati|41.335377|60.630545
Karmish A/B|221105|Yangiarik tumani, Karmish qish Karmish max. Xiva ko'chasi|95-602-29-44|Xorazm viloyati|41.410234|60.577135
Olga A/B|221106|Yangiarik tumani, Gulobod qishloq'i Arboblar MFY|95-602-28-31|Xorazm viloyati|41.392656|60.697605
Ostona A/B|221107|Yangiarik tumani, Ostana kishlog'i|95-602-28-31|Xorazm viloyati|41.344049|60.563563
Chikirchi A/B|221109|Yangiarik tumani, Oq machit qishloq'i|95-602-29-30|Xorazm viloyati|41.311789|60.510512
Gurlan PAB|220300|Gurlan tumani, P.Maxmud ko'chasi 70 uy|62-36-51-4-48|Xorazm viloyati|41.841898|60.395986
Alchin A/B|220302|Gurlan tumani, Vazir qishloq'i Mullajuman maxallasi Nurli Zamin ko'chasi 75 uy|95-602-29-07|Xorazm viloyati|41.955435|60.283003
Chinobod A/B|220303|Gurlan tumani, Sholikor kishlog'i Chinobod maxallasi Kengisboyev ko'chasi 1 uy|95-602-29-02|Xorazm viloyati|41.788528|60.346535
Vazir A/B|220304|Gurlan tumani, Vazir qish Esabiy max.|95-602-27-08|Xorazm viloyati|41.912601|60.375437
Guliston A/B|220305|Gurlan tumani, Guliston qish Kim Sergey ko'chasi 1 uy|95-606-27-61|Xorazm viloyati|41.919897|60.200271
Do'simbiy A/B|220306|Gurlan tumani, Do'simbiy maxallasi o'zbekiston ko'chasi 21 uy|95-602-27-83|Xorazm viloyati|41.928123|60.295471
Navoiy A/B|220309|Gurlan tumani, Xizr Eli qishloq'i S.Raximov ko'chasi 3 uy|95-602-27-15|Xorazm viloyati|41.877855|60.351271
Saxtiyon A/B|220310|Gurlan tumani, Saxtiyon qishloq'I, Saxtiyon mahallasi, Munis-Xorazmiy ko'chasi|99-501-88-48|Xorazm viloyati|41|60
Xakikat A/B|220311|Gurlan tumani, Olg'a qishloq'i Xamza ko'chasi 5 uy|95-602-28-13|Xorazm viloyati|41.840611|60.36722
shongi A/B|220313|Gurlan tumani, Birlashgan qishloq'i Nukus maxallasi Gujumzor ko'chasi 1uy|95-602-29-12|Xorazm viloyati|41.870461|60.306414
Eshimjiyron A/B|220314|Gurlan tumani, Eshimjiron qishloq'i Yormish maxallasi G.Ataboyev ko'chasi 23 uy|95-602-29-11|Xorazm viloyati|41.85049|60.413863
Yangiobod A/B|220315|Gurlan tumani, sholikor qishloq'i o'yilma maxallasi N.Kubro ko'chasi 45 uy|95-602-29-01|Xorazm viloyati|41.854185|60.179463
Yangibazar PAB|221200|Yangibazar tumani, J.Manguberdi ko'chasi 2 uy|62-41-92-192|Xorazm viloyati|41.716412|60.523243
Oyokdo'rman A/B|221201|Yangibazar tumani, Oyodo'rman MFY|95-620-27-12|Xorazm viloyati|41.639851|60.495443
Bogolon A/B|221202|Yangibazar tumani, Bog'olon qishloq'i|95-602-29-10|Xorazm viloyati|41.750836|60.486301
Bo'zkala A/B|221203|Yangibazar tumani, Bo'sqala qish|95-602-29-47|Xorazm viloyati|41.745348|60.393733
Uygur A/B|221207|Yangibazar tumani, Uyg'ur qishloqi||Xorazm viloyati|41.657176|60.576792
Xamza A/B|221208|Yangibazar tumani, Kalandardo'rman qishloq Mag'itlar maxallasi|95-602-27-64 91-43361-05|Xorazm viloyati|41.724619|60.584573
Cho'balanchi A/B|221209|Yangibazar tumani, Cho'bolonchi qishloqi|95-602-29-65|Xorazm viloyati|41.63968|60.498145
Xonka PAB|220800|Xonka tumani, Xalqlar do'stligi ko'chasi index 25 uy|62-39-91-714|Xorazm viloyati|41.471135|60.775627
Amudaryo A/B|220801|Xonka tumani, Amudaryo QFY Mosh to'g'oy maxallasi|97-203-87-21 62-39-96-142|Xorazm viloyati|41.499703|60.865403
Kaltayap A/B|220802|Xonka tumani, Kaltayop QFY Oydin xayot mahallasi|94-239-80-70 62-39-49-442|Xorazm viloyati|41.407543|60.818667
Madir A/B|220803|Xonka tumani, Madir QFY Do'stlik maxallasi|98-277-05-10 62-39-91-786|Xorazm viloyati|41.455098|60.750976
Namuna A/B|220804|Xonka tumani, Namuna QFY Yosh kuch maxallasi|97-511-91-10 62-39-95-142|Xorazm viloyati|41.456755|60.808548
Jirmiz A/B|220805|Xonka tumani, Jirmiz QFY Nurobod maxallasi|95-606-78-62 95-602-29-43|Xorazm viloyati|41.439514|60.651505
Zinaxos A/B|220806|Xonka tumani, Navoiy QFY Znaxos maxallasi|90-557-05-70 62-39-42-059|Xorazm viloyati|41.460489|60.684321
Karokash A/B|220808|Xonka tumani, Qoraqosh QFY Mustaqillik maxallasi|99-578-89-50 95-602-28-79|Xorazm viloyati|41.436008|60.73338
Karomozi A/B|220809|Xonka tumani, Qaramazi maxallasi Ok oqtil ko'chasi 66 a-uy|97-457-99-63 62-39-96-142|Xorazm viloyati|41.531100151558|60.751634296248
Sarapayon A/B|220813|Xonka tumani, Sarapayon qishloq'i Paxtagul maxallasi Madaniyat ko'chasi 7-uy|97-451-55-90|Xorazm viloyati|41.491467|60.751557
Toma A/B|220814|Xonka tumani, Toma QFY Toma maxallasi|99-428-34-72 95-602-26-42|Xorazm viloyati|41.430221|60.83373
Qirsyop A/B|220815|Xonka tumani, Qirqyop qishloq'i Obod maxallasi Qаnoat ko'chasi 34-uy|99-157-45-75|Xorazm viloyati|41.504428|60.785927
Bog'ot PAB|220200|Bogot tumani, O'zbekiston ko'chasi 10-uy|62-31-51-717|Xorazm viloyati|41.35637|60.81292
Ok oltin A/B|220201|Bogot tumani, Bogot tuman Galaba MFY|95-602-29-40|Xorazm viloyati|41.37105|60.776672
Xitoy A/B|220203|Bogot tumani, Soxibkor MFY|95-602-27-06|Xorazm viloyati|41.338145|60.866732
Besharik A/B|220204|Bogot tumani, Nurli maskan MFY|95-602-27-03|Xorazm viloyati|41.34594|60.82193
Dexkonbozar A/B|220205|Bogot tumani, Dexkon Obod MFY|95-602-27-70|Xorazm viloyati|41.335716|60.919372
Kulon-karabog A/B|220208|Bogot tumani, O‘ulon-O‘arabog MFY|62-31-79-442|Xorazm viloyati|41.367383|60.916851
Nayman A/B|220210|Bogot tumani, Nurli xayot MFY|95-620-27-16|Xorazm viloyati|41.347452|60.719357
Tupchi A/B|220211|Bogot tumani, Topchi MFY|95-602-27-45|Xorazm viloyati|41.392208|60.975715
Yangikurilish A/B|220213|Bogot tumani, Uzbekiston MFY|95-602-27-56|Xorazm viloyati|41.312863|60.928375
Xazorasp PAB|220700|Xazorasp tumani, Xazarasp shaxarchasi A.Navoiy ko'chasi 40 uy|62-32-33-416|Xorazm viloyati|41.310775785787|61.090238472285
Al-Xorazmiy A/B|220702|Xazorasp tumani, Karvak qishloq'i Karvak maxallasi Abu Rayxon Beruniy ko'cha|94-238-73-13|Xorazm viloyati|41.281248|61.17472
Muxomon A/B|220704|Xazorasp tumani, Muxomon qishloq'i Muxomon maxallasi Bunyodkor ko'chasi|94-235-3175|Xorazm viloyati|41.299437|61.126282
Ataliq A/B|220705|Xazorasp tumani, Sanoat qishloq'i Ataliq maxallasi Yangi O'zbekiston ko'chasi 23 uy|99-960-36-98|Xorazm viloyati|41.310509|61.073687
Beshta A/B|220707|Xazorasp tumani, Beshta qishloq'i Beshta maxallasi Kelajak sari ko'chasi 51 uy|93-310-50-31|Xorazm viloyati|41.297904|61.081092
Karvak A/B|220703|Xazorasp tumani, Yangibozor qishloq'i Yangibozor maxallasi Ma'rifat ko'chasi|94-318-68-80|Xorazm viloyati|41.284694|61.211329
Bogdor A/B|220708|Xazorasp tumani, Sanoat qishloq'i Bog'dor maxallasi Mezon ko'chasi|94-231-12-24|Xorazm viloyati|41.321503|61.082167
Jangiota A/B|220709|Xazorasp tumani, Ovshar qishloq'i Ovshar maxallasi Buyuk maqsad ko'chasi 21 uy|99-947-50-78|Xorazm viloyati|41.291064|61.14092
Atov A/B|220711|Xazorasp tumani, Bo'ston qishloq'i qovunchi maxallasi|97-515-48-12|Xorazm viloyati|41.353571|61.077594
Pichakchi A/B|220712|Xazorasp tumani, Pichoqchi qishloq'i Pichoqchi maxallasi Xiva yo'li ko'chasi 33 uy|93-286-18-12|Xorazm viloyati|41.320716|61.031852
Pitnak A/B|220400|Tuproqqal'a tumani, Pitnak sh Mustakillik -1 uy|62-30-53-562|Xorazm viloyati|41.217597|61.309487
Sarimoy A/B|220404|Tuproqqal'a tumani, Sarimoy qishloq Baxor ko'chasi Telekom binosi|94-113-05-82|Xorazm viloyati|41.059568|61.910414
Pitnak A/B|220401|Tuproqqal'a tumani, Saidlar maxallasi Konchilar ko'chasi 1 uy|94-113-61-95|Xorazm viloyati|41.203609|61.303333
Tuproqqal'a A/B|220405|Tuproqqal'a tumani, Tuproqqala qishloq K.Otaniyazov ko'cha 14 sonli maktab|94-113-05-82|Xorazm viloyati|40.848142|62.045966
Shixlar A/B|220406|Tuproqqal'a tumani, Shixlar maxallasi Xoji bobo ko'chasi|97-456-68-95|Xorazm viloyati|41.193514|61.287746
Qo'shqupir PAB|220600|Qo'shqupir tumani, Rashidov ko'chasi 47 uy|62-32-95-356|Xorazm viloyati|41.531241|60.35099
Amirkum A/B|220601|Qo'shqupir tumani, O'zbekyop qishloq'i Amirqum maxallasi Umid nihollari ko'chasi 48 uy|95-602-29-31 62-32-52-333|Xorazm viloyati|41.53512|60.333168
Kenagas A/B|220602|Qo'shqupir tumani, Kenagas qishloq'i qoraman maxallasi Sog'lom avlod ko'chasi 123 uy|95-602-28-03|Xorazm viloyati|41.510795|60.474086
Okdarband A/B|220603|Qo'shqupir tumani, Oqdarband qishloq'i Oshaq qal'a maxallasi Obod maskani ko'chasi|95-620-27-08 62-32-78-724|Xorazm viloyati|41.555343|60.220714
Xadra A/B|220604|Qo'shqupir tumani, Xadra qishloq'i maxallasi О'rtaqishloq maxallasi Nastariy ko'chasi 12 uy|95-602-29-06|Xorazm viloyati|41.472252|60.394283
Xonobod A/B|220605|Qo'shqupir tumani, Xanobod qishloq'i Oltin Voxa maxallasi Oltin chinar ko'chasi 12 uy|95-602-27-36 62-32-73-336|Xorazm viloyati|41.472098|60.297508
Xosiyan A/B|220606|Qo'shqupir tumani, Xasiyan qishloq'i Tegalak maxallasi Jasorat ko'chasi 1 uy|95-606-27-65 62-32-70-272|Xorazm viloyati|41.457983|60.200908
G'azavot A/B|220607|Qo'shqupir tumani, Gazavot qishloq'i sherabod maxallasi Obod ko'chasi 41 uy|95-602-27-38 62-32-71-337|Xorazm viloyati|41.568165|60.182741
O'rtayop A/B|220611|Qo'shqupir tumani, O'rtayop qishloq'i Adolat maxallasi Adolat ko'chasi 85 uy|95-606-27-64 62-32-79-290|Xorazm viloyati|41.473348|60.182336
Xayrovat A/B|220614|Qo'shqupir tumani, Xayrabot qishloq'i Xayrabot maxallasi Juyxun ko'chasi 12 uy|95-602-29-13 62-32-75-333|Xorazm viloyati|41.501552|60.248797
Shix A/B|220615|Qo'shqupir tumani, Shaharix qishloq'i Bog'zor maxallasi Oqyap ko'chasi 84 uy|95-602-29-03 62-32-78-197|Xorazm viloyati|41.555563|60.262543
Shixmashxad A/B|220616|Qo'shqupir tumani, Shaharix Mashxad kishlogi shix Mashxad maxallasi Serviqal ko'chasi 35 uy|95-602-29-46|Xorazm viloyati|41.540591|60.297624
Shovot PAB|221000|Shovot tumani, Shovat K.Ataniyazov ko'chasi 17 uy|62-34-55-290|Xorazm viloyati|41.624037|60.29814
Bo'yrachi A/B|221001|Shovot tumani, Bo'yrachi MFY Bo'yrachi maxallasi|95-602-27-52|Xorazm viloyati|41.661031|60.413348
Do'stlik A/B|221002|Shovot tumani, Ijtimoiyat QFY Madaniyat maxallasi|95-602-27-58|Xorazm viloyati|41.753958|60.183838
Istiklol A/B|221003|Shovot tumani, Shovotkal'a QFY Madaniyat ko'cha 1 uy|62-34-51-298|Xorazm viloyati|41.702068|60.281061
Kiyat A/B|221004|Shovot tumani, Qiyat QFY Oydin maxallasi|62-34-46-140|Xorazm viloyati|41.683898|60.322542
Kuraklar A/B|221006|Shovot tumani, Katqal'at QFY Navro'z maxallasi|95-602-27-08|Xorazm viloyati|41.694227|60.353859
Manak A/B|221007|Shovot tumani, Cho'qli QFY Monoq maxallasi|95-602-27-59|Xorazm viloyati|41.737977|60.154806
Nurjonbotir A/B|221008|Shovot tumani, QFY Arbek maxallasi|62-34-42-163|Xorazm viloyati|41.728006|60.118412
Ayirtom A/B|221009|Shovot tumani, Xitoy QFY, Uzunko'l maxallasi|62-34-40-143|Xorazm viloyati|41.624037|60.29814
Axunbabayev A/B|221010|Shovot tumani, Qangli QFY Guliston maxallasi|95-602-28-79|Xorazm viloyati|41.785259|60.130748
Chigatoyqal'a A/B|221012|Shovot tumani, Chig'atoyqal'a QFY Chig'atoyqal'a maxallasi|62-34-50-094|Xorazm viloyati|41.688875|60.238711
Farg'ona shaxar 2-son A/B|150102|Fargona sh Fayzulloxujayeva ko‘chasi, 3 uy|(73)-243-07-63|Farg'ona viloyati|40.374322|71.816393
Farg'ona shaxar 3-son A/B|150103|Fargona sh B.Margiloniy ko‘chasi, 90 uy|(73)-244-56-53|Farg'ona viloyati|40.393735|71.758085
Farg'ona shaxar 4-son A/B|150104|Fargona sh Al-Xorazmiy ko‘chasi, 7 Vuy, 17 xonadon|(73)-245-12-48|Farg'ona viloyati|40.359177|71.840432
Farg'ona shaxar 5-son A/B|150105|Fargona sh Sakkokiy ko‘chasi, 55 uy|(73)-244-62-78|Farg'ona viloyati|40.391438|71.77261
Farg'ona shaxar 8-son A/B|150108|Fargona sh Tinchlik ko‘chasi, 19 А uy|(73)-242-78-82|Farg'ona viloyati|40.445556|71.759715
Farg'ona shaxar 9-son A/B|150109|Fargona sh Shifokorlar ko‘chasi, 14 В uy 75 xonadon|(73)-242-28-65|Farg'ona viloyati|40.435307|71.757711
Farg'ona shaxar 10-son A/B|150110|Fargona sh Yangi asr ko‘chasi, 93 uy 2 xonadon|(73)-242-43-24|Farg'ona viloyati|40.430748|71.75353
Farg'ona shaxar 11-son A/B|150111|Fargona sh P.Maxmud ko‘chasi, 82 uy|(73)-243-78-47|Farg'ona viloyati|40.389808|71.805298
Farg'ona shaxar 15-son A/B|150115|Fargona sh A.Navoiy ko‘chasi, 64 uy|(73)-226-97-61|Farg'ona viloyati|40.368306|71.782234
Farg'ona shaxar 17-son A/B|150117|Fargona sh A.Yassaviy ko‘chasi, 45 V uy 2 xonadon|(73)-243-58-24|Farg'ona viloyati|40.382489|71.800105
Bag'dod tumani PAB|150200|Bag'dod, Mustaqillik ko'chasi 7 uy|(73)-479-12-00|Farg'ona viloyati|40.460406|71.212084
Bog'dod tumani Bog'dod-1 A/B|150201|Bag'dod, do'stlik ko'chasi 15 uy||Farg'ona viloyati|40.454898|71.216213
Bog'dod tumani Qashqarmakay A/B|150208|Farg'ona viloyati, Bag'dod tumani, Qashqarmakay qishloqi|(95)-404-36-11|Farg'ona viloyati|40.45854|71.154165
Bag'dod tumani Kongil A/B|150209|Farg'ona viloyati, Bag'dod tumani, Ko'goli qishloqi,||Farg'ona viloyati|40.470891|71.159271
Bag'dod tumani Qo'shtegirmon A/B|150210|Farg'ona viloyati, Bag'dod tumani, Olchin qishloqi,|(95)-402-20-46|Farg'ona viloyati|40.527235|71.129919
Bag'dod tumani Matqulobod A/B|150211|Farg'ona viloyati, Bag'dod tumani, Matqulobod qishloqi,|(95)-402-20-38|Farg'ona viloyati|40.530939|71.200657
Bag'dod tumani Ultarma A/B|150214|Farg'ona viloyati, Bag'dod tumani, Ultarma qishloqi,||Farg'ona viloyati|40.484594|71.107523
Bag'dod tumani Chekmirzaobod A/B|150215|Farg'ona viloyati, Bag'dod tumani, Bag'dod-2 qishloqi, Konizar-1 ko'chsi 103 uy||Farg'ona viloyati|40.4774|71.259418
Bag'dod tumani Chigit A/B|150216|Farg'ona viloyati, Bag'dod tumani, Ho'ja qishloqi, Istiqlol ko'chsi 102 uy||Farg'ona viloyati|40.499285|71.178865
Bag'dod tumani Chuvalanchi A/B|150217|Farg'ona viloyati, Bag'dod tumani, Xitoy-2 qishloqi,|(95)-404-36-09|Farg'ona viloyati|40.789333|71.148598
Bag'dod tumani Cho'rindi A/B|150218|Farg'ona viloyati, Bag'dod tumanii, Cho'rindi qishloqi, Ipak yo'li ko'chsi 82 uy|(95)-402-20-69|Farg'ona viloyati|40.451631|71.177931
Bag'dod tumani sho'rqishloq A/B|150219|Farg'ona viloyati, Bag'dod tumanii, Qirqvoldi qishloqi,||Farg'ona viloyati|40.471784|71.200895
Beshariq PAB|150300|Beshariq tumani Oltin vodiy ko‘chasi 103-uy|73-612-17-87|Farg'ona viloyati|40.436328|70.608207
Beshariq tumani Janjal A/B|150307|Beshariq tumani Quyi zarqaynar qishloq‘i||Farg'ona viloyati|40.452821|70.613624
Beshariq tumani Baxmal A/B|150303|Beshariq tumani Yangiqishloq qishloq‘i|95-402-21-16|Farg'ona viloyati|40.418462|70.620301
Beshariq tumani Rapqon A/B|150316|Beshariq tumani Rapqon qishloq‘i|73-614-70-41|Farg'ona viloyati|40.351418|70.663983
Beshariq tumani Qashqarqishloq A/B|150311|Beshariq tumani Qashqar qishloq‘i|73-614-71-73|Farg'ona viloyati|40.339807|70.684744
Beshariq tumani Yakkatut A/B|150322|Beshariq tumani Yakkatut qishloq‘i|95-402-35-66|Farg'ona viloyati|40.407899|70.521495
Beshariq tumani Beshovul A/B|150304|Beshariq tumani Beshovul qishloq‘i||Farg'ona viloyati|40.386233|70.475964
Beshariq tumani Ariqboshi A/B|150302|Beshariq tumani Ariqboshi qishloq‘i||Farg'ona viloyati|40.447882|70.502534
Beshariq tumani Chimboy A/B|150319|Beshariq tumani Chimboy qishloq‘i||Farg'ona viloyati|40.467237|70.558739
Beshariq tumani Qoraquyli A/B|150309|Beshariq tumani Qoraquyli qishloq‘i||Farg'ona viloyati|40.419803|70.549712
Beshariq tumani Dexqonto‘da A/B|150306|Beshariq tumani Dexqonto‘da qishloq‘i||Farg'ona viloyati|40.49747|70.622444
Beshariq tumani Namuna A/B|150313|Beshariq tumani Namuna qishloq‘i||Farg'ona viloyati|40.448823|70.669762
Beshariq tumani shoberdi А/В|150321|Beshariq tumani Tashariq qishloq‘i||Farg'ona viloyati|40.430608|70.581013
Farg'ona tumani Vodil PAB|150400|Fargona tumani Vodil qishloqi.Margilon 17 uy|(73) 353-13-56|Farg'ona viloyati|40.17446|71.729959
Farg'ona tumani Logon A/B|150406|Fargona tumani Logon qishloqi|(73) 353-41-11|Farg'ona viloyati|40.280107|71.87103
Farg'ona tumani Аvval A/B|140403|Fargona tumani Avval qishloqi|(73) 353-96-52|Farg'ona viloyati|40.308628|71.838109
Farg'ona tumani Мindon-2 A/B|150407|Fargona tumani Mindon qishloqi|(73) 353-96-52|Farg'ona viloyati|40.227561|71.556176
Farg'ona tumani Оkbilol A/B|150412|Fargona tumani Oqbilol qishloqi||Farg'ona viloyati|40.312089|71.666869
Farg'ona tumani Chekshura A/B|150415|Fargona tumani Chekshura qishloqi|(73) 241-73-92|Farg'ona viloyati|40.383004|71.743383
Farg'ona tumani S/s Chimion A/B|150416|Fargona tumani Chimion qishloqi|(73) 353-73-33|Farg'ona viloyati|40.254943|71.571855
Farg'ona tumani Novkent A/B|150411|Fargona tumani Novkent qishloqi|(73) 353-54-36|Farg'ona viloyati|40.231262|71.74394
Farg'ona tumani Honqiz A/B|150414|Fargona tumani Hangiz qishloqi||Farg'ona viloyati|40.287309|71.507665
Farg'ona tumani N/P Chimion A/B|150410|Fargona tumani Chimion qishloqi|(95) 401-21-06|Farg'ona viloyati|40.254534|71.516842
Farg'ona tumani shohimardon A/B|150418|Fargona tumani shohimardon qishloqi|(73) 353-65-98|Farg'ona viloyati|39.990215|71.807478
Farg'ona tumani Kaptarxona A/B|150404|Fargona tumani Kaptarхona qishloqi|(73) 353-83-17|Farg'ona viloyati|40.220531|71.795777
Farg'ona tumani Dang'ara PAB|150500|Farg'ona viloyati Dang'ara tumani Muqumiy ko'chasi 8-uy|(73)-572-12-65|Farg'ona viloyati|40.576789|70.919005
Dang'ara tumani Sanam A/B|150516|Farg'ona viloyati Dang'ara tumani Ganjiravon qishloq'i||Farg'ona viloyati|40.594147|70.941742
Dang'ara tumani Qiyali-qurgoncha A/B|150511|Farg'ona viloyati Dang'ara tumani Qiyli-qo'rg'oncha qishloq'i||Farg'ona viloyati|40.634485|70.925534
Dang'ara tumani Mulkobod A/B|150513|Farg'ona viloyati Dang'ara tumani shodlik qishloq'i|(73)404-59-26|Farg'ona viloyati|40.675134|70.925031
Dang'ara tumani Ho'ja A/B|150518|Farg'ona viloyati Dang'ara tumani Ho'ja qishloq'i|(73)402-20-71|Farg'ona viloyati|40.725974|70.927882
Dang'ara tumani Oqjar A/B|150502|Farg'ona viloyati Dang'ara tumani Bog'ish qishloq'i|(73)404-59-33|Farg'ona viloyati|40.675189|70.790834
Dang'ara tumani Kapasaroy A/B|150507|Farg'ona viloyati Dang'ara tumani Kapasaroy qishloq'i||Farg'ona viloyati|40.656902|70.753975
Dang'ara tumani Qirqlar A/B|150510|Farg'ona viloyati Dang'ara tumani Bostonliq qishloq'i|(73)402-20-89|Farg'ona viloyati|40.585322|70.853819
Dang'ara tumani Jilva A/B|150506|Farg'ona viloyati Dang'ara tumani Jilva qishloq'i|(73)404-59-30|Farg'ona viloyati|40.560638|70.845022
Dang'ara tumani Naymancha A/B|150514|Farg'ona viloyati Dang'ara tumani Rahmatullo qishloq'i|(73)404-36-13|Farg'ona viloyati|40.524965|70.875394
Qo'qon shaxar PAB|150700|Farg'ona viloyati Qo'qon sh O'rda tagi ko‘ch. 38 uy|(73)-542-20-21|Farg'ona viloyati|40.539585|70.934647
Qo'qon shaxar 1-son A/B|150701|Qo'qon sh, do'slik ko‘chasi, 6 uy||Farg'ona viloyati|40.53736|70.95805
Qo'qon shaxar 4-son A/B|150704|Qo'qon sh, Muqumiy shaxarchasi 51/6 uy||Farg'ona viloyati|40.50832|70.92183
Qo'qon shaxar 5-son A/B|150705|Qo'qon sh Jahon otin 1 uy||Farg'ona viloyati|40.47651|70.98749
Qo'qon shaxar 7-son A/B|150707|Farg'ona viloyati Qo'qon sh O'rda tagi ko‘ch. 38 uy|73-542-47-22|Farg'ona viloyati|40.53933|70.93499
Qo'qon shaxar 8-son A/B|150708|Qo'qon sh, Usta bozor 27||Farg'ona viloyati|40.520287|70.928072
Qo'qon shaxar 9-son A/B|150709|Qo'qon sh, Avgonbog' ko'chasi 85a|73-543-74-21|Farg'ona viloyati|40.50832|70.92179
Qo'qon shaxar 12-son A/B|150712|Qo'qon sh, A.Navoiy ko'chasi 5|73-543-14-43|Farg'ona viloyati|40.54295|70.97049
Quvasoy shaxar PAB|150900|Fargona viloyati, Quvasoy shahri, A,Navoiy kochasi, 70-uy|(73)-372-09-97|Farg'ona viloyati|40.296956|71.984534
Quvasoy shaxar 6-son A/B|150906|Fargona viloyati, Quvasoy shahri, A,Azizov kochasi, 164-uy 4-xonadon|(73)-372-11-98|Farg'ona viloyati|40.29196|71.989024
Quvasoy shaxar 8-son A/B|150908|Fargona viloyati, Quvasoy shahri, Isfayramsoy qishloqi, Mirichkor kochasi, raqamsiz-uy|(73)-372-50-49|Farg'ona viloyati|40.312674|71.933431
Quvasoy shaxar 10-son A/B|150910|Fargona viloyati, Quvasoy shahri, A,Azizov kochasi, 211-uy 2-xonadon|(73)-372-17-56|Farg'ona viloyati|40.289776|72.001111
Quvasoy shaxar Qochqorchi A/B|150913|Fargona viloyati, Quvasoy shahri, Qochqorchi qichlogi, Oqyol kochasi, 1-uy|(95)-402-20-59|Farg'ona viloyati|40.39866|71.842494
Quvasoy shaxar Sufon A/B|150915|Fargona viloyati, Quvasoy shahri, Sufon qichlogi, Behizor kochasi, 17-uy|(95)-404-36-21|Farg'ona viloyati|40.37173|71.936019
Quvasoy shaxar Arsif A/B|150911|Fargona viloyati, Quvasoy shahri, Arsif qichlogi, Sihatgoh kochasi|(95)-402-20-64|Farg'ona viloyati|40.424363|71.959577
Quvasoy shaxar Valik A/B|150912|Fargona viloyati, Quvasoy shahri, Valik qichlogi, shabnam kochasi, 45-uy||Farg'ona viloyati|40.375383|71.991849
Oltiariq tumani PAB|151200|Fargona viloyati oltiariq tumani mustaqillik kucha 3 uy|(73)-432-05-33|Farg'ona viloyati|40.391751|71.476272
Oltiariq tumani Borboliq A/B|151201|Fargona viloyati oltiariq tumani Borboliq MFY||Farg'ona viloyati|40.325176|71.369919
Oltiariq tumani Hamza A/B|151214|Fargona viloyati oltiariq tumani Tinshlik MFY|73-432-05-50|Farg'ona viloyati|40.424469|71.509471
Oltiariq tumani Oqboyra A/B|151208|Fargona viloyati oltiariq tumani Oqboyra MFY|73-432-05-50|Farg'ona viloyati|40.427645|71.579689
Oltiariq tumani Fayziobod A/B|151213|Fargona viloyati oltiariq tumani Fayziobod MFY|(95) 404-36-31|Farg'ona viloyati|40.414415|71.609715
Oltiariq tumani Povulgon A/B|151209|Fargona viloyati oltiariq tumani Povulgon MFY|(95) 404-36-25|Farg'ona viloyati|40.384052|71.504754
Oltiariq tumani Jurak A/B|151202|Fargona viloyati oltiariq tumani Jorak MFY|(95) 404-36-24|Farg'ona viloyati|40.381914|71.444868
Oltiariq tumani Eskiar A/B|151215|Fargona viloyati oltiariq tumani Eskiar ab MFY|(73) 432-01-89|Farg'ona viloyati|40.350553|71.388617
Oltiariq tumani Qiziltepa A/B|151205|Fargona viloyati oltiariq tumani Qiziltepa MFY|(95) 404-59-35|Farg'ona viloyati|40.499493|71.438175
Oltiariq tumani Katput A/B|151204|Fargona viloyati oltiariq tumani Katput MFY||Farg'ona viloyati|40.330501|71.316787
Oltiariq tumani O'zbekiston A/B|151211|Fargona viloyati oltiariq tumani Azimobod MFY||Farg'ona viloyati|40.442636|71.413219
Rishton shaxar PAB|151300|Farg‘ona viloyati Rishton shaxar Roshidoniy 160-uy|(73)-452-14-75|Farg'ona viloyati|40.357057|71.271691
Rishton tumani Pandigon A/B|151310|Farg‘ona viloyati Rishton tumani Pandigon MFY Toshyo‘li ko‘cha|(95)-402-20-81|Farg'ona viloyati|40.383863|71.241119
Rishton tumani Uyrat A/B|151312|Farg‘ona viloyati Rishton tumani Uyrat MFY ko‘cha|(95)-404-59-27|Farg'ona viloyati|40.396333|71.191869
Rishton tumani Yoyilma A/B|151306|Farg‘ona viloyati Rishton tumani YOyilma MFY YUksalish ko‘cha||Farg'ona viloyati|40.36464|71.091905
Rishton tumani Beshkapa A/B|151303|Farg‘ona viloyati Rishton tumani Beshkapa MFY Tinchlik ko‘cha|(95)-402-20-81|Farg'ona viloyati|40.418471|71.207229
Rishton tumani Bo'jay A/B|151304|Farg‘ona viloyati Rishton tumani Bo‘jay MFY B.Nabiev ko‘cha|(73)-452-46-31|Farg'ona viloyati|40.419528|71.245215
Rishton tumani Mehnatobоd A/B|151308|Farg‘ona viloyati Rishton tumani Mexnatobod MFY shodlik ko‘cha||Farg'ona viloyati|40.44719|71.360085
Rishton tumani Dutir A/B|151305|Farg‘ona viloyati Rishton tumani Dutir MFY Ziyokor ko‘cha-23|(95)-402-2085|Farg'ona viloyati|40.376974|71.35667
Rishton tumani Avazboy A/B|151302|Farg‘ona viloyati Rishton tumani Avazboy MFY Itifoq ko‘cha|(95)-404-36-29|Farg'ona viloyati|40.392481|71.283689
Toshloq tumani PAB|151500|Farg'ona viloyati Toshloq tumani A.Navoiy 46 uy|(73)-238-12-05|Farg'ona viloyati|40.48629|71.759108
Toshloq tumani Birlik A/B|151503|Farg'ona viloyati Toshloq tumani А.Navoiy-78||Farg'ona viloyati|40.50523|71.86106
Toshloq tumani Naymon A/B|151509|Farg'ona viloyati Toshloq tumani Navbahor ko'chasi||Farg'ona viloyati|40.56634|71.88315
Toshloq tumani Qumariq A/B|151507|Farg'ona viloyati Toshloq tumani Obisiyo ko'chasi||Farg'ona viloyati|40.56183|71.84448
Toshloq tumani Arabmоzor A/B|151501|Farg'ona viloyati Toshloq tumani Aylanmajar ko'chasi||Farg'ona viloyati|40.55014|71.78838
Toshloq tumani Sadda A/B|151510|Farg'ona viloyati Toshloq tumani Muqumiy ko'chasi||Farg'ona viloyati|40.50982|71.76532
Uchkoprik tumani Uchkoprik PAB|151600|Uchkoprik tumani Navruz shox kucha 48 uy|(73)-515-52-60|Farg'ona viloyati|40.546299|71.053172
Uchkoprik tumani Begobod A/B|151601|Uchkoprik tumani Begobod qishloq|95-400-22-39|Farg'ona viloyati|40.509299|71.053409
Uchkoprik tumani Gul A/B|151602|Uchkoprik tumani Qumariq qishloq|95-404-36-32|Farg'ona viloyati|40.571832|71.010622
Uchkoprik tumani Yoyilma A/B|151603|Uchkoprik tumani Yoyilma qishloq|95-404-36-38|Farg'ona viloyati|40.543168|71.006153
Uchkoprik tumani Jaloer A/B|151604|Uchkoprik tumani Jaloer qishloq|95-402-20-61|Farg'ona viloyati|40.640734|71.997379
Uchkoprik tumani Katta-kashkar A/B|151606|Uchkoprik tumani Katta-kashkar qishloq|95-402-20-62|Farg'ona viloyati|40.478171|71.075825
Uchkoprik tumani Qirgiz A/B|151608|Uchkoprik tumani Mamachol qishloq|95-402-38-49|Farg'ona viloyati|40.418631|71.027285
Uchkoprik tumani Kora-kul A/B|151609|Uchkoprik tumani Kora-kul qishloq|95-402-20-61|Farg'ona viloyati|40.510971|71.023353
Uchkoprik tumani Mashad A/B|151611|Uchkoprik tumani Mashad qishloq||Farg'ona viloyati|40.548071|71.087708
Uchkoprik tumani Palohon A/B|151614|Uchkoprik tumani Palohon qishloq||Farg'ona viloyati|40.59415|71.0275
Navbahor tumani PAB|151700|Farg'ona viloyati Furqat tumani, Navoiy kochasi 3 uy|(73) 549-12-44|Farg'ona viloyati|40.48405|70.77576
Furqat tumani Tomosha A/B|151707|Farg'ona viloyati Furqat tumani Tomosha qishloq'i|(95) 400-22-41|Farg'ona viloyati|40.46915|70.77216
Furqat tumani Jangketmon A/B|151702|Farg'ona viloyati Furqat tumani Xayit qishloq'i|(95) 404-59-21|Farg'ona viloyati|40.44766|70.7792
Furqat tumani Eshon A/B|151712|Farg'ona viloyati Furqat tumani Eshon qishloq'i|(95) 404-59-24|Farg'ona viloyati|40.43249|70.78566
Furqat tumani Qo'qonboy A/B|151705|Farg'ona viloyati Furqat tumani Qo'qonboy qishloq'i|(95) 402-20-92|Farg'ona viloyati|40.485288|70.820195
Furqat tumani Kaldushon A/B|151703|Farg'ona viloyati Furqat tumani Kaldushon qishloq'i|(95) 402-20-98|Farg'ona viloyati|40.472233|70.865075
Furqat tumani shoimbek A/B|151711|Farg'ona viloyati Furqat tumani shoimbek qishloq'i|(95) 404-36-45|Farg'ona viloyati|40.49535|70.84879
Furqat tumani Chek chuvaldoq A/B|151709|Farg'ona viloyati Furqat tumani Chek chuvaldoq qishloq'i|(95) 402-20-95|Farg'ona viloyati|40.53065|70.81497
Yaypan shaxar PAB|151800|Farg'ona viloyati,O'zbekiston tumani,Yaypan sh,Turkiston ko'chasi 130 uy|(73)-539-31-95|Farg'ona viloyati|40.381915|70.811229
O'zbekiston tumani Yaypan-1 A/B|151801|Farg'ona viloyati,O'zbekiston tumani,Yaypan shahri,Turkiston ko'chasi 230 uy|(73)-539-18-47|Farg'ona viloyati|40.370072|70.815501
O'zbekiston tumani Do'stlarobod A/B|151808|Farg'ona viloyati,O'zbekiston tumani,Тuyul MFY,Do'stlarobod ko'chasi|(73)-539-26-42|Farg'ona viloyati|40.350126|70.797422
O'zbekiston tumani Qushqo'noq A/B|151811|Farg'ona viloyati,O'zbekiston tumani,Dasht mahalla||Farg'ona viloyati|40.400627|70.845048
O'zbekiston tumani Qaynar A/B|151806|Farg'ona viloyati,O'zbekiston tumani,Tovush mahalla,Bunyodkor ko'chasi|(95)-400-22-36|Farg'ona viloyati|40.475909|70.914091
O'zbekiston tumani Oxmachit A/B|151816|Farg'ona viloyati,O'zbekiston tumani,Islom qishloq'i,Mustaqillik ko'chasi||Farg'ona viloyati|40.386499|70.789134
O'zbekiston tumani Nursux A/B|151813|Farg'ona viloyati,O'zbekiston tumani,Nursux MFY,Qaqir 1 ko'chasi||Farg'ona viloyati|40.366686|70.749646
O'zbekiston tumani Do'ngsaroy A/B|151805|Farg'ona viloyati,O'zbekiston tumani,Nurli kelajak MFY,Do'stlik ko'chasi||Farg'ona viloyati|40.463139|70.863028
O'zbekiston tumani Qizil-qaqir A/B|151809|Farg'ona viloyati,O'zbekiston tumani,shakarobod MFY,Mustaqillik ko'chasi||Farg'ona viloyati|40.348984|70.820992
O'zbekiston tumani Qaqir A/B|151807|Farg'ona viloyati,O'zbekiston tumani,Dahana qaqir qishloq'i|(73)-539-15-69|Farg'ona viloyati|40.332311|70.781242
O'zbekiston tumani Tagob A/B|151819|Farg'ona viloyati,O'zbekiston tumani,Katta tagob MFY,Ziyolilar ko'chasi|(73)-539-65-17|Farg'ona viloyati|40.351938|70.747029
O'zbekiston tumani Mingtut A/B|151812|Farg'ona viloyati,O'zbekiston tumani,Mingtut MFY,Mingtut ko'chasi||Farg'ona viloyati|40.499568|70.974656
O'zbekiston tumani Yakkatut A/B|151815|Farg'ona viloyati,O'zbekiston tumani,Yakkatut MFY,Mustaqillik ko'chasi 57 uy|(95)-402-72-12|Farg'ona viloyati|40.441043|70.883967
O'zbekiston tumani Ovchi A/B|151814|Farg'ona viloyati,O'zbekiston tumani,Ovchi MFY,katta ko'cha|(95)-404-36-41|Farg'ona viloyati|40.502399|70.946889
Yangiqurg'on tumani РАВ|151900|Farg'ona viloyati., Buvayda tumani, Chustiy ko‘chа. 1 uy|(73)-529-12-40|Farg'ona viloyati|40.556135|71.141104
Buvayda tumani Qo'rg'onobod А/В|151909|Farg'ona viloyati., Buvayda tumani, Qurgonobod qishloq'i|(95)-403-59-16|Farg'ona viloyati|40.601789|71.201677
Buvayda tumani Bachqir А/В|151901|Farg'ona viloyati., Buvayda tumani, Bachqir qishloq'i|(95)-403-36-43|Farg'ona viloyati|40.602028|71.162807
Buvayda tumani Poshopirim А/В|151913|Fargona viloyati., Buvayda tumani, Poshshopirim qishloq'i|(95)-402-20-96|Farg'ona viloyati|40.627983|71.173425
Buvayda tumani Oqqo'rg'on А/В|151912|Farg'ona viloyati., Buvayda tumani, Nayman qishloq'i|(95)-403-59-18|Farg'ona viloyati|40.607671|71.105147
Buvayda tumani Buvayda А/В|151903|Farg'ona viloyati., Buvayda tumani, Buvayda qishloq'i|(95)-403-36-42|Farg'ona viloyati|40.633535|71.080717
Ronon tumani PAB|151400|Sux k tumani, Istiqlol MFY|(73)-4625040|Farg'ona viloyati|39.969574|71.129805
Sux tumani Lemburg А/В|151402|Sux k tumani, Lemburg MFY||Farg'ona viloyati|40.070267|71.099296
Sux tumani Sarikanda А/В|151403|Sux k tumani, Hazrati ali MFY||Farg'ona viloyati|39.945554|71.095593
Sux tumani Tul А/В|151404|Sux k tumani, Soxibkor MFY|(95)-402-21-18|Farg'ona viloyati|40.123024|71.079883
Sux tumani Xushyar А/В|151405|Sux k tumani, Xushyar MFY||Farg'ona viloyati|39.901546|71.062506
Sux tumani Chumoqchi А/В|151406|Sux k tumani., Mulgon MFY|(95)-404-53-04|Farg'ona viloyati|39.945107|71.153936
Marg'ilon shahar PAB|151100|Margilan shahri Mustaqillik ko'chasi 221a uy|(73-253-33-85|Farg'ona viloyati|40.483409|71.721463
Marg'ilon shahar 3-son A/B|151103|Margilan shahri B Margiloniv ko'chasi 8/17 uy|(73)-253-01-67|Farg'ona viloyati|40.47216|71.75747
Marg'ilon shahar 8-son A/B|151108|Margilan shahri tinchlik ko'chasi 240 uy 29xona|(73)-253-95-64|Farg'ona viloyati|40.468069|71.734442
Marg'ilon shahar13-son A/B|151113|Margilan shahri Y Fargona ko'chasi 33/1 uy|(73)-253-54-99|Farg'ona viloyati|40.43237|70.71807
Quva shahar PAB|150800|Farg'ona viloyati Quva tumani Kaykubod ko'chasi 135-uy|(73)-315-00-54|Farg'ona viloyati|40.526107|72.069011
QUVA tumani Quva-2 A/B|150802|Farg'ona viloyati Quva tumani Temiryolchilar kuchasi 10 uy||Farg'ona viloyati|40.559146|72.073736
QUVA tumani Akbarobod A/B|150806|Farg'ona viloyati Quva tumani Akbarobod qishloq'i||Farg'ona viloyati|40.518934|71.920822
QUVA tumani Boshpaxta A/B|150809|Farg'ona viloyati Quva tumani Boshpaxta qishloq'i||Farg'ona viloyati|40.543787|72.093641
QUVA tumani Dexqonobod A/B|150811|Farg'ona viloyati Quva tumani Dexqonobod qishloq'i||Farg'ona viloyati|40.533926|71.990647
QUVA tumani Yongok-tagi A/B|150812|Farg'ona viloyati Quva tumani Qorashox qishloq'i|(95) 404-36-23|Farg'ona viloyati|40.537665|72.016764
QUVA tumani Mingchinor A/B|150814|Farg'ona viloyati Quva tumani Begat qishloq'i|(95) 400-22-38|Farg'ona viloyati|40.494669|72.035304
QUVA tumani Terak-tagi A/B|150818|Farg'ona viloyati Quva tumani Mozor-tagi qishloq'i|(95) 402-21-19|Farg'ona viloyati|40.519274|72.037097
QUVA tumani O'rаboshi A/B|150819|Farg'ona viloyati Quva tumani Uraboshi qishloq'i|(95)404-36-18|Farg'ona viloyati|40.504826|72.101149
QUVA tumani Yangi qishloq A/B|150821|Farg'ona viloyati Quva tumani Yuqori Qurgoncha qishloq'i||Farg'ona viloyati|40.578939|72.025359
Yozyovon tumani PAB|150600|Farg'ona viloyati Yozyovon tumani Mustaqillik ko’chasi 42|73-412-18-60|Farg'ona viloyati|40.662666|71.74112
Yozyovon tumani Qatortol A/B|150604|Farg'ona viloyati Yozyovon tumani Qatortol qishloq'i, Bobur ko'chasi, 10||Farg'ona viloyati|40.61788|71.72202
Yozyovon tumani Xonobod A/B|150608|Farg'ona viloyati Yozyovon tumani Xonobod qishloq'i, X,Olimjon ko'chasi, 1||Farg'ona viloyati|40.63293|71.74774
Yozyovon tumani Bo’tqachi A/B|150601|Farg'ona viloyati Yozyovon tumani Qorasoy qishloq'i, Navruz ko'chasi, 14||Farg'ona viloyati|40.61419|71.79217
Yozyovon tumani Qoratepa A/B|150606|Farg'ona viloyati Yozyovon tumani Qoratepa qishloq'i, Katta ariq ko'chasi, 1||Farg'ona viloyati|40.61232|71.83521
Qushtepa tumani Qora-qushchi PUB|151000|Soxibkor MFY Soxibkor 74 uy|73-422-53-95|Farg'ona viloyati|40.476886|71.65093
Qushtepa tumani Eshonguzar A/B|151015|Eshonguzar MFY Yangimaxalla kochasi|95-402-20-51|Farg'ona viloyati|40.45741|71.69453
Qushtepa tumani Qumtepa A/B|151007|Qumtepa MFY Margiloniy 98 uy|73-422-20-18|Farg'ona viloyati|40.46166|71.67678
Qushtepa tumani Gishmon A/B|151004|Namuna MFY Voris 57 uy||Farg'ona viloyati|40.46507|71.64001
Qushtepa tumani Qorajiyda A/B|151006|Xalq abod MFY Qorajiyda 16 uy|73-422-11-86|Farg'ona viloyati|40.4927|71.60579
Qushtepa tumani Langar A/B|151001|shodlik MFY shoftolibog 6 uy|73-425-13-61|Farg'ona viloyati|40.526311|71.656555
Qushtepa tumani Yangiariq A/B|151016|Yangiariq MFY Nufush 65 uy|73-425-18-20|Farg'ona viloyati|40.54534|71.65232
Qushtepa tumani Paxtakor A/B|151012|Borot MFY Forovonlik kochasi||Farg'ona viloyati|40.56831|71.71907
Qushtepa tumani Loyson A/B|151010|Loyson MFY Mulkobot kochasi|95-402-21-34|Farg'ona viloyati|40.53635|71.70452
Qushtepa tumani Oqchi A/B|151014|Oqchi MFY Qumariq 18 uy|95-404-59-31|Farg'ona viloyati|40.48459|71.69186
Andijon 2 A/B|170102|Xidiraliyev ko'chasi 15 uy|916077866|Andijon viloyati|40.791258|72.348341
Andijon 4 A/B|170104|Cholponshoh ko'chasi 26 uy|974722290|Andijon viloyati|40.76173|72.337156
Andijon 7 A/B|170107|Oqrovvot MFY||Andijon viloyati|40.799629|72.320763
Andijon 12 A/B|170112|S.Ayniy ko'chasi 1 uy|912888342|Andijon viloyati|40.771102|72.377374
Andijon 16 A/B|170116|Qo'shariq ko'chasi 26/1|979917810|Andijon viloyati|40.811383|72.337162
Andijon 18 A/B|170118|O'zbekiston ko'chasi 19 uy|975810220|Andijon viloyati|40.78593|72.316125
Andijon 19 A/B|170119|Boburshox ko'chasi 2 uy|975843313|Andijon viloyati|40.769099|72.341493
Andijon 20 A/B|170120|Cho'lpon shox ko'chasi 9 uy|999101145|Andijon viloyati|40.788598|72.35065
Andijon 21 A/B|170121|2-kichik daxa 24 uy 3|916195552|Andijon viloyati|40.746681|72.345327
Andijon 23 A/B|170123|D.Eshon ko'chasi 6 uy||Andijon viloyati|40.759192|72.376071
Andijon 26 A/B|170126|Toshkent ko'chasi 3 uy|902562770|Andijon viloyati|40.748137|72.362941
Andijon 27 A/B|170127|shimoliy k/d 35/1|914842006|Andijon viloyati|40.802297|72.335027
Andijon 31 A/B|170131|A.Navoiy shox ko'chasi 126 uy|905450076|Andijon viloyati|40.781339|72.350581
Andijon 32 A/B|170132|1 kichiq daxa 21 uy|999066655|Andijon viloyati|40.745773|72.33617
Andijon 34 A/B|170134|3 kichik daxa|914915166|Andijon viloyati|40.744138|72.355547
Andijon 38 A/B|170138|Urganch ko'chasi 1 uy|902541677|Andijon viloyati|40.714654|72.382644
Kuyganyor A/B|170600|S.Raximov ko'chasi 1 uy|906244145|Andijon viloyati|40.855786|72.309879
Oq-yor A/B|170613|Yuksalish ko'chasi 247 uy|993277052|Andijon viloyati|40.848453|72.32242
Ekin tikin A/B|170622|Eki tikin MFY O'rikzor 1 uy|916070663|Andijon viloyati|40.794071|72.382952
Ayrilish A/B|170601|Yorboshi MFY Ayrilish 172|906224358|Andijon viloyati|40.810535|72.366931
Konchi A/B|170611|Ko'nji MFY Qo'sh anxor 14 uy|901481360|Andijon viloyati|40.721324|72.320466
Zauroq A/B|170608|Zauroq maxhallasi 145 uy|914974383|Andijon viloyati|40.733728|72.422148
Bo'taqara A/B|170603|Bo'taqara mahallasi 51 uy|905724696|Andijon viloyati|40.845408|72.421557
Begobod A/B|170602|Begobod MFY begobod ko'cha|941020803|Andijon viloyati|40.763698|72.452063
Orol A/B|170614|Orol MFY Orol ko'chasi 12 uy|934431647|Andijon viloyati|40.881685|72.505212
Xrabek A/B|170620|Guliston MFY Xrabek ko'chasi|902103086|Andijon viloyati|40.755619|72.459169
Pistamozor A/B|170616|Xakan MFY Pistamozor ko'chasi|902532093|Andijon viloyati|40.729157|72.37589
Gumbaz A/B|170605|Gumbaz MFY Gumbaz ko'chasi 38 uy|902114818|Andijon viloyati|40.729377|72.349145
Oltinko'l A/B|171000|Oltinkol MFY Chinobod ko'chasi 12 uy|936992074|Andijon viloyati|40.801906|72.158528
Qo'shtepa Saroy A/B|171007|O'rtamaxalla MFY Bozormatov k 1|944376433|Andijon viloyati|40.824791|72.024026
Oqtepasaroy A/B|171011|Oqtepasaroy MFY Birlashgan k 6 uy|916000193|Andijon viloyati|40.799867|72.111527
Ko'makay A/B|171006|Uyshim maxallasi 15 uy|944344162|Andijon viloyati|40.789953|72.26075
O'rtaariq A/B|171013|O'rtaariq MFY Olmazor ko'chasi|993265016|Andijon viloyati|40.74748|72.103571
Qayirma A/B|171005|Qayirma MFY Temirxo'ja maxalla 26 uy|993265016|Andijon viloyati|40.754713|72.219646
Dalvarzin A/B|171003|Dalvarzin MFY Yangi chek ko'chasi 57 uy|902118867|Andijon viloyati|40.77264|72.302079
Suvyulduz A/B|171012|ORS MFY|999915644|Andijon viloyati|40.807775|72.278636
Maslaxat A/B|171009|Maslaxat MFY Madaniy mexnat ko'cha|975806272|Andijon viloyati|40.798321|72.211504
Pachtamt A/B|170300|Baliqchi tumani Avesto MFYI Hudoyberdiev 8 uy|94-564-47-30|Andijon viloyati|40.900642|71.853761
Gorovon A/B|170302|Baliqchi tumani Gorovon MFY|93- 782-28-58|Andijon viloyati|40.912451|71.881644
Boston A/B|170301|Baliqchi tumani Ormonbek MFY|99-328-78-41|Andijon viloyati|40.875874|71.957395
Olimbek A/B|170311|Baliqchi tumaniIstiqlol MFY|91-182-41-05|Andijon viloyati|40.843631|71.949988
Mirzaboshchek A/B|170308|Baliqchi tumani Barkamol MFY|93-241-88-21|Andijon viloyati|40.876681|71.917011
Haqiqat A/B|170317|Baliqchi tumani Turkiston MFY|90-571-62-09|Andijon viloyati|40.906504|71.974341
Chinobod A/B|170306|Baliqchi tuman iIftihor MFY|93-416-37-51|Andijon viloyati|40.875592|71.979044
Qiyali A/B|170318|Baliqchi tumaniToda MFY|93-426-00-61|Andijon viloyati|40.874765|71.95657
Qahramon A/B|170305|Baliqchi tumani Olmas MFY|91-475-86-73|Andijon viloyati|40.878967|72.0777556
Dogiston A/B|170303|Baliqchi tuman Yuzchinor MFY|99-485-18-55|Andijon viloyati|40.847864|72.071596
Siza A/B|170314|Baliqchi tumani Tulkiobod MFY|99-649-12-30|Andijon viloyati|40.853837|72.130164
Oq oltin A/B|170900|Ulugnor tumani shahriobod MFY|93-259-62-70|Andijon viloyati|40.74281|71.700547
Dostlik A/B|170901|Ulugnor tumaniMingbuloq MFY|93-631-06-11|Andijon viloyati|40.749318|71.713497
Oq tom A/B|170905|Ulugnor tumaniOq tom MFY|99-908-32-80|Andijon viloyati|40.747437|71.708551
Cholobod A/B|170907|Ulugnor tumaniCholobod MFY|93-447-40-49|Andijon viloyati|40.745824|71.717413
Yangiobod A/B|170908|Ulugnor tumani Uchko'pirik MFY|94-382-21-91|Andijon viloyati|40.744813|71.717971
Qo'rg'ontepa A/B|170700|Qo'r'gontepa tumani Mustaqillik ko'cha 46-uy|(74)-723-11-61|Andijon viloyati|40.724377|72.761021
Mustaqillik A/B|170711|Qo'r'gontepa tumani Mustaqillik ko'chasi 49-uy|93-447-44-10|Andijon viloyati|40.721069|72.810641
Dardoqtepa A/B|170706|Qo‘rg‘ontepa tumani Dardoqtepa MFY Tabobat 7-uy|99-488-63-65|Andijon viloyati|40.793845|72.827735
Dardoq A/B|170705|Qo‘rg‘ontepa tumani Nodira MFY Nodira ko‘cha 10-uy|91-479-09-69|Andijon viloyati|40.741542|72.655187
Chimyon A/B|170716|Qo‘rg‘ontepa tumani Turon Zamin MFY Jaxon ko‘chasi|97-582-06-22|Andijon viloyati|40.772197|72.889504
Sultonobod A/B|170714|Qo‘rg‘ontepa tumani Buyuk Turon MFY Olmota ko‘chasi|91-291-74-34|Andijon viloyati|40.766253|72.977289
Honobod A/B|171500|Xonobod sh Ziyokor ko‘chasi|74-734-42-56|Andijon viloyati|40.802884|72.98825
Honobod 3 A/B|171503|Xonobod sh Mustaqqilik MFY Yuksalish ko‘chasi|97-99-49-70|Andijon viloyati|40.802885|72.988251
Honobod 1 A/B|171501|Xonobod shaxar Ziyokor ko‘cha|94-435-55-39|Andijon viloyati|40.718213|72.761144
Qorasuv A/B|170708|Qorasuv sh Boburshox ko‘chasi|99-695-67-78|Andijon viloyati|40.728633|72.885801
G‘ayratobod A/B|170704|Uchqun MFY Favora ko‘chasi 60-uy|99-060-40-75|Andijon viloyati|40.744022|72.713844
Paxtachi A/B|170713|Qo‘rg‘ontepa tumani Ustoz MFY Ustoz ko‘chasi|74-723-29-52|Andijon viloyati|40.751489|72.760938
Birlashgan 1 A/B|170701|Qo‘rg‘ontepa tumani Birlik MFY|97-990-26-72|Andijon viloyati|40.696639|72.780848
Yorqishloq A/B|171103|Jalaquduq tumani Toshxovuz MFY|91-488-15-16|Andijon viloyati|40.618853|72.724494
Qadaqsin A/B|171107|Jalaquduq tumani Beshtol MFY Beshtol MFY|90-545-77-03|Andijon viloyati|40.615659|72.700973
Ohunboboev A/B|171100|Jalaquduq tumani Ixtidor ko‘chasi 37-uy|74-755-1-460|Andijon viloyati|40.717574|72.641005
Kapa A/B|171106|Jalaquduq tumani Qorayantoq MFY Korayantoq ko‘chasi 17-o‘y|74-202-56-57|Andijon viloyati|40.698516|72.530661
Janubiy Olamushuk A/B|171105|Jalaquduq tumani Janubiy olamushuk sh FY Birlik ko‘cha 9-uy|99-907-21-93|Andijon viloyati|40.75621|72.60987
Teshiktosh A/B|171114|Jalaquduq tumani Teshiktosh Uzun ko‘chasi MFY Kattayo‘l ko‘chasi|97-997-88-56 95-203-18-36|Andijon viloyati|40.741542|72.655187
Oyim A/B|171112|Jalaquduq tumani Oyim, O‘zbekiston MFY Mangulik ko‘chasi 25-uy|74-754-43-47|Andijon viloyati|40.823844|72.740878
Choanqa A/B|171116|Jalaquduq tumani Aqcha MFY Andijon ko‘chasi|94-562-73-03|Andijon viloyati|40.806061|72.974671
Abdulla A/B|171101|Jalaquduq tumani abdullabiy MFY abdullabiy ko‘chasi|99-902-13-69|Andijon viloyati|40.741317|72.65502
Asaka TPAB|170200|Asaka tumani Soxil bo'yi ko'chasi 6-uy|(74)-232-31-41|Andijon viloyati|40.64658|72.233547
Mirzaobod A/B|170212|Asaka tumani Xonaqa MFY Xonaqa ko'chasi|97-993-48-89|Andijon viloyati|40.662473|72.233326
Qipchoq A/B|170209|Asaka tumani Qipchoq MFY|93-440-48-56|Andijon viloyati|40.740046|72.20497
Axtachi A/B|170203|Asaka tumani Axtachi MFY|99-831-12-89|Andijon viloyati|40.70483|72.26949
Oloqonot A/B|170216|Asaka tumani Oloqonot MFY|93-244-19-48|Andijon viloyati|40.680479|72.251481
Chorbog' A/B|170219|Asaka tumani Saydobod MFY|97-994-18-20|Andijon viloyati|40.619677|72.313463
Do'rman A/B|170206|Asaka tumani Bo'zariq MFY|97-581-19-81|Andijon viloyati|40.595961|72.192444
Niyozbotir A/B|170213|Asaka tumani Niyozbotir MFY|97-580-76-74|Andijon viloyati|40.587976|72.183205
Qoratepa A/B|170210|Asaka tumani Qora tepa MFY|91-173-93-37|Andijon viloyati|40.604064|72.133724
Qayrag'och A/B|170208|Asaka tumani Qayrag'och MFY Qorasuv kocha|93-781-86-18|Andijon viloyati|40.615402|72.179228
Ozod A/B|170214|Asaka tumaniOzod MFY|93-061-69-29|Andijon viloyati|40.631662|72.172592
Kujgan A/B|170211|Asaka tumaniKujgan MFY Qassob ko'chasi 23-uy|90-210-27-42|Andijon viloyati|40.642715|72.21443
Asaka-2 A/B|170202|Asaka tumani Vokzal ko'chasi|97-236-06-77|Andijon viloyati|40.655393|72.205851
Oqbo'yra A/B|170215|Asaka tumani Oqbo'yra MFY|94-388-18-72|Andijon viloyati|40.678107|72.192426
O'qchi A/B|170812|Marxamat tumani O'qchi MFY|90-527-92-98|Andijon viloyati|40.604746|72.338147
Xo'jaariq A/B|170813|Marxamat tumani Qoraqo'rg'on MFY|90-210-82-11|Andijon viloyati|40.556967|72.344215
Qovunchi A/B|170805|Marxamat tumani Qovunchi MFY Ponsot ko'cha 2 uy|90-541-68-00|Andijon viloyati|40.55806|72.361373
Yangiqishloq A/B|170815|Marxamat tumani Yangiqishloq MFY|95-202-01-33|Andijon viloyati|40.532019|72.252793
Marxamat A/B|170800|Marxamat tumani Mustaqillik ko‘cha 60-uy|74-391-23-03|Andijon viloyati|40.505479|72.333985
Marxamat-1 A/B|170801|Marxamat tumani Dukchi eshon MFY|90-571-16-88|Andijon viloyati|40.497389|72.331742
Qushchi A/B|170808|Marxamat tumani Xakka MFY Fayzaobod kocha 73-uy|90-144-73-07|Andijon viloyati|40.518797|72.30618
shukurmergan A/B|170814|Marxamat tumani shukurmergan MFY|90-147-49-79|Andijon viloyati|40.505497|72.279154
Polvontosh A/B|170810|Marxamat tumani Polvontosh MFY|99-909-56-51|Andijon viloyati|40.486862|72.189877
Paxtaobod TPAB|171300|Paxtaobod sh Oltinyol ko'chasi 111|74-711-12-72|Andijon viloyati|40.926033|72.489445
Paxtaobod -1 A/B|171301|Paxtaobod tumani Cangraobod MFY|74-711-11-97|Andijon viloyati|40.916497|72.51771
Paxtaobod -3 A/B|171303|Paxtaobod sh A Temur ko'chasi 2 uy|74-711-17-01|Andijon viloyati|40.919564|72.537811
Paxtaobod -4 A/B|171304|Paxtaobod sh Muazimboy ko'chasi|74-711-24-47|Andijon viloyati|40.961666|72.382792
Uygur A/B|171317|Paxtaobod tumani Guzar MFY|95-203-36-17|Andijon viloyati|40.972935|72.467723
Avushqa A/B|171314|Paxtaobod tumani Teraktagi MFY||Andijon viloyati|40.94666|72.515392
Yolgizbog A/B|171308|Paxtaobod tumani Yolgizbog MFY||Andijon viloyati|40.943297|72.510006
Madaniyat A/B|171313|Paxtaobod tumani Toshqorgon MFY||Andijon viloyati|40.927977|72.51728
Uchkoza A/B|171318|Paxtaobod tumani Fayziobod MFY||Andijon viloyati|40.948375|72.440049
Omonjora A/B|171315|Paxtaobod tumani Axillik MFY||Andijon viloyati|40.902005|72.550082
Ittifoq A/B|171310|Paxtaobod tumani Obod MFY||Andijon viloyati|40.918522|72.45942
Boston A/B|171305|Paxtaobod tumani Navnxol MFY||Andijon viloyati|40.96462|72.380077
Paytug A/B|171200|Izboskan tumani Paytug sh., Tosh kocha, 1|74-312-22-99|Andijon viloyati|40.896525|72.24843
Qizil koprik A/B|171209|Izboskan tumani Ortaqishloq MFY|95-203-36-16|Andijon viloyati|40.889421|72.320615
Chuvama A/B|171217|Izboskan tumani Chuvama qishloqi|74-315-31-54|Andijon viloyati|40.916705|72.359372
Shermatobod A/B|171219|Izboskan tumani Guzar MFY|74-312-50-99|Andijon viloyati|40.884353|72.190293
Moygir A/B|171212|Izboskan tumani Barxayot MFY||Andijon viloyati|40.854351|72.246641
Yakkatut A/B|171220|Izboskan tumani Yangiavlod MFY||Andijon viloyati|40.85945|72.172217
Tuyachi A/B|171216|Izboskan tumani Tuyachi MFY||Andijon viloyati|40.889491|72.32071
Namuna A/B|171214|Izboskan tumani Rovot MFY||Andijon viloyati|40.90496|72.24734
Navroz A/B|171201|Izboskan tumani Markaz MFY||Andijon viloyati|40.895919|72.248099
Dexqonobod A/B|171202|Izboskan tumani Oybek MFY|74-321-28-81|Andijon viloyati|40.890573|72.247372
Qoroyontoq A/B|171210|Izboskan tumani Qoroyontoq MFY||Andijon viloyati|40.929025|72.414785
Сhongbogich A/B|171218|Izboskan tumani Birlashgan MFY||Andijon viloyati|40.900157|72.221675
Shahrixon A/B|171600|Shahrixon tumani ul. shox ko'chasi .42|(74)-342-25-50|Andijon viloyati|40.71205|72.053468
Nazarmahram A/B|171610|Shahrixon tumani Nazarmahram-kegan sh MFY|99-345-30-68|Andijon viloyati|40.672557|72.065587
Bobochek A/B|171603|Shahrixon tumani Bobochek MFY|90-571-79-73|Andijon viloyati|40.662292|72.037333
Naynavo A/B|171612|Shahrixon tumani Naynavo MFY|94-103-97-85|Andijon viloyati|40.634878|72.068993
Chuja A/B|171617|Shahrixon tumani Chuja MFY|99-999-93-31|Andijon viloyati|40.660343|72.083275
Nayman A/B|171611|Shahrixon tumani Nayman MFY|93-061-10-47|Andijon viloyati|40.655195|72.142809
Toshtepa A/B|171616|Shahrixon tumani Toshtepa MFY|74-734-42-56|Andijon viloyati|40.684241|72.130811
Ortish A/B|171613|Shahrixon tumani Ortish MFY||Andijon viloyati|40.702331|72.145074
Kozikurgan A/B|171608|Shahrixon tumani Kozikurgan MFY|93-241-00-36|Andijon viloyati|40.716974|72.089082
Sokobod A/B|171614|Shahrixon tumani Sahiobad MFY|94-434-66-45|Andijon viloyati|40.754424|72.059393
Abdubiy A/B|171601|Shahrixon tumani Abdubiy MFY|97-964-77-19|Andijon viloyati|40.750582|71.992357
Saroy A/B|171615|Shahrixon tumani Saroy MFY|94-494-71-64|Andijon viloyati|40.724607|72.031797
Boz A/B|170400|Bo'stonskiy r-n,P/Buz yl, A.Ikromov 4|74-333-11-49|Andijon viloyati|40.687455|71.917756
Y.shodmonov A/B|170407|Bo'ston tumani Dehkanobod MFY|93-064-80-67|Andijon viloyati|40.685556|71.91344
Xovos A/B|170406|Bo'ston tumani Guliston MFY|93-241-53-00|Andijon viloyati|40.746002|71.891827
Jiydakator A/B|170402|Bo'ston tumani Yngi qishloq MFY|94-564-62-77|Andijon viloyati|40.636626|71.982449
Durmoncha A/B|170401|Bo'ston tumani Durmoncha MFY|94-431-40-67|Andijon viloyati|40.646201|71.916124
M.Jalolov A/B|170404|Bo'ston tumani Sariqjuga MFY|91-603-98-57|Andijon viloyati|40.74557|71.89121
Xo'jaobod A/B|171400|Xo'jaobod tumani Andijon MFY Uzun ko'cha 1-uy|74-741-12-30|Andijon viloyati|40.670649|72.559124
Ko'prik boshi A/B|171404|Xo'jaobod tumani Birlashgan MFY Sahovat ko'cha 12-uy|90-626-06-62|Andijon viloyati|40.674672|72.497105
Sanoatchilar A/B|171403|Xo'jaobod tumani Sanoanchilar MFY O'zbekistob ko'cha 30-uy|90-545-65-23|Andijon viloyati|40.642014|72.606807
Manak A/B|171406|Xo'jaobod tumani Manak MFY Oltinmeros ko'cha 12-uy|91-484-83-43|Andijon viloyati|40.605345|72.649471
Dilkushod A/B|171401|Xo'jaobod tumani Manak MFY Tikka ko'cha 8-uy|90-572-84-64|Andijon viloyati|40.594372|72.668156
Ko'tarma A/B|171405|Xo'jaobod tumani sharxonsoy MFY Barkamol ko'cha 21-uy|97-272-72-51|Andijon viloyati|40.669951|72.523263
Korataiyt A/B|171402|Xo'jaobod tumani Kurama MFY uzumzor ko'cha 21-uy|90-145-77-87|Andijon viloyati|40.66992|72.523426
Buloq boshi-1 A/B|170501|Buloqboshi tumani shoxguzar MFY Talabalar ko'cha 2-uy|90-572-83-83|Andijon viloyati|40.626442|72.504734
Nayman A/B|170503|Buloqboshi tumani Sohibkor MFY Chek ko'cha 18-uy|74-773-44-05|Andijon viloyati|40.600947|72.518054
Buloq boshi A/B|170500|Buloqboshi tumani Chaqar MFY Chaqar ko'cha 1-uy|74-773-14-75|Andijon viloyati|40.638688|72.477043
Saydobod-1 A/B|170505|Buloqboshi tumani Neftchi MFY Komolot ko'cha 35-uy|97-833-08-72|Andijon viloyati|40.645433|72.365121
Shirmonbuloq A/B|170508|Buloqboshi tumani shimonbuloq MFY Salomatlik ko'cha 8-uy|90-544-91-78|Andijon viloyati|40.585691|72.472991
Uchtega A/B|170506|Buloqboshi tumani Tinchlik MFY Rohat ko'cha 1-uy|90-525-01-90|Andijon viloyati|40.620222|72.449454
Gala Osiyo A/B|200400|Buxoro tumani Gala osiyo shaxri Buxoro shox kocha 5 uy||Buxoro viloyati|39.858805|64.445602
Dostlik A/B|200404|Buxoro tumani Yangi turmush MFY Chorraxa qishloqi||Buxoro viloyati|39.864017|64.511527
Bogikalon A/B|200401|Buxoro tumani Bogikalon MFY Bogikalon qishloqi||Buxoro viloyati|39.884909|64.449232
Sahovot A/B|200402|Buxoro tumani Saxovat MFY Tichlik kocha 19 uy||Buxoro viloyati|39.878333|64.48165
Qavola Mahmud A/B|200405|Buxoro tumani Qavola Mahmud MFY Qavola qishloqi||Buxoro viloyati|39.860913|64.394194
Madaniyat A/B|200407|Buxoro tumani Rabotiqalmoq MFY Dexoji qishloq||Buxoro viloyati|39.812005|64.346612
Chorbakr A/B|200412|Buxoro tumani shergiron qishloq Deximiyona||Buxoro viloyati|39.767012|64.3331
Yurunbolo A/B|200413|Buxoro tumani Yangoobod qishloq Yurinbolo||Buxoro viloyati|39.735997|64.349584
Novmetan A/B|200408|Buxoro tumani Kunji qala MFY Novmetan qishloqi||Buxoro viloyati|39.692014|64.378618
Losha A/B|200406|Buxoro tumani Gulshanobod MFY Xojarabot qishloqi||Buxoro viloyati|39.706567|64.442625
Gijdubon PAB|200500|Gijduvon shahri,B.Naqshbandiy kochasi 1uy|(65)57-21-3-00|Buxoro viloyati|40.10247|64.681725
Gijduvon- 3 A/B|200503|Gijduvon shahri, Ibn-Sino kochasi 52uy|(91)400-54-26|Buxoro viloyati|40.10775|64.674556
Buktaroy A/B|200504|Gijduvon tumani Buktaroy MFY Buktaroy qishloqi|(91)247-36-67|Buxoro viloyati|40.073494|64.645192
Gavshun A/B|200505|Gijduvon tumani Gavshun MFY Yanginavrozobod qishloqi|(91)440-44-64|Buxoro viloyati|40.0727|64.726692
Gajdumak A/B|200506|Gijduvon tumani Kolijabbor MFY Kolijabbor qishloqi|(93)452-29-58|Buxoro viloyati|40.088157|64.631052
Gishti A/B|200507|Gijduvon tumani Gishti MFY Gishti qishloqi|(91)443-29-69|Buxoro viloyati|40.128769|64.797605
Guliston A/B|200508|Gijduvon tumani Havzak MFY Havzak qishloqi|(91)646-65-18|Buxoro viloyati|40.10412|64.662991
Zarangari A/B|200509|Gijduvon tumani Bolakiyon MFY Bolakiyon qishloqi|(93)144-63-56|Buxoro viloyati|40.128739|64.711734
Qaraxoni A/B|200511|Gijduvon tumani Olmazor MFY Oqrabod qishloqi|(90)637-29-65|Buxoro viloyati|40.121|64.690726
Rayonobod A/B|200513|Gijduvon tumani Amirobod MFY Amirobod qishloqi|(91)408-28-73|Buxoro viloyati|40.158386|64.753342
Sarvari A/B|200514|Gijduvon tumani Sarvari MFY Zaxkash qishloqi|(90)637-26-76|Buxoro viloyati|40.125489|64.661273
Sarmijon A/B|200515|Gijduvon tumani Chagdari MFY Chagdariqishloqi|(91)440-82-96|Buxoro viloyati|40.046631|64.564623
Setalon A/B|200516|Gijduvon tumani Armechan MFY Setalon qishloqi|(91)416-27-69|Buxoro viloyati|40.066552|64.64208
Soktari A/B|200517|Gijduvon tumani Soktari MFY Yangiobod qishloqi|(91)248-60-66|Buxoro viloyati|40.086514|64.771277
Toqol A/B|200519|Gijduvon tumani Pozagari MFY Toqol qishloqi|(91)407-87-20|Buxoro viloyati|40.093541|64.660118
Frishkent A/B|200521|Gijduvon tumani Frishkent MFY Arabon qishloqi|(91)408-63-09|Buxoro viloyati|40.066552|64.64208
Romitan PAB|201000|Romitan tumani Baxoriston kocha 70 uy|(65) 55-2-10-39|Buxoro viloyati|39.933702|64.378867
Oba A/B|201009|Romitan tumani Navbahor MFY Tinchlik kocha|(65)55-4-41-44|Buxoro viloyati|39.984043|64.29563
Qoqishtuvon A/B|201005|Romitan tumani Qoqishtuvon MFY Qoqishtuvon qishloqi||Buxoro viloyati|40.024383|64.210878
Yangigul A/B|201012|Romitan tumani Marziya MFY Marziya qishloqi||Buxoro viloyati|39.983676|64.220491
Bogiturkon A/B|201001|Romitan tumani Hazortut MFY Novfach qishloqi||Buxoro viloyati|39.951265|64.28577
Qorgon Romitan A/B|201006|Romitan tumani Qorgon MFY Miyonsaroy qishloqi||Buxoro viloyati|39.918486|64.24766
Qalaychorbog A/B|201003|Romitan tumani Qalaychorbog MFY Qumi qishloqi||Buxoro viloyati|39.93168|64.31216
Xosa A/B|201009|Romitan tumani Xosa MFY Xosa qishloqi||Buxoro viloyati|39.895807|64.282217
Chelongu A/B|201011|Romitan tumani Toshrabot MFY Chelongu qishloqi||Buxoro viloyati|39.870251|64.322849
Gazli A/B|201002|Romitan tumani Gazli shahri Gazli MFY A.Temur kocha 1 uy|(65)37-29-583|Buxoro viloyati|40.135132|63.460495
Kogon PAB|200700|Kogon shahri Buxoro shox ko'chasi 12 uy|(65)-524-75-57|Buxoro viloyati|39.727065|64.542583
A/B index1|200701|Kogon shahri Amir Temur ko'chasi 19 uy|(65)-522-21-01|Buxoro viloyati|39.725088|64.555317
A/B index 3|200703|Kogon shahri Xalqlar Do'stligi 22 uy 11 xona|(65)-524-48-00|Buxoro viloyati|39.724634|64.53338
A/B index 5|200705|Kogon shahri Qorovulbozor shoh ko'chasi 17 uy 25 xona|(65)-524-89-08|Buxoro viloyati|39.737058|64.541518
A/B index 7|200707|Kogon shahri Zirabod ko'chasi 54 uy|(65)-522-61-09|Buxoro viloyati|39.72092|64.56151
B.Naqshband A/B|200708|Kogon tumani Yangiyo'l ko'chasi||Buxoro viloyati|39.800293|64.530294
Geofizika A/B|200709|Kogon tumani Geofizika MFY Geologlar ko'chasi 4 uy|(65)-228-76-72|Buxoro viloyati|39.75085|64.491435
Sorgun A/B|200711|Kogon tumani Kogon MFY Navbaxor ko'chasi||Buxoro viloyati|39.717379|64.578316
Tutkunda A/B|200712|Kogon tumani Tutkunda MFY||Buxoro viloyati|39.72066|64.485919
O'ba-Cho'li A/B|200713|Kogon tumani Suxor MFY Said Amir Kulol ko'chasi|(65)-527-35-08|Buxoro viloyati|39.758782|64.566511
Chuqurko'l A/B|200715|Kogon tumani Nurafshon MFY chuqurko'l qishloqi||Buxoro viloyati|39.738239|64.180372
Jondor PAB|200600|Jondor tumani M.Torobiy kucha 60-uy|(65)-58-23-370|Buxoro viloyati|39.711552|64.087924
Sepatta A/B|200611|Jondor tumani Qaravul MFY.Qaravul qishloqi|(65)-58-36-030|Buxoro viloyati|39.687977|64.08875
Moxonkul A/B|200604|Jondor tumani Nurafshon MFY Nurafshon qishloqi|(65)-58-27-530|Buxoro viloyati|39.660785|64.075023
Qaroli A/B|200603|Jondor T Paxlavon MFY Pazlavon qishloqi|(65)-58-32-530|Buxoro viloyati|39.715623|64.183188
Puloti A/B|200600|Jondor tumani Puloti MFY Puloti qishloqi||Buxoro viloyati|39.728454|64.23221
Xumdonak A/B|200612|Jondor tumani Kuliyon MFY Kuliyon qishloqi|(65)-58-31-122|Buxoro viloyati|39.822841|64.253399
Dalmun A/B|200602|Jondor tumaniMirzayon MFY Mrzayon qishloqi||Buxoro viloyati|39.844902|64.219109
Romish A/B|200609|Jondor tumani Oqrabot MFY Oqrabot qishloqi||Buxoro viloyati|39.803248|64.16882
Buston A/B|200601|Jondor tumani Luqmon MFY Yuqori Luqmon qishloqi|(65)-58-38-430|Buxoro viloyati|39.414871|63.801231
Olot PAB|200200|Olot tumani Olot kochasi 71 uy|6534-22-650|Buxoro viloyati|41.31665|69.28386
Urganji A/B|200207|Olot tumani Asajam MFY||Buxoro viloyati|39.455213|63.810507
Denov A/B|200202|Olot tumani Denov MFY||Buxoro viloyati|39.442595|63.759572
Chandir A/B|200209|Olot tumani Boribek Chandir MFY||Buxoro viloyati|39.401023|63.759474
Dotxo A/B|200204|Olot tumani Opshoq MFY||Buxoro viloyati|39.412374|63.84682
Xoja sher A/B|200208|Olot tumani Chovdur MFY||Buxoro viloyati|39.390911|63.893022
Baxrom Bayyot A/B|200201|Olot tumani Paxtakor MFY||Buxoro viloyati|39.461655|63.871404
Qorovulbozor PAB|200900|Qorovulbozor tumani Geologlar kuchasi 15 uy|(65)-364-15-39|Buxoro viloyati|39.4900417|64.792272
Yangibozor PAB|201200|Peshku tumani Chiqirchi MFY 37 uy|(65) 353 04 46|Buxoro viloyati|40.034033|64.391872
Afshona A/B|201201|Peshku tumani Afshona QFY14 uy|(97) 306 12 68|Buxoro viloyati|39.995065|64.38188
Jongeldi A/B|201202|Peshku tumani Jongeldi QFY 49 uy|(99) 709 03 51|Buxoro viloyati|40.51672|63.20138
Qudrashex A/B|201203|Peshku tumani Maxalla QFY 149 uy|(94) 546 08 02|Buxoro viloyati|40.088427|64.276439
Malishoyak A/B|201204|Peshku tumani Mflishoyak QFY 103 uy|(99) 700 05 58|Buxoro viloyati|40.097214|64.309592
Xorkash A/B|201209|Peshku tumani Xorkash QFY 98 uy|(93) 455 76 25|Buxoro viloyati|40.097214|64.309592
Chalmagadoy A/B|201210|Peshku tumani Chalmagadoy QFY 97 uy|(97)282 53 77|Buxoro viloyati|40.05008|64.299624
shavgon A/B|201211|Peshku tumani shavgon QFY 49 uy|(99) 120 95 68|Buxoro viloyati|40.067178|64.249469
Vobkent PAB|200300|Vobkent shahri A.Donish 37|33-21-728|Buxoro viloyati|40.021441|64.522099
Qongirot A/B|200306|Vokent tuman Kosari MFY Kosari qishloqi|33-34-238|Buxoro viloyati|39.993021|64.537109
Xalach A/B|200310|Vokent tuman Istiqlol MFY S.Rahimov qishloqi|33-23-129|Buxoro viloyati|40.036804|64.5182
Shohnigor A/B|200314|Vokent tuman shohnigor MFY Niyogan qishloqi||Buxoro viloyati|39.972274|64.486802
1-son A/B|200101|Buxoro shaxri Аfrosiyob ko’chasi 4 uy|652 214 945|Buxoro viloyati|39.776219|64.410774
3-son A/B|200103|Buxoro shaxri G’ijduvoniy ko’chasi 1 uy|652248897|Buxoro viloyati|39.786004|64.430387
4-son A/B|200104|Buxoro shaxri B.Naqshband ko’chasi 5 uy|652 255 957|Buxoro viloyati|39.773789|64.442475
5-son A/B|200105|Buxoro shaxri Аbay ko’chasi 6 uy|652 282 920|Buxoro viloyati|39.762713|64.399707
9-son A/B|200109|Buxoro shaxri B.Naqshband ko’chasi 251 uy|936 554 154|Buxoro viloyati|39.767138|64.467972
17-son A/B|200117|Buxoro shaxri Navoi ko’chasi 15 uy|652 232 213|Buxoro viloyati|39.757224|64.424614
18-son A/B|200118|Buxoro shaxri B.Naqshband ko’chasi 154 uy|652 230 828|Buxoro viloyati|39.772961|64.425358
19-son A/B|200119|Buxoro shaxri Navoi shox ko’chasi 27/1 uy|652 263 353|Buxoro viloyati|39.750581|64.428641
22-son A/B|200122|Buxoro shaxri Alpjmish ko’chasi 9/1 uy|652 227 542|Buxoro viloyati|39.74031|64.438421
26-son A/B|200126|Buxoro shaxri G’ijduvoniy ko’chasi 272/1 uy|934 580 488|Buxoro viloyati|39.808219|64.430515
30-son A/B|200130|Buxoro shaxri Namozgoh ko’chasi 180 uy|914 145 910|Buxoro viloyati|39.749129|64.40294
Qorakol PAB|200800|Qorakol tuman Fayzobot qishloq|56-57-035|Buxoro viloyati|39.503027|63.845998
Qorakol -1 A/B|200801|Qorakol tuman Chowli qishloq|94-245-99-00|Buxoro viloyati|39.539921|63.711764
Bandboshi A/B|200803|Qorakol tuman Bandboshi qishloq|97-486-10-07|Buxoro viloyati|39.519893|63.851196
Mirishkor A/B|200810|Qorakol tuman Mallashex qishloq ,|94-125-84-32|Buxoro viloyati|39.548012|63.77925
Jigachi A/B|200813|Qorakol tuman Jigachi qishloq|93-471-72-44|Buxoro viloyati|39.487634|63.63842
Xamza A/B|200806|Qorakol tuman Мirob qishloq|94-546-65-09|Buxoro viloyati|39.549083|63.689111
Yangibozor A/B|200814|Qorakol tuman Yangibozor qishloq|93-624-93-80|Buxoro viloyati|39.48664|63.737578
Shofirkon PAB|201100|Shofirkon tuman Mustaqillik kochasi 4 uy|(65)-502-35-07|Buxoro viloyati|40.119789|64.50283
Denov A/B|201102|Shofirkon tuman Denov MFY Denov qishloq|(65)-503-65-68|Buxoro viloyati|40.146213|64.60621
Joynav A/B|201105|Shofirkon tuman Joynav MFY Joynav qishloq|(65)-502-13-07|Buxoro viloyati|40.133553|64.413522
Joyrabod A/B|201106|Shofirkon tuman Joyrabod MFY Joyrabod qishloq||Buxoro viloyati|40.127901|64.572858
Iskogary A/B|201108|Shofirkon tuman Iskogare MFY Iskogare qishloq||Buxoro viloyati|40.132694|64.379505
Savrak A/B|201111|Shofirkon tuman Tinchlik MFY Savrak qishloq|(65)-502-23-44|Buxoro viloyati|40.125091|64.481667
Tezguzar A/B|201112|Shofirkon tuman Tezguzar MFY Tezguzar qishloq||Buxoro viloyati|40.142865|64.509844
Chandir A/B|201115|Shofirkon tuman CHandir MFY CHandir qishloq||Buxoro viloyati|40.0884121|64.4584052
Shorabod A/B|201116|Shofirkon tuman Guliston MFY Shorabod qishloq||Buxoro viloyati|40.127901|64.456789
Samarqand shahar 1-son A/B|140101|I.Karimov-36||Samarqand viloyati|39.65755|66.978465
Samarqand shahar 2-son A/B|140102|Rudaki-90||Samarqand viloyati|39.68108|66.93234
Samarqand shahar 3-son A/B|140103|M.Ulugbek-96||Samarqand viloyati|39.662509|66.934812
Samarqand shahar 4-son A/B|140104|Ilimobod-1||Samarqand viloyati|39.645453|66.969549
Samarqand shahar 5-son A/B|140105|A.Jomiy-92||Samarqand viloyati|39.649472|66.955698
Samarqand shahar 7-son A/B|140107|A.Beruniy-144||Samarqand viloyati|39.672585|66.926347
Samarqand shahar 10-son A/B|140110|Al-Buxoriy 57||Samarqand viloyati|39.661094|66.975354
Samarqand shahar 17-son A/B|140117|shRustavli 34- A||Samarqand viloyati|39.670624|66.941642
Samarqand shahar 19-son A/B|140119|Miniskaya -60||Samarqand viloyati|39.656764|66.996245
Samarqand shahar 24-son A/B|140124|Boysun 8-A||Samarqand viloyati|39.636928|66.970838
Samarqand shahar 29-son A/B|140129|N.Yoqubov 1||Samarqand viloyati|39.636243|66.957635
Samarqand shahar 31-son A/B|140131|Gagarin -25||Samarqand viloyati|39.679737|66.941019
Samarqand shahar 43-son A/B|140143|M.Sobirov-1||Samarqand viloyati|39.636656|66.956365
Samarqand shahar 45-son A/B|140145|Firdavsiy-150||Samarqand viloyati|39.643436|66.929248
Samarqand shahar 57-son A/B|140157|Kok-Saroy maydoni||Samarqand viloyati|39.654771|66.966563
Samarqand shahar 58-son A/B|140158|A.Ikramov||Samarqand viloyati|39.66109|66.922379
Samarqand shahar 60-son A/B|140160|Ali-Qushchi 18/2||Samarqand viloyati|39.655718|66.914783
Samarqand shahar 61-son A/B|140161|Sartepo-18||Samarqand viloyati|39.634908|66.914468
Samarqand shahar Super a/b|140162|Kimyogorlar Qurgoni Zavod-1||Samarqand viloyati|39.672488|66.845568
Samarqand shahar Farxod a/b|140163|Farxod Qorgoni||Samarqand viloyati|39.695977|67.06169
Samarqand shahar Xishrav a/b|140164|Xishrav Qorgoni||Samarqand viloyati|39.635716|66.887883
Samarqand shahar Motrit a/b|140321|Xujagunjoyish-2||Samarqand viloyati|39.694864|66.951947
Samarqand shahar Kattaqurgon a/b|140318|Orta xuja soat maxalla||Samarqand viloyati|39.645009|66.906545
Samarqand shahar Bogimaydon a/b|140306|Afrosiyob Dexotiy-23||Samarqand viloyati|39.681082|66.990541
Samarqand shahar Bogibaland a/b|140305|Bogi-baland maxalla||Samarqand viloyati|39.687289|66.993799
Samarqand shahar Garmako a/b|140310|Mriv 18-B||Samarqand viloyati|39.629649|66.973346
Kattaqurgon|140800|O’zbekiston 143-uy||Samarqand viloyati|39.898706|66.258811
Kattaqurgon shahar 1-A/B|140801|Mustaqillik 19-uy||Samarqand viloyati|39.912061|66.250453
Kattaqurgon shahar 3-A/B|140803|Vokzal 1-uy||Samarqand viloyati|39.901789|66.246467
Kattaqurgon shahar 5-A/B|140805|Aleshir Navoyi 141-uy||Samarqand viloyati|39.905103|66.254233
Kattaqurgon shahar 11-A/B|140811|shavqiy 17/8-uy||Samarqand viloyati|39.913694|66.267356
Kattaqurgon shahar 14-A/B|140814|Amir Temur 5/26-uy||Samarqand viloyati|39.902414|66.277958
Kattaqurgon shahar 16-A/B|140815|Aleshir Navoyi 10-uy||Samarqand viloyati|39.736814|65.994275
Oqtosh A/B|141200|Alisher Navoiy ko'chasi 17-uy||Samarqand viloyati|39.919944|65.929333
Nog'oraxona A/B|141213|Nogoraxona MFY Kamalak ko'chasi 7-uy||Samarqand viloyati|39.931639|65.932194
Kosogoron A/B|141210|Tepa MFY Tepa qishloq'i||Samarqand viloyati|39.956222|65.96925
Jugi A/B|141206|Turon MFY Morkent qishloq'i||Samarqand viloyati|39.98725|65.936083
Mirbozor A/B|141212|Sarbozor MFY Mirbozor qo'rg'oni||Samarqand viloyati|39.963145|65.933769
Qorasiyroq A/B|141209|Nug'oy MFY Nug'oy qishloq'i||Samarqand viloyati|39.974667|65.843333
Qoramuros A/B|141208|Qoziyoqli MFY Qoziyoqli qishloq'i||Samarqand viloyati|39.960722|65.809139
Olti o'g'il A/B|141214|Umid MFY Olti o'g'il qishloq'i||Samarqand viloyati|40.001611|65.768722
Beshqazoq A/B|141205|Tepaqo'rg'on MFY Tepaqo'rg'on qishloq'i||Samarqand viloyati|39.942167|66.048278
Balandbog' A/B|141204|O'zbekkenti MFY Oxakchi qishloq'i||Samarqand viloyati|39.927|66.098722
Xo'jaqo'rg'on A/B|141217|Toshko'prik MFY Xo'jaqo'rg'on qishloq'i||Samarqand viloyati|39.924139|66.0465
Rajabali A/B|141215|Xo'jakarzon MFY Xo'jakarzon qishloq'i||Samarqand viloyati|39.926205|66.161476
Loish shaharcha Oqdaryo|141000|Loish shcha A.Temur kucha 26-uy||Samarqand viloyati|39.877782|66.752451
Dahbet А/В|141001|Daxbet shcha 6-Navoiy MFY Navoiy ko'cha||Samarqand viloyati|39.763944|66.912858
Qorateri А/В|141002|Yangirovot2-MFY Qorateri qishloq||Samarqand viloyati|39.797714|66.866543
Qoratuxum А/В|141003|Avazali MFY Avazali qishloq||Samarqand viloyati|39.855154|66.647509
Oqdaryo А/В|141006|Oqdaryo MFY Yangiqishloq||Samarqand viloyati|39.854917|66.794911
Pilol А/В|141007|Aytamg'ali MFY Aytamg'ali qishloq||Samarqand viloyati|39.907632|66.626534
Pichoqchi А/В|141008|Pichoqchi MFY Pichoqchi qishloq||Samarqand viloyati|39.842663|66.818536
Pulatdarxon А/В|141010|PulatdarxonMFY Qirqdarxon qishloq||Samarqand viloyati|39.736767|66.974569
Sarixuja А/В|141011|A.Temur MFY Navoiy qishloq||Samarqand viloyati|39.898176|66.72047
Temirak А/В|141013|Temrak MFY Temrak qishloq||Samarqand viloyati|39.843945|66.759937
Uzunqishloq А/В|141014|Uzunqishloq MFY Uzun qishloq||Samarqand viloyati|39.84027|66.703806
Uklon А/В|141015|Yangirovot MFY Uklon qishloq||Samarqand viloyati|39.789464|66.825557
Yangiqorgon А/В|141019|Yangihayot MFY Yangihayot qishloq||Samarqand viloyati|39.929709|66.651508
Yangiobod А/В|141020|Yangiobod MFY Naymancha qishloq||Samarqand viloyati|39.881827|66.712674
Bulungur shahar PAB|140200|F.Yuldosh kochasi 30-uy||Samarqand viloyati|39.762056|67.269333
Bulungur-3 A/B|140203|Bogbon MFY||Samarqand viloyati|39.787056|67.25025
Bedana A/B|140205|Bedana MFY||Samarqand viloyati|39.759833|67.38625
Galaba A/B|140206|Kattaqishloq MFY||Samarqand viloyati|39.777861|67.318944
Qorakamar A/B|140207|Kattaqishloq MFY||Samarqand viloyati|39.723472|67.295083
Kildon A/B|140208|Kildon MFY Kildon kochasi 40-uy||Samarqand viloyati|39.643889|67.354111
Qirqshodi A/B|140209|Qirqshodi MFY||Samarqand viloyati|39.642861|67.255167
Mullatub A/B|140210|Choyantepa MFY||Samarqand viloyati|39.608083|67.357583
H.Olimjon A/B|140213|Dehqonobod MFY||Samarqand viloyati|39.612917|67.281361
Changal A/B|140214|Changal MFY||Samarqand viloyati|39.7015|67.385417
Ishmantob A/B|140215|Lalmikor MFY||Samarqand viloyati|39.840194|67.436667
Yangiqishloq A/B|140216|Qongirot MFY||Samarqand viloyati|39.690611|67.242806
Jomboy A/B|140400|A.Qurbonov MFY Mustaqillik kochasi||Samarqand viloyati|39.695321|67.097374
Beshsand A/B|140403|Eski Jomboy MFY||Samarqand viloyati|39.681761|67.166517
Gazara A/B|140405|Gazira MFY||Samarqand viloyati|39.815237|67.11164
Dexqonobod A/B|140406|Dehqonobod MFY||Samarqand viloyati|39.725522|67.132699
Juriyat A/B|140407|Juriyat MFY||Samarqand viloyati|39.792617|67.019537
Qoramoyin A/B|140409|Qoramuyin MFY||Samarqand viloyati|39.73819|67.185803
Qolbosti A/B|140410|Qolbosti MFY||Samarqand viloyati|39.845765|67.075302
Saroy A/B|140411|Saroy MFY||Samarqand viloyati|39.681178|67.138438
Sarichashma A/B|140412|Sarichashma MFY||Samarqand viloyati|39.727901|67.058661
Тuт A/B|140414|Tut MFY||Samarqand viloyati|39.765367|66.99131
Chorvador A/B|140415|Shaharirinkent MFY||Samarqand viloyati|39.762606|67.10667
Ishtihon А/В|140700|Ishtihon kochasi 9-uy||Samarqand viloyati|39.96067|66.497769
Ishtihon-2 А/В|140702|Xamza kochasi 2-uy||Samarqand viloyati|39.966519|66.47538
Ishtihon-3 А/В|140703|CHinortepa MFY Kalandarhuja kochasi||Samarqand viloyati|39.962665|66.496654
Boday А/В|140707|Halkabod MFY Boday kochasi||Samarqand viloyati|39.97027|66.463773
Boylata А/В|140708|Boylata MFY Boylata kochasi||Samarqand viloyati|39.927304|66.427877
Barlos А/В|140709|Barlos MFY Hasan Husan kochasi||Samarqand viloyati|40.042376|66.603077
Zarband А/В|140710|Zarband MFY Zarband kochasi||Samarqand viloyati|40.178194|66.513693
Qaychili А/В|140711|Chaqar MFY Chaqar kochasi||Samarqand viloyati|40.046473|66.513069
Qatagan А/В|140712|Humo MFY Chayjovul kochasi||Samarqand viloyati|39.9317|66.579353
Kattaqangli А/В|140713|Buronhuja MFY Uygoni kochasi||Samarqand viloyati|39.890203|66.449378
Kiyt А/В|140714|Kiyat MFY Kiyat kochasi||Samarqand viloyati|39.977769|66.66586
Qoracha А/В|140716|Qoracha MFY Qoracha kochasi||Samarqand viloyati|40.003779|66.463131
Qurli А/В|140717|Ozbekqurgon MFY Qayirma kochasi||Samarqand viloyati|40.100408|66.732999
Mitan А/В|140720|Namuna MFY A.Temur kochasi||Samarqand viloyati|40.00556|66.549206
Sugat А/В|140725|Ravot MFY Ravot kochasi||Samarqand viloyati|39.922008|66.497173
Sheyxlar А/В|140730|Mirzaqul MFY Mirzaqul kochasi||Samarqand viloyati|39.904169|66.541763
Payshanba А/В|141400|Bogot mfy Tarnov kuchasi 1uy||Samarqand viloyati|40.01686|66.229535
Andoq А/В|141401|Andoq MFY Andoq q/q||Samarqand viloyati|40.167633|66.393131
Burgan А/В|141402|Burgan MFY Ismatilla bobo kuchasi||Samarqand viloyati|40.179893|66.243373
Durbesh А/В|141404|Durbesh MFY Durbesh q/q||Samarqand viloyati|39.964308|66.322322
Yodgor А/В|141405|Yodgor MFY Yodgorxuja kuchasi||Samarqand viloyati|40.010096|66.26464
Kadan А/В|141408|Kadan MFY Uzbekiston kuchasi||Samarqand viloyati|39.997707|66.23152
Kattakorpa А/В|141409|Zarafshonshox kochasi||Samarqand viloyati|39.931171|66.298902
Kattaming А/В|141410|Kattaming MFY Ozbekiston kochasi||Samarqand viloyati|39.967564|66.108408
Moybuloq А/В|141412|Qoqsoy MFY Qoqsoy q/q||Samarqand viloyati|40.087233|66.324481
Mullakichkina А/В|141413|Namunali kucha||Samarqand viloyati|39.917311|66.282133
Mominhoja А/В|141414|Navbahor MFY Muminhuja q/q||Samarqand viloyati|39.989172|66.078543
Oxunboboеv А/В|141415|Qushtepa MFY Qushtepa q/q||Samarqand viloyati|40.020628|66.13769
Polvontepa А/В|141416|Polvontepa MFY Polvontepa q/q||Samarqand viloyati|39.924996|66.233294
Suvbuloq А/В|141417|Qushxovuz MFY Suvbuloq q/q||Samarqand viloyati|40.119219|66.222708
Sutxor А/В|141418|Mundiyon MFY Sutxur q/q||Samarqand viloyati|39.998128|66.207794
Chuyanchi А/В|141419|Chuyanchi MFY Chuyanchi q/q||Samarqand viloyati|40.018851|66.287276
Yakkabog А/В|141420|Qaradaryo MFY Yakkabog q/q||Samarqand viloyati|39.938498|66.244547
Yangiqorgon-cha А/В|141421|Yangiqurgoncha MFY Yangiqurgoncha q/q||Samarqand viloyati|39.909122|66.383019
Yangiusul А/В|141422|Sarayqurgon MFY Sarayqurgon q/q||Samarqand viloyati|39.86676|66.268264
Qo'shrabot PAB|140900|Mustaqillik kochasi 88-uy||Samarqand viloyati|40.239082|66.650053
Qo'rg'on A/B|140912|Qo'rg'on MFY||Samarqand viloyati|40.122537|66.59216
Xonnazar A/B|140917|Xonnazar MFY||Samarqand viloyati|40.1476|66.61415
Bozorjoy A/B|140901|Bozorjoy MFY||Samarqand viloyati|40.28826|66.693307
Eski Qo'shrabot A/B|140918|Qo'shrabot MFY||Samarqand viloyati|40.296656|66.538905
Pangat A/B|140913|Pangat MFY||Samarqand viloyati|40.403952|66.570582
Ittifoq A/B|140905|Qovunchi MFY||Samarqand viloyati|40.284106|66.447256
Jo'sh A/B|140903|Jo'sh MFY||Samarqand viloyati|40.406435|66.345749
Urganji A/B|140915|Urganji MFY||Samarqand viloyati|40.485128|66.313729
Qorakissa A/B|140908|Qo'shtamg'oli MFY||Samarqand viloyati|40.207485|66.642348
Zarmitan A/B|140904|Zarkent MFY||Samarqand viloyati|40.310241|66.734472
Nurobod A/B|141100|A.Temur kochasi 14-uy||Samarqand viloyati|39.607601|66.282196
Nurbuloq A/B|141106|Nurbuloq qurgoni||Samarqand viloyati|39.74435|66.399043
Ulus A/B|141113|Halqobod maxxala Ulus qishloqi||Samarqand viloyati|39.57373|66.369326
Sarukul A/B|141112|Sarukul maxxalla Sarikul qishloqi||Samarqand viloyati|39.497|66.494134
Jom A/B|141103|Jom maxxala Jom qishloqi||Samarqand viloyati|39.430734|66.412658
Oqsoy A/B|141107|Oqsoy maxxala Oqsoy qishloqi||Samarqand viloyati|39.51069|66.628313
Sazagan A/B|141109|Sazagan maxalla Sazagon qishloqi||Samarqand viloyati|39.53724|66.726812
Qurgoncha A/B|141105|Arabota maxaLlasi Tim qishloqi||Samarqand viloyati|39.74967|65.605129
Olga A/B|141108|Olga maxalla Olga qishloqi||Samarqand viloyati|39.447498|66.027076
Sepki A/B|141111|Buloqboshi maxallasi Sepki qishloqi||Samarqand viloyati|39.650635|65.977963
Jarquduq A/B|141102|Jarquduq maxalla Jarquduq qishloqi||Samarqand viloyati|39.785311|66.096335
Payariq A/B|141300|Payariq 50 yilligi kochasi 23-uy||Samarqand viloyati|39.989125|66.846805
Guliston A/B|141308|Beshqorgon MFY Guliston kochasi||Samarqand viloyati|40.006103|66.784665
Inqilob A/B|141313|Dehqonobod MFY A.Primov kochasi||Samarqand viloyati|40.02211|66.76108
Kopaki A/B|141314|Kopaki MFY Kopaki kochasi||Samarqand viloyati|39.956729|66.809458
Darvishiq A/B|141309|Qirqovul MFY Darvishiq kochasi||Samarqand viloyati|39.572459|66.52615
Rayim A/B|141320|Qumchuq MFY Istiqlol kochasi 130-uy||Samarqand viloyati|39.909126|66.861783
Bahrin A/B|141302|Fidokor MFY||Samarqand viloyati|40.015329|66.819991
Beshkapa A/B|141303|Tomoyrot MFY Tomoyrot kochasi||Samarqand viloyati|39.86754|66.875404
Boyrachi A/B|141306|Xoja Ismoil MFY Pong qishloqi||Samarqand viloyati|39.809561|66.945288
Qoshtepa A/B|141315|Zarafshon MFY Zarafshon kochasi||Samarqand viloyati|39.847251|66.979052
Oqqorgon A/B|141318|Ozbekiston MFY Choporoshli kochasi||Samarqand viloyati|39.924123|66.795956
Dostlarobod A/B|141311|Dostlarobod MFY Dostlarobod kochasi||Samarqand viloyati|39.90705|66.900163
Topolos A/B|141322|Topolos MFY Topolos qq||Samarqand viloyati|39.873901|66.953077
Cholmoyin A/B|141325|Cholmoyin MFY Cholmoyin kochasi||Samarqand viloyati|39.907031|66.845523
Oytamgali A/B|141317|Turkibola MFY Turkibola kochasi||Samarqand viloyati|39.9287|66.914127
Juma PAB|140500|Nodirabegim kochasi, 55-uy||Samarqand viloyati|39.71351|66.665401
Katta-naymancha А/В|140514|Kattanaymancha mahallasi||Samarqand viloyati|39.683501|66.663421
Xauzak А/В|140530|Olmazor mahallasi||Samarqand viloyati|39.679722|66.694617
Chandir А/В|140531|Buyuk Turon mahallasi||Samarqand viloyati|39.657377|66.703629
Paxtachi А/В|140522|Tort aygir MFY||Samarqand viloyati|39.666687|66.730018
Chashma А/В|140533|Quyidargom MFY||Samarqand viloyati|39.677944|66.770987
Charxin А/В|140532|Charxin qorgoni Charxin mahallasi||Samarqand viloyati|39.693716|66.82788
Namozgox А/В|140519|Balxiyon mahallasi||Samarqand viloyati|39.693806|66.842405
Dovkash А/В|140506|Yangisanoat mahallasi||Samarqand viloyati|39.728258|66.810184
Namuna А/В|140520|Orta Charxin mahallasi||Samarqand viloyati|39.711772|66.808486
Jagalboyli А/В|140509|Jagalboyli mahallasi||Samarqand viloyati|39.715175|66.762383
Sinchi А/В|140524|Orikzor mahallasi||Samarqand viloyati|39.738999|66.732349
Talligulon А/В|140525|Istiqbol mahallasi||Samarqand viloyati|39.735262|66.701264
Qahramon А/В|140515|Gumbaz mahallasi||Samarqand viloyati|39.723584|66.690978
Juma-2 А/В|140502|A.Navoiy mahallasi||Samarqand viloyati|39.716419|66.664188
Dovul А/В|140507|Paxtakor mahallasi||Samarqand viloyati|39.729238|66.604835
Gаzalkent А/В|140504|Oltiqahramon mahallasi||Samarqand viloyati|39.757129|66.584125
Dostlik А/В|140508|Temiryol mahallasi||Samarqand viloyati|39.764836|66.604387
Usmonov А/В|140528|Oshiq ota mahallasi||Samarqand viloyati|39.785537|66.64762
Zormon А/В|140512|Qorasuv mahallasi||Samarqand viloyati|39.803686|66.57339
Qorayantoq А/В|140517|Yangiravot mahallasi||Samarqand viloyati|39.839105|66.508239
Zarbdor А/В|140511|Qoshquduq mahallasi||Samarqand viloyati|39.793118|66.515762
Ilm А/В|140513|Ilm mahallasi||Samarqand viloyati|39.695314|66.576064
Sanchiqul А/В|140523|Bobur mahallasi||Samarqand viloyati|39.681061|66.625022
Ziaddin A/B|140600|Ziyovuddin sh Istiqlol kochasi 45-uy||Samarqand viloyati|40.028056|65.662917
Boyqut A/B|140602|Nazar MFY Bobo yurt kochasi||Samarqand viloyati|39.992167|65.743917
Guzal A/B|140603|Zarafshon MFY Orzu kochasi||Samarqand viloyati|39.956722|65.724444
Kalta A/B|140605|Guliston MFY||Samarqand viloyati|39.985466|65.698327
Qarnab A/B|140606|Qarnabota MFY Qahramon kochasi||Samarqand viloyati|39.837833|65.5005
Qorabuloq A/B|140607|Gulshan MFY 21-asr kochasi||Samarqand viloyati|40.111722|65.509444
Quziboqar A/B|140609|Mojor MFY Adolat kochasi||Samarqand viloyati|40.091333|65.577556
Misit A/B|140610|Bodoy MFY Faravon kochasi||Samarqand viloyati|40.028444|65.673056
Sultonobod A/B|140613|Hunarmand MFY Madaniyat kochasi||Samarqand viloyati|40.107222|65.533528
Tumor A/B|140614|Nayman MFY Oriyat kochasi||Samarqand viloyati|39.994917|65.785778
Xayt-Ilbegi A/B|140615|Taraqqiyot MFY Turon kochasi||Samarqand viloyati|40.065167|65.637722
Xoja A/B|140616|Taraqqiyot MFY Turon kochasi||Samarqand viloyati|40.089055|65.603168
Gulobod PAB|140300|Gulobod qurgoni||Samarqand viloyati|39.58114|66.95628
Andijoni A/B|140303|Andijoni M.F.Y||Samarqand viloyati|39.577444|67.008528
Аrabxona A/B|140304|Arabxona M.F.Y||Samarqand viloyati|39.657|66.887806
Dashtakibolo A/B|140311|Oqmachid M.F.Y||Samarqand viloyati|39.622239|66.99475
Zagalik A/B|140312|Zaxlik M.F.Y||Samarqand viloyati|39.723583|66.870583
Kalbog A/B|140317|Chorshanbe M.F.Y||Samarqand viloyati|39.614389|66.939722
Qushtamgali A/B|140319|Joysoy M.F.Y||Samarqand viloyati|39.658425|67.025431
Mironqul A/B|140320|Mexriobod M.F.Y||Samarqand viloyati|39.558036|66.858528
Pulimugob A/B|140323|Radjabamin M.F.Y||Samarqand viloyati|39.638083|67.024556
Ravonak A/B|140324|Ravonak M.F.Y||Samarqand viloyati|39.595719|67.015819
Turkman qishloq A/B|140327|Turkman M.F.Y||Samarqand viloyati|39.668561|66.884269
Ozbekkenti A/B|140328|Ozbekkenti M.F.Y||Samarqand viloyati|39.701217|66.929117
Ulugbek A/B|140329|Ulugbek M.F.Y||Samarqand viloyati|39.61775|66.960639
Yangiariq A/B|140332|Yangiariq M.F.Y||Samarqand viloyati|39.532186|66.893472
Talibarzu A/B|140326|Talibarzu M.F.Y||Samarqand viloyati|39.610208|67.016008
Tayloq PAB|141500|A.Timur kochasi 3 uy||Samarqand viloyati|39.604019|67.089301
Bogizagon A/B|141503|Bogizagon MFY||Samarqand viloyati|39.569934|67.184692
Elipok A/B|141512|Gulba MFY||Samarqand viloyati|39.55073|67.25532
Fayziobod A/B|141511|Urtaqishloq MFY||Samarqand viloyati|39.556751|67.188725
Adas A/B|141501|Shaharopulot MFY||Samarqand viloyati|39.551876|67.142481
Baxshitepa A/B|141502|Nurliyul MFY||Samarqand viloyati|39.645772|67.090898
Sochakibolo A/B|141509|Gulobod MFY||Samarqand viloyati|39.602366|67.090847
Davlatobod A/B|141505|Ravot MFY||Samarqand viloyati|39.568158|67.074116
Urgut A/B|141600|Yuqori Kalangar MFY Navoiy shox kochasi 17-uy||Samarqand viloyati|39.40345|67.244759
Chagizmon A/B|141632|Chаgizmon MFY Temur Malik kochasi||Samarqand viloyati|39.417422|67.257319
Ispanza A/B|141612|Toshariq MFY Registon kochasi||Samarqand viloyati|39.407569|67.273408
Gus A/B|141608|Soy Guzar MFY Kuktepa kochasi||Samarqand viloyati|39.395611|67.305889
Mominobod A/B|141622|Muminobod MFY Muminobod kochasi||Samarqand viloyati|39.405381|67.399511
Beshyogoch A/B|141603|Beshygoch MFY Beshygoch kochasi||Samarqand viloyati|39.457592|67.391556
Vatkan A/B|141605|Vatkan MFY Vatkan kochasi||Samarqand viloyati|39.471978|67.420728
Jartepa A/B|141609|Jartepa MFY Uzbekiston kochasi||Samarqand viloyati|39.531142|67.339922
Mugol A/B|141621|Mugol MFY I . Karimov kochasi||Samarqand viloyati|39.531453|67.296761
Pochvon A/B|141625|Pochvon MFY I . Karimov kochasi||Samarqand viloyati|39.468928|67.278158
Qayroqli A/B|141613|Qayroqli MFY Gayrat kochasi||Samarqand viloyati|39.476647|67.240264
Uramas A/B|141630|Uramas MFY Ravshaniy kochasi||Samarqand viloyati|39.470381|67.205531
Jurubtepa A/B|141610|Jurubtepa MFY S.Raximov kochasi||Samarqand viloyati|39.470733|67.152819
Sariqtepa A/B|141627|Sariqtepa MFY Qoratepa kochasi||Samarqand viloyati|39.430664|67.160658
Ilonli A/B|141611|Ilonli MFY A.Temur kochasi||Samarqand viloyati|39.467528|67.040322
Taroqli A/B|141629|Taroqli MFY Mexnatkash kochasi||Samarqand viloyati|39.497058|67.078061
Qoratepa A/B|141615|Qoratepa MFY Ipak Yuli kochasi||Samarqand viloyati|39.402856|67.011992
Tepa A/B|141321|Payriz tumani, Kultusin MFY, Markaz ko'chasi||Samarqand viloyati|40.219946|66.888824
Jizzax shaxar 3 A/B|130103|Jizzax sh Ulug‘bek maxalla Toshkent ko‘cha 9-uy|(72)-222-22-96|Jizzax viloyati|40.103447|67.845985
Jizzax shahar 7 A/B|130107|Jizzax sh A.Temur maxallasi||Jizzax viloyati|40.097827|67.778306
Jizzax shahar 8 A/B|130108|Jizzax sh Bobur maxallasi Bunyodkor ko‘chasi 51-uy||Jizzax viloyati|40.109732|67.847827
Jizzax shahar 12 A/B|130112|Jizzax sh Ittifoq maxallasi|(72)-223-45-24|Jizzax viloyati|40.114158|67.85839
Jizzax shahar 14 A/B|130114|Jizzax sh Zilol maxalla guzari||Jizzax viloyati|40.165067|67.839092
Jizzax shahar 16 A/B|130116|Jizzax sh A.Navoiy maxallasi N.Qo‘shoqov ko‘chasi 42-uy|(72)-222-40-58|Jizzax viloyati|40.105881|67.828207
Jizzax shahar 19 A/B|130119|Jizzax sh Tinchlik maxallasi A.Karimov ko‘chasi 11-uy||Jizzax viloyati|40.097588|67.8359
Uchtepa tumani A/B|131100|Sh.Rashidov tumani Uchtepa daxasi Yangi obod maxallasi Mustaqillik ko‘chasi 2-uy||Jizzax viloyati|40.211797|67.907403
Ravot A/B|131111|Sh.Rashidov tumani Umar MFY||Jizzax viloyati|40.014179|68.016571
Jizzaxlik A/B|131103|Sh.Rashidov tumani Jizzaxlik maxalla X.Olimjon ko‘chasi 64 uy||Jizzax viloyati|40.144618|67.805963
Toqchilik A/B|131113|Sh.Rashidov tumani Toqchilik maxalla||Jizzax viloyati|40.138686|67.85279
Qorayontoq A/B|131106|Sh.Rashidov tumani Bobur maxalla Tinchlik ko‘chasi||Jizzax viloyati|40.059141|67.886951
Xamzaobod A/B|131116|Sh.Rashidov tumani Olmachi maxallasi Ko‘chatzor ko‘chasi 74-uy||Jizzax viloyati|40.095626|67.910074
Mulkanlik A/B|131108|Sh.Rashidov tumani Qo‘shko‘pir maxalla Sardoba ko‘chasi 1a-uy||Jizzax viloyati|40.167899|67.821979
Kuyovbosh A/B|131107|Sh.Rashidov tumani Gandumtosh maxalla||Jizzax viloyati|40.149966|67.753856
Qangli A/B|131104|Sh.Rashidov tumani Qangli MFY Qangli ko‘cha||Jizzax viloyati|40.124487|67.884391
Samarqandquduq A/B|131112|Sh.Rashidov tumani Samarqandquduq MFY A.Yassaviy ko‘cha||Jizzax viloyati|40.259071|67.867141
Zarbdor A/B|130600|Zarbdor tumani Oybek MFY Murabbiy ko‘cha|(72)-492-27-32|Jizzax viloyati|40.094431|68.171999
Baxt A/B|130603|Zarbdor tumani sharqyulduzi MFY Zulfiya ko‘cha||Jizzax viloyati|40.170147|68.161659
Bo‘ston A/B|130604|Zarbdor tumani Bo‘ston MFY||Jizzax viloyati|40.10161|68.04288
Gallaorol PAB|130400|Mustaqillik Kochasi 38 uy|72-432-15-09|Jizzax viloyati|40.028832|67.589523
Lalmikor A/B|130404|Lalmikor MFY Lalmikor kochasi 21 uy||Jizzax viloyati|39.939674|67.453712
Buloqbosh A/B|130407|Buloqboshi QFY Uzunbuloq qishloqi||Jizzax viloyati|39.91945|67.6545
Guliston A/B|130409|Guliston QFY abdukarim qishloqi||Jizzax viloyati|39.90068|67.618252
Juma A/B|130412|Jiydali QFY Juma qishloqi||Jizzax viloyati|40.080454|67.195375
Qipchoqsuv A/B|130414|Qipchoqsuv QFY Qipchoqsuv qishloqi||Jizzax viloyati|39.969131|67.242982
Qoytosh A/B|130415|Qoytosh sh FY Maktab kochasi||Jizzax viloyati|40.214238|67.337941
Marjonbuloq A/B|130418|Marjonbuloq sh FY Marjonbuloq 1||Jizzax viloyati|39.93278|67.422209
Olmasuvon A/B|130421|Madaniyat QFY Toshkent kochasi||Jizzax viloyati|40.011389|67.602367
Zomin A/B|130800|Zomin sh Sh.Rashidov MFY Mustaqillik kochasi 74 uy|72 392 17 92|Jizzax viloyati|39.963929|68.398965
Gulshan A/B|130801|Zomin tumani Nurlikеnt MFY Nurlikеnt qishloqi|99 025 36 30|Jizzax viloyati|40.06205|68.189509
Achchi A/B|130802|Zomin tumani Beshkubi QFY Bshkubi qishloqi|99 605 77 45|Jizzax viloyati|39.958268|68.241959
Dashtobod A/B|130805|Zomin tumani Dashtobod shahri Beruniy MFY|97 435 55 74|Jizzax viloyati|40.137582|68.483521
Yom A/B|130806|Zomin tumani Istiqlol QFY Yom shchasi|97 006 12 79|Jizzax viloyati|40.031496|68.520219
Yettikchuv A/B|130807|Zomin tumani Duoba QFY Quoba qishloqi|99 557 15 68|Jizzax viloyati|39.786028|68.392028
Pshogor A/B|130810|Zomin tumani Pshogor qishloqi|94 577 05 40|Jizzax viloyati|39.973038|68.128095
Turkman A/B|130811|Zomin tumani Turkman MFY Turkman qishloqi|99 071 05 74|Jizzax viloyati|39.955931|68.501781
Uzunqishloq A/B|130812|Zomin tumani shirin QFY Quduqcha qishloqi|94 377 19 83|Jizzax viloyati|39.962381|68.316447
Balandchaqir A/B|131300|Yangiobod tumani Balandchaqir shFY|91 941 89 80|Jizzax viloyati|39.913636|68.781653
Qoshqand A/B|131302|Yangiobod tumani Xavotog QFY Qoshqand qishloqi|99 345 91 68|Jizzax viloyati|40.097458|68.925619
Savot A/B|131303|Yangiobod tumani Savot shchasi|97 484 75 24|Jizzax viloyati|39.978037|68.661079
Sarmich A/B|131305|Yangiobod tumani Sarmich MFY|97 329 05 76|Jizzax viloyati|39.680582|67.435749
Usmat A/B|131000|Baxmal tumani, Dustkik MFY, Archazor kocha 9 uy|72412-13-72|Jizzax viloyati|39.740975|67.6531
Bogdor A/B|131004|Baxmal tumani,Novqa MFY, Novqa qishloqi||Jizzax viloyati|39.755502|67.719462
Gulbuloq A/B|131005|Baxmal tumani, Gulbuloq QFY, Gulbuloq qishloqi||Jizzax viloyati|39.680582|67.435749
Mugol A/B|131013|Baxmal tuman, Mugol QFY, Mugol qishloqi||Jizzax viloyati|39.729277|67.943909
Navruz A/B|131014|Baxmal tuman, Fidokorlar MFY, Alamli qishloqi||Jizzax viloyati|39.759748|67.514751
Nushkent A/B|131015|Baxmal tuman, Molguzar MFY, Sutkibuloq qishloqi||Jizzax viloyati|39.779596|67.874012
Tongotar A/B|131019|Baxmal tuman, Tongotar QFY, Tongotar qishloqi||Jizzax viloyati|39.751671|67.455365
Urmonchi A/B|131020|Baxmal tumani, O'rmonchi MFY, Ilonchi qishloqi||Jizzax viloyati|39.719237|68.070025
Yangiobod A/B|131023|Baxmal tuman, Mustaqillik MFY, Qatortol qishloqi||Jizzax viloyati|39.694639|67.558915
Yangiqishloq PAB|131200|Bogdon shaxarchasi Dostlik kochasi, 1-uy|(72) 4521731|Jizzax viloyati|40.415382|67.185496
Ilonchi A/B|131208|Oqtepa qishloqi||Jizzax viloyati|40.366345|67.257961
Osmonsoy A/B|131214|Osmonsoy qishloqi||Jizzax viloyati|40.334612|67.243359
Nurak A/B|131212|Qoratosh qishloqi||Jizzax viloyati|40.259837|67.634108
Bogdon A/B|131204|Egizbuloq qishloqi||Jizzax viloyati|40.324124|67.474598
Band A/B|131202|Xonbandi shaxarchasi||Jizzax viloyati|40.496293|67.262489
Uchma A/B|131218|Uchma qishloqi||Jizzax viloyati|40.477162|67.063391
Qoraabdol A/B|131209|Qorabogonali qishloqi||Jizzax viloyati|40.289838|67.039335
Garasha A/B|131205|Garasha qishloqi||Jizzax viloyati|40.336694|66.918454
Narvon A/B|131211|Narvon qishloqi||Jizzax viloyati|40.243412|67.186725
Paxtakor TPAB|130900|Mustaqillik kocha 1 uy|(72)353-12-83|Jizzax viloyati|40.314716|67.959803
Gulzor A/B|130904|Buyuk ipak yoli QFY Ergash Xolmatov kocha 21 uy|93-650-54-97|Jizzax viloyati|40.323515|68.083386
Chamanzor A/B|130908|Chamanzor QFY N.Safarov kocha 11 uy|94-345-19-91|Jizzax viloyati|40.238659|67.95775
Mevazor A/B|130906|Birlik QFY Jomiy kocha 5 uy|94-194-71-15|Jizzax viloyati|40.400155|67.906595
Zafarobod A/B|130700|Boston QFY Mustaqillik kocha 1 uy|72-472-22-48|Jizzax viloyati|40.388388|67.818198
Lolazor A/B|130703|Lolazor QFY Qurgontepa kocha 6 uy|99-342-45-24|Jizzax viloyati|40.419228|67.674627
Oxunboboyev A/B|130704|Yorqin QFY Bogbon kocha 1uy|99-447-01-31|Jizzax viloyati|40.329828|67.876283
Temiryazov A/B|130705|Pstalikent SHFY|91-592-00-35|Jizzax viloyati|40.286833|67.762529
Dostlik A/B|130500|Chinobod MFY Dostlik kocha 4uy|99-058-28-65|Jizzax viloyati|40.524721|68.036683
Qaxramon A/B|130503|Qaxramon QFY Novbaxor kocha 1 uy|93-822-89-89|Jizzax viloyati|40.536037|68.10972
Manas A/B|130504|Manas MFY Anjirbog kocha 28uy|94-194-09-78|Jizzax viloyati|40.437994|68.166273
Saritepa A/B|130506|Saritpa QFY A Qodiriy kocha 1 uy|94-344-43-79|Jizzax viloyati|40.577559|67.983457
Gagarin A/B|130300|Mustaqillik MFY Binokor kocha 14uy|99-501-79-00|Jizzax viloyati|40.665767|68.174301
Ozbekiston A/B|130307|Ozbekiston QFY Maroqand kocha 17uy|94-579-67-04|Jizzax viloyati|40.706323|67.940342
Paxtazor A/B|130305|Paxtazor shFY Bunyodkor kocha 15uy|94-349-17-66|Jizzax viloyati|40.726952|68.096792
Goliblar A/B|130200|Bobur MFY А.Navoiy 11 uy|94-670-42-90|Jizzax viloyati|40.492155|67.879201
Cholquvar A/B|130205|Cholquvar QFY Xalqaobod kocha 6uy|99-074-37-26|Jizzax viloyati|40.700942|67.869562
Yakkabog PAB|181400|A.Temur kuchasi 79 uy|(75) 582-54-46|Qashqadaryo viloyati|38.58287|66.42114
Beshkent PAB|180200|Qarshi tuman, Amir Timur kuchasi 19 uy|(75)572-14-74|Qashqadaryo viloyati|38.822389|65.655167
Guzar PAB|180300|Guzar tuman, O'zbekiston ko'cha 68- uy||Qashqadaryo viloyati|38.621868|66.252329
Korashina PAB|180400|Dexkonobod tuman, M.Ulugbek kuchasi 4-uy|75-612-11-12|Qashqadaryo viloyati|38.337|66.561389
Qamashi PAB|180500|Qamashi tuman, Kamashi kuchasi 98-uy|75-532-45-41|Qashqadaryo viloyati|38.815812|66.475937
Mug'lon PAB|180600|Kasbi tuman, Mustaqillik ko'chasi 1 uy|75 642-17-77|Qashqadaryo viloyati|38.925716|65.41466
Kitob PAB|180700|Kitob tuman, Kitob sh|54-25-306|Qashqadaryo viloyati|39.119556|66.875639
Muborak PAB|180900|Muborak tuman, Zanjirsaroy ko'cha 15 uy|(67) 21-6-32|Qashqadaryo viloyati|39.260346|65.160624
Yangi PABMirishkor PAB|181000|Mirishkor tuman, Yangi Mirishkor shaharchasi, O'zbekiston ko'chasi 3-uy|(75) 652-11-86|Qashqadaryo viloyati|38.847255|65.270904
Nishon PAB|181100|Nishon tuman, Yangi Nishon O'zbekiston kucha index17uy|75,512-22-59|Qashqadaryo viloyati|38.644429|65.696814
Chiroqchi PAB|181200|Chiroqchi tuman, Mustaqillik kuchasi 2-uy|(75)-56-21-9-11|Qashqadaryo viloyati|39.033|66.577167
Ajrim A/B|181403|Uygur MFY Ajrim qishlogi|(91) 320-50-91|Qashqadaryo viloyati|38.854848|66.709028
Qayragoch A/B|181408|Qayragoch MFY Qayragoch qishlogi|(97) 682-03-71|Qashqadaryo viloyati|38.868361|66.761806
Kenguzor A/B|181409|Kenguzar MFY Keguzar qishlogi|(97) 588-08-72|Qashqadaryo viloyati|38.935556|66.913611
Qozoq A/B|181410|Nurliyul MFY Qozoq qishlogi|(90) 639-70-38|Qashqadaryo viloyati|38.927056|66.500111
Madaniyat A/B|181412|Yashnaobod MFY Madaniyat qishlogi|(91) 224-25-61|Qashqadaryo viloyati|38.940028|66.663528
Mevazor A/B|181413|Mevazor MFY Mevazor qishlogi|(91) 957-24-73|Qashqadaryo viloyati|38.940028|66.663528
Samok A/B|181416|Samoq MFY Samoq qishlogi|(91) 466-70-42|Qashqadaryo viloyati|38.916528|67.0395
St.Yakkabog A/B|181401|Oxunboboyev MFY Oxunboboyev kuchasi|(91) 951-71-86|Qashqadaryo viloyati|38.916528|67.0395
Orta A/B|181420|Orta MFY Orta qishlogi|(99) 048-81-66|Qashqadaryo viloyati|38.982583|66.677111
Uchtepa A/B|181421|Qatogon MFY Qatogon qishlogi|(97) 388-50-84|Qashqadaryo viloyati|38.933889|66.740917
Xiyobon A/B|181422|Xiyobon MFY Xiyobon qishlogi|(97) 382-13-05|Qashqadaryo viloyati|38.937528|66.845667
Xojja-Ilgor A/B|181423|Jujailgor MFY Yoshlik kuchasi|(90) 517-31-48|Qashqadaryo viloyati|38.986528|66.692194
Chaydari A/B|181424|Chaydari MFY Chaydari qishlogi|(99) 672-98-36|Qashqadaryo viloyati|38.985278|66.625194
Chinobod A/B|181425|Chinobod MFY Chinobod qishlogi|(99) 549-64-75|Qashqadaryo viloyati|38.950667|66.786639
Edilbek A/B|181426|Edilbek MFY GFE shchasi|(97) 318-59-11|Qashqadaryo viloyati|38.92125|66.846889
Esat A/B|181427|Esat MFY Esat qishlogi|(91) 958-47-12|Qashqadaryo viloyati|38.949222|66.595583
Koson PAB|180800|Mustaqillik kuchasi 102 uy|(75) 592-17-41|Qashqadaryo viloyati|39.045278|65.585333
Koson-1 A/B|180801|Saripul mahallasi. Nasaf kochasi|(99) 668-09-53|Qashqadaryo viloyati|39.045306|65.585444
Koson-2 A/B|180802|Koson Paxtazor maxalla 1/4 uy|(91) 262-26-70|Qashqadaryo viloyati|39.063896|65.559768
Oqtepa A/B|180804|Gulbog qishlogi|(99) 549-79-64|Qashqadaryo viloyati|39.09368|65.609306
Alachabob A/B|180805|Alachabob maxalla|(94) 337-54-84|Qashqadaryo viloyati|39.178778|65.924704
Guvalak A/B|180807|Guvalak maxalla|(91) 210-33-58|Qashqadaryo viloyati|39.041845|65.745765
Guliston A/B|180808|Obod maxalla|(97) 314-49-48|Qashqadaryo viloyati|39.177902|65.654566
Jarqum A/B|180810|Jarqum qishlogi Tinchlik MFY|(94) 299-13-69|Qashqadaryo viloyati|39.347593|65.710247
Maydayobu A/B|180811|Maydayobu MFY|(99) 663-60-54|Qashqadaryo viloyati|39.39566|65.743007
Mudin A/B|180812|Olga qish Xamza kochasi 5 uy|(97) 585-48-45|Qashqadaryo viloyati|39.987631|65.691856
Obron A/B|180814|Obron MFY|(97) 585-90-69|Qashqadaryo viloyati|39.011565|65.627431
Pistali A/B|180815|Pistali qishlogi|(90) 425-82-10|Qashqadaryo viloyati|39.059347|65.830822
Pulati A/B|180816|Pulati qishlogi||Qashqadaryo viloyati|39.059347|65.830822
Tolga A/B|180818|Tolga qishlogi, Bolmas maxalla|(91) 219-19-05|Qashqadaryo viloyati|39.058122|65.569098
sherbek A/B|180819|Shaharerbek MFY|(91) 219-19-05|Qashqadaryo viloyati|39.968532|65.733877
Esaboy A/B|180820|Esaboy MFY|(97) 382-83-18|Qashqadaryo viloyati|39.021025|65.506233
Sahrisabz shahar PAB|181300|Ipak Yoli 38 uy|(75)-521-21-03|Qashqadaryo viloyati|39.084872|66.840467
Shahrisabz-2 A/B|181302|Furqat 1 uy|(75) 522-06-10|Qashqadaryo viloyati|39.0592356|66.8354304
Shahrisabz-3 A/B|181305|Eroziy 18 uy|(75) 522-02-48|Qashqadaryo viloyati|39.045172|66.822166
Kunchiqar A/B|181306|Ipak Yoli kochasi|(75) 522-62-69|Qashqadaryo viloyati|39.078121|66.839121
Muminobod A/B|181315|Muminobod qishlogi|-|Qashqadaryo viloyati|39.055969|66.922097
Chorshanbe A/B|181325|Chorshanbe qorgoni|(75) 523-11-88|Qashqadaryo viloyati|39.0408116|66.9656128
Nukus Bestobe A/B|230119|Nukus sh Bestobe kochasi|-|Qoraqalpog'iston Respulicasi|42.344014|59.749854
Qaratash A/B|230120|Nukus sh, Qoratau aholi punkti, Abay kochasi|-|Qoraqalpog'iston Respulicasi|42.088163|60.279408
Qizilqum Qizketken A/B|230121|Nukus shahri, Qizketken shoh kochasi, r/uy|61-225-17-11|Qoraqalpog'iston Respulicasi|42.393599|59.637598
Nukus-1 Abdambetov A/B|230101|Nukus sh, Abdambetov kochasi 37 uy|61-229-16-29|Qoraqalpog'iston Respulicasi|42.461907|59.587432
Nukus-2 Turtkulskiy A/B|230102|Nukus sh, Turtkulskiy. Avtomagistral kochasi uy 38 kv.|61-223-96-67|Qoraqalpog'iston Respulicasi|42.4597|59.61249
Nukus-3 A/B|230103|Nukus sh, A.Dosnazarov kochasi uy 87 kv 1|61-222-23-11|Qoraqalpog'iston Respulicasi|42.460174|59.621066
Nukus-13 A/B|230113|Nukus sh 23 mikrorayon, uy 3/12 kv.|61-223-13-15|Qoraqalpog'iston Respulicasi|42.447106|59.64255
Nukus-15 A/B|230115|Nukus sh, 22 m/r, uy 96 kv.|61-226-35-24|Qoraqalpog'iston Respulicasi|42.43613|59.633046
Pristаn A/B|230122|Nukus sh, Qoraqalpoq kochasi r/uy|61-229-62-13|Qoraqalpog'iston Respulicasi|42.457785|59.564995
Uzinkol A/B|230908|Nukus sh Saxobatli insan kochasi r/uy|61-224-63-44|Qoraqalpog'iston Respulicasi|42.504452|59.601002
Mangit PАB A/B|230700|Amudara tumani Qipchoq kochasi 12-uy|61-515-30-61|Qoraqalpog'iston Respulicasi|42.117652|60.056992
Mangit-1 A/B|230701|Amudara tumani Berdax kochasi raqamsiz uy|-|Qoraqalpog'iston Respulicasi|42.1071|60.064675
Doʼrman A/B|230704|Durman OFI|-|Qoraqalpog'iston Respulicasi|41.90962|60.115701
Zarbdor A/B|230707|Bobur OFI|-|Qoraqalpog'iston Respulicasi|42.051368|60.200024
Qilichbаy A/B|230712|Qilichbay OFI|-|Qoraqalpog'iston Respulicasi|41.977479|60.038585
Qtay A/B|230710|Qtay OFI|-|Qoraqalpog'iston Respulicasi|41.989636|60.19637
Kuyik-kopir A/B|230711|Kuyik-kupir OFI|-|Qoraqalpog'iston Respulicasi|42.011182|60.204716
Mangʼit s/z A/B|230702|Urta kala OFI|-|Qoraqalpog'iston Respulicasi|42.076295|60.078669
Nazarxan A/B|230713|Nazarxan OFI|-|Qoraqalpog'iston Respulicasi|42.335215|59.942335
Toʼlqin A/B|230714|Tolkin OFI|-|Qoraqalpog'iston Respulicasi|42.169916|60.11935
Chaykol A/B|230718|Kipchak OFI|-|Qoraqalpog'iston Respulicasi|42.113397|60.09485
Beruniy PАB|230200|Beruniy tumani Х.Dustligi kochasi 7 uy|61-524-25-35|Qoraqalpog'iston Respulicasi|41.691305|60.756791
Beruniy-3 A/B|230203|abai kochasi b/n|-|Qoraqalpog'iston Respulicasi|42.076295|60.078669
Biybazar A/B|230207|Beruniy OFI|-|Qoraqalpog'iston Respulicasi|42.335215|59.942335
Oltinsoy A/B|230206|Oltinsoy OFI|-|Qoraqalpog'iston Respulicasi|42.169916|60.11935
shimom A/B|230221|shimom OFI|-|Qoraqalpog'iston Respulicasi|42.113397|60.09485
Sarkoʼp A/B|230215|Sarkop OFI|-|Qoraqalpog'iston Respulicasi|41.691305|60.756791
Ulugbek A/B|230218|Dustlik OFI|-|Qoraqalpog'iston Respulicasi|41.896565|60.662314
Tinchlik A/B|230217|Tinchlik OFI|-|Qoraqalpog'iston Respulicasi|41.75531|60.730757
Saratau A/B|230214|Оzod OFI|-|Qoraqalpog'iston Respulicasi|41.774049|60.711287
shabaz A/B|230220|shabaz OFI|-|Qoraqalpog'iston Respulicasi|41.66799|60.777602
Navoiy A/B|230212|Navoiy OFI|-|Qoraqalpog'iston Respulicasi|41.686312|60.741255
Qoraozak TPAB|230400|Qoraozak tumani Oxunbabaev kochasi b/n|-|Qoraqalpog'iston Respulicasi|43.028261|60.020531
Qorateren A/B|231105|Qorateren OFI|-|Qoraqalpog'iston Respulicasi|43.150869|60.361827
Qaraozak s/z|230401|Qoraozek OFI|-|Qoraqalpog'iston Respulicasi|43.196533|60.057199
Qorugak A/B|230404|Dosnazarov OFI|-|Qoraqalpog'iston Respulicasi|42.862727|59.949751
Qarshigali A/B|230406|Berdax OFI||Qoraqalpog'iston Respulicasi|43.000788|60.005269
Madeniyat A/B|230408|Madaniet OFI|-|Qoraqalpog'iston Respulicasi|43.032258|60.066651
Mulik A/B|231107|Mulik OFI|-|Qoraqalpog'iston Respulicasi|42.989827|60.438091
Sarialtin A/B|231108|Taxtakopir OFI|-|Qoraqalpog'iston Respulicasi|43.018174|60.332644
Taxtakopir A/B|231100|Berdax kochasi 35 uy|-|Qoraqalpog'iston Respulicasi|43.018939|60.286569
Ozbekiston A/B|231109|Ozbekiston OFI|-|Qoraqalpog'iston Respulicasi|43.060188|60.224076
Qongirot PAB|230600|Qongrot tumani, Garezsizlik kochasi 14 uy|61-312-20-62|Qoraqalpog'iston Respulicasi|43.045809|58.84752
Ravshan A/B|230616|RavshanOFI|-|Qoraqalpog'iston Respulicasi|43.183357|58.588449
Altinkol A/B|230604|Altinkol OFI|-|Qoraqalpog'iston Respulicasi|43.04387|58.8415
Jasliq A/B|230608|Jaslik PFI|-|Qoraqalpog'iston Respulicasi|43.971959|57.495889
Qaraqalpakiya A/B|230609|Qoraqalpogiston PFI|-|Qoraqalpog'iston Respulicasi|44.769274|56.203893
Kokdarya A/B|230610|Minetobod OFI|-|Qoraqalpog'iston Respulicasi|43.089686|58.780915
Jana-talap A/B|230607|Karatal MFI|-|Qoraqalpog'iston Respulicasi|43.082437|58.900851
Kokli-kol A/B|230611|Suenli OFI|-|Qoraqalpog'iston Respulicasi|42.957334|58.924706
Qirq-qiz A/B|230614|Akcholak MFI|-|Qoraqalpog'iston Respulicasi|43.153143|58.207918
Ornek A/B|230615|Ornak OFI|-|Qoraqalpog'iston Respulicasi|43.056452|58.7931
Ustyurt A/B|230617|Ustyurt OFI|-|Qoraqalpog'iston Respulicasi|43.045083|58.857622
Avangard A/B|230602|Xorazm OFI|-|Qoraqalpog'iston Respulicasi|42.897366|58.860975
Moynоq tumani PAB|230800|Mоynoq tumani, Ajiniaz kochasi|61-322-21-87|Qoraqalpog'iston Respulicasi|43.767269|59.027552
Baliq kombinat A/B|230803|Berdax kochasi b/n|-|Qoraqalpog'iston Respulicasi|43.788363|59.022843
Kazaxdarya A/B|230804|Qozoqdarya OFI|-|Qoraqalpog'iston Respulicasi|43.425586|59.667922
Uchsay A/B|230807|Uchsay OFI|-|Qoraqalpog'iston Respulicasi|43.823386|58.898423
shagirliq A/B|230808|Bozatay OFI|-|Qoraqalpog'iston Respulicasi|43.626257|59.014177
shege A/B|230809|Madeli OFI|-|Qoraqalpog'iston Respulicasi|43.57115|59.143792
Tortkol tumani PAB|231200|Tortkol tumani, Tortkol kochasi 51 uy|61-532-23-24|Qoraqalpog'iston Respulicasi|41.558218|60.991251
Tortkol -3 A/B|231203|Tortkol tumani, Berdax kochasi 51 uy|-|Qoraqalpog'iston Respulicasi|41.553292|60.997114
Jayxun A/B|231210|Jayxun OFI|-|Qoraqalpog'iston Respulicasi|41.553252|60.998081
shuraxan A/B|231219|shuraxan OFI|-|Qoraqalpog'iston Respulicasi|41.482247|61.055721
Akkamish A/B|231206|Akkamish OFI|-|Qoraqalpog'iston Respulicasi|41.4026591|61.211177
Kaltaminar A/B|231211|Ota iyrt OFI|-|Qoraqalpog'iston Respulicasi|41.627798|60.963812
Chibiqli A/B|231218|Chibikli OFI|-|Qoraqalpog'iston Respulicasi|41.457487|61.101814
Nomuna A/B|231214|Namuna OFI|-|Qoraqalpog'iston Respulicasi|41.638397|60.961855
Aktam A/B|231207|Kaltaminar OFI|-|Qoraqalpog'iston Respulicasi|41.633651|60.963014
Akbashli A/B|231205|Akbashli OFI|-|Qoraqalpog'iston Respulicasi|41.628526|60.96282
Paxtachi A/B|231216|Paxtachi OFI|-|Qoraqalpog'iston Respulicasi|41.56662|61.050844
Paxtaobod A/B|231215|Paxtaobod OFI|-|Qoraqalpog'iston Respulicasi|41.555488|60.97073
shimbay PAB|231400|Chimbay tumani, I.Yusupov guzari kochasi 1 uy|61-444-00-40|Qoraqalpog'iston Respulicasi|42.934882|59.770018
Jana- jap A/B|231408|Kamis Arik OFI|99-042-71-73|Qoraqalpog'iston Respulicasi|42.900899|59.69969
Kamis-ariq A/B|231409|Baxtli OFI|99-733-04-73|Qoraqalpog'iston Respulicasi|42.961516|59.754099
Kenes A/B|231410|Kenes OFI|91 307-84-20|Qoraqalpog'iston Respulicasi|43.057644|59.861762
May-jap A/B|231415|May-jap OFI|93 206-67-72|Qoraqalpog'iston Respulicasi|43.054884|59.604445
shaxaman A/B|231416|Bozatav tumani, Kuksu OFI|97 220-77-15|Qoraqalpog'iston Respulicasi|43.216387|59.600742
shimbay s/x A/B|231405|Tazgara OFI|90 575-07-76|Qoraqalpog'iston Respulicasi|42.9147|59.789915
shimbay-4|231404|Аbat makan MFI|93 485-52-97|Qoraqalpog'iston Respulicasi|42.941011|59.783253
shumanoy PAB|231500|Shumanoy tumani, Tazabazar MFI|61-346-18-57|Qoraqalpog'iston Respulicasi|42.632969|58.923437
Аqjap A/B|231502|Aq-jap OFI|91-255-65-11|Qoraqalpog'iston Respulicasi|42.642283|58.916024
Tenlik A/B|231509|Dixanabad OFI|97-357-65-49|Qoraqalpog'iston Respulicasi|42.764999|58.787144
Begjap A/B|231505|Karabaili MFI|90-594-36-05|Qoraqalpog'iston Respulicasi|42.608062|59.169118
Ketenler A/B|231506|Mamii OFI|99-035-59-32|Qoraqalpog'iston Respulicasi|42.635923|58.922799
Mayliozek A/B|231507|Ketenler OFI|97-355-22-63|Qoraqalpog'iston Respulicasi|42.695267|58.787763
Xojayli tumani PAB|231300|Xojayli tumani, Dostlik kochasi 27 uy|61-554-35-50|Qoraqalpog'iston Respulicasi|42.409269|59.458177
Аmudarya A/B|231306|Amu-daryo OFI|90-591-70-05|Qoraqalpog'iston Respulicasi|42.471064|59.342694
Kulyab A/B|231310|Qolab OFI|90-723-19-79|Qoraqalpog'iston Respulicasi|42.45195|59.392138
Nayman A/B|231312|Nayman OFI|90-591-88-01|Qoraqalpog'iston Respulicasi|42.312246|59.580795
Saraykol A/B|231314|Saraykol OFI|90-723-75-53|Qoraqalpog'iston Respulicasi|42.307721|59.445457
Taxiatash-1 A/B|231001|Taxiatash tumani shRashidov kochasi 11 uy|90-714-15-48|Qoraqalpog'iston Respulicasi|42.335288|59.577087
Xojayli-1 A/B|231301|Xojayli tumani, Suenli kochasi b/n|90-714-70-09|Qoraqalpog'iston Respulicasi|42.420629|59.473223
Ellikqala tumani PAB|231600|Ellikqala tumani, sh Rashidov kochasi, 9 uy|61-585-18-68|Qoraqalpog'iston Respulicasi|41.824848|60.927327
Guldursin A/B|231607|Guldursin OFI|99-317-65-11|Qoraqalpog'iston Respulicasi|41.688409|60.986257
Guliston A/B|231606|Guliston OFI|94-901-18-00|Qoraqalpog'iston Respulicasi|41.837347|60.89659
Qilchinok A/B|231610|Kilchinaq OFI|97-500-85-40|Qoraqalpog'iston Respulicasi|41.619197|60.825368
Qiriq-qiz A/B|231612|Qirqqiz OFI|99-681-12-52|Qoraqalpog'iston Respulicasi|41.808692|61.064024
Navoiy A/B|231615|Navoiy OFI|99-054-12-71|Qoraqalpog'iston Respulicasi|41.778334|60.921621
Аmirabod A/B|231603|Amirobod OFI|99-572-01-81|Qoraqalpog'iston Respulicasi|41.586182|60.931812
Maqtumquli A/B|231614|Toza Bog OFI|94-456-56-73|Qoraqalpog'iston Respulicasi|41.622617|60.900479
Sarabiy A/B|231616|Sarabiy OFI|97-355-43-13|Qoraqalpog'iston Respulicasi|41.582578|60.912332
Boʼston-1 A/B|231601|Ellikqala OFI|97-357-67-75|Qoraqalpog'iston Respulicasi|41.922447|60.796375
Tuproqqala A/B|231618|Tuproqqala MFI|97-775-12-29|Qoraqalpog'iston Respulicasi|41.850707|60.930702
Аyazqalʼa A/B|231604|Ayazkala MFI|99-351-18-02|Qoraqalpog'iston Respulicasi|42.597671|59.540696
Akmangit PAB|230900|Nukus tumani, Darsan kochasi 32 uy|61-424-46-44|Qoraqalpog'iston Respulicasi|42.714545|59.434128
Kerder A/B|230904|Kerder OFI маркази|93-202-14-95|Qoraqalpog'iston Respulicasi|42.508121|59.575866
Qattiagar A/B|230903|Samanbai OFI|95 601-01-93, 99-957-01-98|Qoraqalpog'iston Respulicasi|42.508121|59.575866
shorkol A/B|230909|Taxirkol OFI, shorkol poselkasi|95 601-03-57, 99-541-86-10|Qoraqalpog'iston Respulicasi|42.563207|59.64776
shortanbay A/B|230910|Krantay OFI|91-385-80-48|Qoraqalpog'iston Respulicasi|42.637069|59.476259
Kegeyli tumani PAB|230500|Kegeyli tumani, Kegeyli guzari kochasi 21 uy|61-412-19-90|Qoraqalpog'iston Respulicasi|42.778096|59.610612
D.Turganbayev A/B|230503|Jalpak jap OFI|93-773-37-31|Qoraqalpog'iston Respulicasi|42.741873|59.827507
Erkin-daryo A/B|230506|Erkin-daryo OFI|99-756-61-83|Qoraqalpog'iston Respulicasi|42.844758|59.422839
Jana-bazar A/B|230507|Janabozor OFI|99-319-99-76|Qoraqalpog'iston Respulicasi|42.73917|59.563415
Qazanketken A/B|230510|Dustlik guzari kochasi b/n|93-485-37-27|Qoraqalpog'iston Respulicasi|43.017039|59.358221
Xalqabad A/B|230512|Halqabad guzari kochasi b/n|416-72-22, 91-385-32-75|Qoraqalpog'iston Respulicasi|42.682243|59.728287
Qanlikol PАB|230300|Qonlikol tumani, Dustlik kochasi 3 uy|61-332-10-50|Qoraqalpog'iston Respulicasi|42.833946|59.008809
Altinkol A/B|230302|Qonli-kol OFI|99-663-12-70|Qoraqalpog'iston Respulicasi|42.765457|59.144878
Kogam A/B|230305|Bostan OFI|99-545-09-84|Qoraqalpog'iston Respulicasi|42.784722|59.036778
Qosjap A/B|230306|Qosjap OFI|90-574-43-50|Qoraqalpog'iston Respulicasi|42.665558|59.199093
Qanlikoʼl-1 A/B|230301|Navruz OFI|97-348-95-72|Qoraqalpog'iston Respulicasi|42.832942|59.030075
Namangan shaxar PAB|160100|Namangan sh А.Тemur kochasi 54 uy|(69) 233-28-60|Namangan viloyati|40.999699|71.645267
3-son Namangan shaxar A/B|160103|Namangan sh Dustlik kochasi 3 uy|(69) 234-39-74|Namangan viloyati|41.0052752|71.6439804
4-son Namangan shaxar A/B|160104|Namangan sh Ohunboboev kochasi 3 uy||Namangan viloyati|41.0069763|71.6623773
5-son Namangan shaxar A/B|160105|Namangan sh Uychi kochasi|(69) 224-19-58|Namangan viloyati|41.007958|71.70226
6-son Namangan shaxar A/B|160106|Namangan sh Uychi kochasi||Namangan viloyati|40.987342|71.64351
7-son Namangan shaxar A/B|160107|Namangan sh kochasi 101 uy|(69) 239-10-12|Namangan viloyati|40.98847|71.690039
8-son Namangan shaxar A/B|160108|Namangan sh Navoiy kochasi 8 uy|(69) 233-18-24|Namangan viloyati|40.992767|71.664704
9-son Namangan shaxar A/B|160109|Namangan sh S.Adashev kochasi 1 uy|(69) 221-50-28|Namangan viloyati|41.015634|71.706476
11-son Namangan shaxar A/B|160111|Namangan sh Gala kochasi 57 uy|(69) 228-09-54|Namangan viloyati|40.983439|71.668308
12-son Namangan shaxar A/B|160112|Namangan sh S,Adashev kochasi, 158 uy|(69) 224-31-91|Namangan viloyati|41.012712|71.687607
14-son Namangan shaxar A/B|160114|Namangan sh, Jiydakapa ko'chasi||Namangan viloyati|40.999813|71.689378
15-son Namangan shaxar A/B|160115|Namangan sh Porloq MFY|(69) 232-81-25|Namangan viloyati|41.005573|71.600139
17-son Namangan shaxar A/B|160117|Namangan sh Elobod kochasi38 uy|(69) 232-13-06|Namangan viloyati|40.984434|71.61805
19-son Namangan shaxar A/B|160119|Namangan sh Qoqumboyshoh kochasi 1 uy|(69) 225-09-29|Namangan viloyati|41.032019|71.588391
20-son Namangan shaxar A/B|160120|Namangan sh Mumtozbegim kochasi 10 uy|(69) 228-07-23|Namangan viloyati|40.98329|71.661903
23-son Namangan shaxar A/B|160123|Namangan sh, Oromgoh dahasi||Namangan viloyati|41.025483|71.638779
27-son Namangan shaxar A/B|160127|Namangan sh Sportchilar kochasi 63 uy|(69) 224-84-45|Namangan viloyati|41.003499|71.590765
29-son Namangan shaxar A/B|160129|Namangan sh Uychi 205 uy|(69) 224-00-29|Namangan viloyati|41.010793|71.726911
30-son Namangan shaxar A/B|160130|Namangan sh 6 kichik nohiya Qoqumboy shoh kochasi|(69) 232-49-22|Namangan viloyati|40.997811|71.612793
34-son Namangan shaxar A/B|160134|Namangan sh K,Yormatov kochasi 1 uy|(69) 234-55-47|Namangan viloyati|41.02331|71.616954
36-son Namangan shaxar A/B|160136|Namangan sh Mashrab kochasi 1 uy|(69) 226-26-70|Namangan viloyati|41.002639|71.671521
37-son Namangan shaxar A/B|160137|Namangan sh , Chamanzor ko'chasi, 4-uy||Namangan viloyati|41.021502|71.657699
39-son Namangan shaxar A/B|160139|Namangan sh Orzu koteji|(94) 502-99-64|Namangan viloyati|41.023193|71.565099
41-son Namangan shaxar A/B|160141|Namangan sh Pahtalik kol kochasi 5 uy|(69) 224-61-23|Namangan viloyati|41.044121|71.684006
Yuqori rovuston A/B|160615|Namangan sh Y.Rovuston|(91) 180-05-15|Namangan viloyati|40.978305|71.592398
Mingbulok tuman PAB|160200|Jamashuy|69-45-21-7-81|Namangan viloyati|40.860089|71.462046
Gulbog A/B|160201|Gulbog MFY||Namangan viloyati|40.817454|71.167055
Dovduk A/B|160205|Dovduk MFY||Namangan viloyati|40.853049|71.548552
Ilgor A/B|160206|Ilgor MFY||Namangan viloyati|40.828699|71.329225
Kolgandaryo A/B|160207|Kolgandaryo MFY||Namangan viloyati|40.861443|71.355785
Korashaxar A/B|160208|Korashaxar MFY||Namangan viloyati|40.841177|71.273077
Mexnatobod A/B|160209|Mexnatobod MFY||Namangan viloyati|40.832368|71.408002
Uzgarish A/B|160211|Uzgarish MFY||Namangan viloyati|40.833063|71.480829
Kosonsoy PAB|160300|Kosonsoy shaxar A.Navoiy kucha 12-uy|69-65-21-495|Namangan viloyati|41.255157|71.544107
Olmazor A/B|160303|Kosonsoy tuman Korasuv mfy|69-65-36-616|Namangan viloyati|41.272617|71.596035
Guliston A/B|160304|Kosonsoy tuman Urtakucha mfy|69-65-22-092|Namangan viloyati|41.244252|71.527544
Isparon A/B|160305|Kosonsoy tuman Uzbekiston mfy|69-65-36-587|Namangan viloyati|41.227798|71.636117
Kukumboy A/B|160306|Kosonsoy tuman Kukumboy mfy|69-65-37-145|Namangan viloyati|41.113099|71.55865
Ravot A/B|160307|Kosonsoy tuman Ravot mfy||Namangan viloyati|41.188952|71.460402
Tagijar A/B|160308|Kosonsoy tuman Tagijar mfy|69-65-35-461|Namangan viloyati|41.19282|71.534952
Tergachi A/B|160309|Kosonsoy tuman Tergachi mfy|69-65-38-232|Namangan viloyati|41.164984|71.50661
Xudoyberdiev A/B|160310|Kosonsoy tuman, Yangiyul mfy||Namangan viloyati|41.10493|71.579497
Chindovul A/B|160311|Kosonsoy tuman shirinbulok mfy|69-65-42-185|Namangan viloyati|41.19019|71.507749
Norin A/B|160400|Norin tumani Beruniy rk 1 uy|69-612-21-00|Namangan viloyati|40.914875|72.120287
shoro A/B|160415|Norin tumani Yuksalish kochasi 2 uy||Namangan viloyati|40.922754|72.04748
Toshqin A/B|160411|Norin tumani Q,Qosimov 1 uy||Namangan viloyati|40.938967|71.973796
Tegirmon boshi A/B|160409|Norin tumani Guliston k 14 uy||Namangan viloyati|40.947609|72.124752
Xojobod A/B|160414|Norin tumani Yuksalish kochasi 4 uy||Namangan viloyati|40.929502|72.014014
Toda A/B|160410|Norin tumani , Shamsiddinov k 30uy||Namangan viloyati|40.942296|71.982891
Kattaolmas A/B|160401|Norin tumani Beruniy rk 14 uy||Namangan viloyati|40.896992|72.105718
Norinkapa A/B|160405|Norin tumani Fayzullahojaev k 2 uy||Namangan viloyati|40.927901|71.899087
Uchtepa A/B|160413|Norin tumani Billur k 21 uy||Namangan viloyati|40.933168|71.876309
Toshloq A/B|160412|Norin tumani Farovon k 2 uy||Namangan viloyati|40.922754|72.04748
Pop A/B|160500|Pap rayon, Ziyoratgox ko’chasi|69-43-32-263|Namangan viloyati|40.875276|71.10088
Uygursoy A/B|160516|Pap tumani, Uygursoy shaxarchasi|69-43-44-193|Namangan viloyati|40.924367|71.055822
Chorkesar A/B|160522|Pap tumani, Bunyotkor ko’chasi|95-303-91-30|Namangan viloyati|41.017357|70.889045
P-Tursun A/B|160510|Pap tumani, Imom ota ko’chasi|95-303-91-23|Namangan viloyati|41.068354|70.882091
Chig’anoq A/B|160520|Pap tumani, Istikllol kucha|95-303-91-22|Namangan viloyati|40.858343|71.151489
Iskavut A/B|160508|Pap tumani, Istikbol kucha|69-43-27-008|Namangan viloyati|40.89826|71.14581
Xalqabod A/B|160517|Pap tumani, Bog kucha|69-43-51-369|Namangan viloyati|40.870082|71.155722
Xodjabod A/B|160519|Pap tumani, Mustakillik kucha|69-43-45-731|Namangan viloyati|40.858343|71.151489
Sang A/B|160512|Pap tumani, Bog kucha|69-43-41-188|Namangan viloyati|40.863491|71.187109
Uyg’ur A/B|160515|Pap tumani, A Temur kucha|69-43-43-109|Namangan viloyati|40.861846|71.057181
Yangiobod A/B|160524|Pap tumani, Sayxun kucha|95-303-91-64|Namangan viloyati|40.83095|71.002682
G’urumsaroy A/B|160507|Pap tumani, Kamalak kucha|69-43-21-545|Namangan viloyati|40.798846|70.931247
Pungon A/B|160511|Pap tumani, Namangan kucha|95-303-56-23|Namangan viloyati|40.74075|70.828489
Xonabod A/B|160518|Pap tumani, Uzbekiston kucha|95-303-97-28|Namangan viloyati|40.878534|70.787623
Chodak A/B|160521|Pap tumani, Istiklol ko’chasi|69-43-56-339|Namangan viloyati|40.938922|70.773578
Toshbuloq PAB|160600|Toshbulok sh ulitsa Mustakillik D index 5-uy|69-47-21-600|Namangan viloyati|40.928059|71.594278
Xonobod A/B|160611|Xonobod maxallasi Yangi yol kochasi 45 uy|net|Namangan viloyati|40.957387|71.625661
Mirishkor A/B|160608|Mirishkor maxalla dustlik kochasi Dindex53|69-47-28-159|Namangan viloyati|40.956388|71.562319
Xujakishlok A/B|160612|Xujakishlak maxalla kochasi Maskan 36-dom|йук|Namangan viloyati|40.925205|71.571471
Tepakurgon A/B|160610|Tepakurgan maxalla kochasi Buston dindex132|69-47-22-500|Namangan viloyati|40.899012|71.563221
Beshkapa A/B|160601|Beshkapa maxalla kochasi BeshkapaDindex1|95-303-97-31|Namangan viloyati|40.903166|71.678312
shurkurgon A/B|160614|shurkurgon maxalla kochasi Zamin Dindex56|69-47-27-534|Namangan viloyati|40.927132|71.727913
Bogishamol A/B|160602|Bogishamol maxalla kochasi G’Ipak ykochasii Dindex65|303-97-26|Namangan viloyati|40.966021|71.754495
Galcha A/B|160603|Galcha maxalla kochasi KurkamDindex63|net|Namangan viloyati|40.95338|71.672914
PAB|160700|Toraqorgon tuman, Toraqorgon kocha 23-uy|69-44-22-681|Namangan viloyati|41.006809|71.508808
Toraqorgon-2 tumani A/B|160702|Toraqorgon tuman, sharq MFY|69-44-21-485|Namangan viloyati|41.000776|71.516191
Bekobod A/B|160704|Toraqorgon tuman, Bekobod MFY|69-44-22-115|Namangan viloyati|41.006322|71.508866
Yortepa A/B|160708|Toraqorgon tuman, Yortepa MFY|69-44-46-300|Namangan viloyati|41.053113|71.485515
Toraqorgon-1 A/B|160701|Toraqorgon tuman, Toshkent MFY|69-44-22-132|Namangan viloyati|41.000086|71.494561
Oqtosh A/B|160713|Toraqorgon tuman, Oqtosh sh FY|69-44-41-115|Namangan viloyati|40.94238|71.499605
Qatagon A/B|160710|Toraqorgon tuman, Ozbekiston MFY|69-44-44-155|Namangan viloyati|40.899316|71.513525
Dukat A/B|160707|Toraqorgon tuman, Dukat MFY|69-44-43-144|Namangan viloyati|40.908094|71.469644
Buramatut A/B|160705|Toraqorgon tuman, Buramatut MFY|69-44-42-111|Namangan viloyati|40.926133|71.445512
Gulqishloq A/B|160706|Toraqorgon tuman, Gulqishloq MFY||Namangan viloyati|40.89296|71.443146
Xojand A/B|160708|Toraqorgon tuman, Xojand MFY||Namangan viloyati|40.921327|71.409108
Sohilobod A/B|160716|Toraqorgon tuman, Sohilobod MFY||Namangan viloyati|40.909693|71.373507
Langarbobo A/B|160712|Toraqorgon tuman, Langarbobo MFY||Namangan viloyati|40.93994|71.424915
Katta Qorgoncha A/B|160711|Toraqorgon tuman, Katta Qorgoncha MFY||Namangan viloyati|40.9548|71.441646
Uychi PAB|160800|Uychi sharcha A Temur k 62uy|(69)48-21-195|Namangan viloyati|41.029579|71.852543
Uychi 1 A/B|160801|Uychi tumani Navoiy MFY, Furkat kucha 6uy|997299505|Namangan viloyati|41.025792|71.846361
Uychi 2 A/B|160802|Uychi tumani shifokor MFY, shifokor kucha|941517191|Namangan viloyati|41.030278|71.844132
Ahsi A/B|160803|Uychi tumani shaftoli MFY Ravnaq kuchasi|930501963|Namangan viloyati|40.974703|71.84298
G'ayrat A/B|160805|Uychi tumani G'ayrat MFY A Temur ko'cha||Namangan viloyati|41.059345|71.900049
Yorkurgan A/B|160807|Uychi tumani Tepasaroy MFY A Temur kucha|939162569|Namangan viloyati|41.010705|71.818091
Jiydakapa A/B|160808|Uychi tumani Dexqon MFY Novvoy kucha uy 18|941765588|Namangan viloyati|40.950307|71.801208
Kizilrovot A/B|160809|Uychi tumani Xojiobod MFY Maktab kucha 9uy|949021973|Namangan viloyati|41.085949|72.004676
Tepasaroy A/B|160812|Uychi tumani Tepasaroy MFY A Temur kucha 14uy|931764252|Namangan viloyati|41.026902|71.821802
Unxayot A/B|160813|Uychi numani Istiqlol MFY Unxayot kucha|941566461|Namangan viloyati|41.014726|71.760913
Xizirobod A/B|160815|Uychi tumani Xizirobod MFY A Temur kucha 8 uy|993902505|Namangan viloyati|41.077425|71.968905
Uchkurgon PAB|160900|Uchkurgan tumani, Dustlik kucha 5 uy|69-462-37-71|Namangan viloyati|41.115357|72.083255
Yangier A/B|160913|Uchkurgan tumani, Yangier kucha||Namangan viloyati|41.119779|72.118582
Qurgoncha A/B|160909|Uchkurgan tumani, Ochilov kucha||Namangan viloyati|41.067434|72.171411
qugay A/B|160908|Uchkurgan tumani, C.Usmanova kucha|69-463-13-79|Namangan viloyati|41.014726|72.098861
Yangiobod A/B|160914|Uchkurgan tumani, Turakurgan kucha||Namangan viloyati|40.974865|72.157647
shahrixonchek A/B|160912|Uchkurgan tumani, Galaba kucha||Namangan viloyati|40.98881|72.099337
Kattamogol A/B|160906|Uchkurgan tumani, Istiqlol kucha||Namangan viloyati|41.035556|72.071748
Qayqi A/B|160905|Uchkurgan tumani, Qayqi kucha|69-464-13-78|Namangan viloyati|41.058881|72.020687
Kozokovul A/B|160907|Uchkurgan tumani, Sotvoldi kucha||Namangan viloyati|41.018611|71.985004
Uchkuprik A/B|160910|Uchkurgan tumani, Qushkuprik kucha||Namangan viloyati|41.094676|72.097446
Chortoq PAB|161000|Сhortoq tumani, Istiqlol kucha 24 uy|69-412-36-60|Namangan viloyati|41.077091|71.81509
Chortoq-1 A/B|161001|Сhortoq tumani, shodlik kucha 8 uy||Namangan viloyati|41.072311|71.821795
Chortoq-2 A/B|161002|Сhortoq tumani, Dildosh kucha 7 uy||Namangan viloyati|41.082959|71.796197
Chortoq-3 A/B|161003|Сhortoq tumani,Uglonlar kucha 3 uy||Namangan viloyati|41.082|71.825147
Koroskon-2 A/B|161008|Сhortoq tumani, S.Said kucha 8 uy|69-412-74-07|Namangan viloyati|41.055201|71.829088
Oyqiron A/B|161012|Сhortoq tumani, Oyqiron kucha 70 uy|69-412-53-64|Namangan viloyati|41.07206|71.795294
Kushon A/B|161010|Сhortoq tumani, Yangiqurgon kucha 14 uy||Namangan viloyati|41.1355716|71.757086
Qorabog A/B|161009|Сhortoq tumani, Mehmondust kucha 2 uy||Namangan viloyati|41.167677|71.81103
Alihon A/B|161005|Сhortoq tumani, Tinchlik kucha 30 uy||Namangan viloyati|41.229237|71.828712
Peshqorgon A/B|161013|Сhortoq tumani, Mustaqillik kucha 30 uy||Namangan viloyati|41.289517|71.837673
Baliqkol A/B|161006|Сhortoq tumani, Oq tepa kucha 5 uy||Namangan viloyati|41.329353|71.836131
Hazratishoh A/B|161015|Сhortoq tumani, Bogi Eram kucha 2 uy||Namangan viloyati|41.395012|71.787049
Yangiqorgon tuman PAB|161200|Yangiqo'rgon tuman Namangan ko'cha 2 uy|69-632-17-78|Namangan viloyati|41.190936|71.725183
Rout A/B|161213|Rout m f y Namangan ko'cha|95-303-91-90|Namangan viloyati|41.063565|71.671414
Qorapolvon A/B|161207|Qorapolvon m f y yangiqo'rgon ko'cha|69-632-13-05|Namangan viloyati|41.135459|71.691445
shurkent A/B|161217|Gulshan mfy Kanda ko'cha|69-633-65-18|Namangan viloyati|41.239034|71.768383
Bekabod A/B|161201|Sohil mfy Gulzor ko'cha 12 uy|69-633-05-86|Namangan viloyati|41.27856|71.798889
Navkent A/B|161211|Pastki Navkent mfy zarkent ko'cha|69-633-42-81|Namangan viloyati|41.207985|71.706745
Iskavot A/B|161205|Galaba mfy mashal ko'cha 1 uy|69-633-52-78|Namangan viloyati|41.30302|71.681411
Hodikent A/B|161215|Hodikent mfy|-|Namangan viloyati|41.360063|71.695979
Zarkent A/B|161204|Madaniyat mfy T.Hasanov ko'cha|69-633-21-50|Namangan viloyati|41.407527|71.681156
Mamay A/B|161209|Mamay m f y|69-634-14-54|Namangan viloyati|41.438577|71.691141
Kukyor A/B|161208|Sohibkor mfy 2 uy|69-633-14-37|Namangan viloyati|41.489664|71.691051
Chust markaz PAB|161100|Charogon kocha|69- 42 -31 -160|Namangan viloyati|40.99889|71.232286
Ahcha A/B|161109|Obihayot kocha||Namangan viloyati|40.988106|71.045747
Baymoq A/B|161110|Bunyodkor kocha|95-303-91-38|Namangan viloyati|41.068613|71.331493
оgasaro A/B|161115|Eraliyev kocha||Namangan viloyati|41.072138|71.148185
Varzik A/B|161111|Uchqun kocha||Namangan viloyati|41.118281|71.245899
Karkidon A/B|161113|Tinchlik kocha||Namangan viloyati|41.077794|71.204443
Karnon A/B|161114|Markaziy kocha||Namangan viloyati|41.040845|71.191829
Gova A/B|161112|Chust yuli kocha||Namangan viloyati|41.13251|71.117822
Chust-3 A/B|161103|Muqumiy kocha||Namangan viloyati|41.005969|71.228401
Chust-5 A/B|161105|Olmos kocha||Namangan viloyati|41.003904|71.217743
Tepaqorgon A/B|161118|Anorzor kocha||Namangan viloyati|41.023902|71.255861
Sarimsoqtepa A/B|161117|Guzar kocha||Namangan viloyati|40.971321|71.228937
Chust A/B|161108|Norin tumani, Norinkapa MFY, Fayzullahojaev ko'chasi, 1-uy||Namangan viloyati|40.883903|71.241223
Olmos A/B|161116|Chust tumani, Muchoqtepa MFY, Mustaqillik ko'chasi||Namangan viloyati|41.008505|71.090917
Boyovut PAB|120200|Boevut tumani, Boevut shahri, Furkata kochasi, 26-uy|67-390-13-42|Sirdaryo viloyati|40.27787|69.019809
shirin-1 A/B|120219|shirin sh, Amur Temur kochasi||Sirdaryo viloyati|40.224555|69.130393
Bayavut-1 A/B|120201|markaziy MFU||Sirdaryo viloyati|40.433|69.068695
Guliston A/B|120204|Anarzor Mfa Al Buxoriy kochasi||Sirdaryo viloyati|40.27787|69.019809
Dehqonobod A/B|120205|Dehqonobod MFY||Sirdaryo viloyati|40.442979|68.784084
dostlik A/B|120208|Kamalak kochasi||Sirdaryo viloyati|40.430159|68.932657
dostlik-1 A/B|120207|Sohibqiron kochasi||Sirdaryo viloyati|40.293402|68.830578
Latipov A/B|120209|Murabbiylar kochasi||Sirdaryo viloyati|40.264778|69.099345
Navoiy A/B|120211|shox kochasi||Sirdaryo viloyati|40.294418|69.057727
Sobirobod A/B|120212|Sobirobod MFY||Sirdaryo viloyati|40.290823|69.028256
Tarakkiyot A/B|120213|olmos mfu kochasi Umar Xayom||Sirdaryo viloyati|40.27787|69.019809
Ozbekiston A/B|120215|Yoldosh kochasi||Sirdaryo viloyati|40.421415|68.998718
Usmonobod A/B|120216|Usmonobod MFYa||Sirdaryo viloyati|40.27787|69.019809
Farhod-2 A/B|120217|Furqat kochasi||Sirdaryo viloyati|40.26945|69.015485
Chashma A/B|120218|Bahorgi IFG||Sirdaryo viloyati|40.387212|69.045445
Farhod TPAB|120700|hovosskiy tumani, Gulbaxor MFYu, koch. Fidokor, 1||Sirdaryo viloyati|40.243655|68.895633
Bobur A/B|120703|xovoss tumani, Soxibkor mahallasi, Gulobod kochasi|95-510-29-17|Sirdaryo viloyati|40.232827|69.000226
Guzal A/B|120704|Xovot tumani, Mustaqillik mfu, Nurafshon kochasi||Sirdaryo viloyati|40.248065|68.743639
Zafarobod A/B|120705|Xovost tumani Yangier MFY Mirishkor kochasi||Sirdaryo viloyati|40.290735|68.782243
Paxtakor A/B|120707|Xovost tumani Oqchangal MFY Zomin kochasi||Sirdaryo viloyati|40.243655|68.895633
Mehnatobod A/B|120706|Xovskiy tumani, Gusuniobod tumani, Bainminal kochasi||Sirdaryo viloyati|40.297434|68.556553
Chamanzor A/B|120710|Xovskiy tumani Daston MFU Targibot kochasi||Sirdaryo viloyati|40.297434|68.556553
Yangier-Govos 11 A/B|120711|St. Al-Buxoriy 55, Ovos|95-510-01-47|Sirdaryo viloyati|40.215155|68.839814
Yangier A/B|121000|Yangiyer, Yangi asr kochasi 18 uy|67-350-62-25|Sirdaryo viloyati|40.269363|68.815025
Paxtaobod PAB|120800|Sardobin tumani, Oyqor kochasi 13-uy|67-344-13-40|Sirdaryo viloyati|40.343646|68.183509
A.Navoiy A/B|120804|hududidagi dostlik MFY||Sirdaryo viloyati|40.39276|68.3893
Qorgontepa A/B|120803|Rovot MFYU Karvon Yuli kochasi||Sirdaryo viloyati|40.301248|68.415779
Gul A/B|120801|Birlik mfa baxmal kochasi||Sirdaryo viloyati|40.431706|68.27377
Yangi qishloq A/B|120806|Yangi aholi punkti, Jarqorgon kochasi, 43-uy||Sirdaryo viloyati|40.35561|68.257339
Yangiobod A/B|120807|Paxtakor mfy tinchlik sevar kochasi, 3 uy||Sirdaryo viloyati|40.270528|68.27327
Sirdaryo PAB|120600|Sirdaryo, Ozbekiston kochasi 131|67-377-12-46|Sirdaryo viloyati|40.833817|68.664617
Sirdaryo -2 A/B|120602|Sirdaryo, Ozbekiston kochasi, 317|95-510-29-10|Sirdaryo viloyati|40.848495|68.659699
Sirdaryo 3 A/B|120603|Sirdaryo shahri Zardevor 5 bosh sigir||Sirdaryo viloyati|40.829935|68.668961
Bahor A/B|120609|Sirdaryo, Dostlik mahallasi||Sirdaryo viloyati|40.82942|68.672881
Baxt A/B|120606|Baxt shahrining Mahalla Dostlik||Sirdaryo viloyati|40.715611|68.695926
Malek A/B|120610|Sirdaryo viloyati Intellish mfy||Sirdaryo viloyati|40.783364|68.638764
Sindarobod A/B|120613|Sirdaryo tumani, Kushinskiy tumani||Sirdaryo viloyati|40.84028|68.587871
Ozbekiston A/B|120614|Navoiy MFYning Sirdaryo tumani||Sirdaryo viloyati|40.63694|68.70833
Chultakay A/B|120615|Islomobod viloyati Sirdaryo viloyati||Sirdaryo viloyati|40.77053|68.682088
Yangi hayot A/B|120617|Sirdaryo tumani, Orzu mahallasi||Sirdaryo viloyati|40.705464|68.684721
Guliston TPAB|120100|Goleston, st. I. Karimov, 45 yosh|67-225-28-55|Sirdaryo viloyati|40.496552|68.777453
Guliston -1 A/B|120101|Guliston Ulug Yol MFY||Sirdaryo viloyati|40.491438|68.755401
Guliston-2 A/B|120102|Guliston Ulugobod MFY||Sirdaryo viloyati|40.533817|68.761527
Guliston-3 A/B|120103|3-mikrorayon 2-uy 1 hovli.||Sirdaryo viloyati|40.510916|68.772139
Guliston-5 A/B|120105|Goleston Siti 4 ta sayt||Sirdaryo viloyati|40.516836|68.775009
Dehqonobod A/B|120300|Guliston tumani, Dehqobod shahri, Ziyokor kochasi, 70-uy|95-510-01-69|Sirdaryo viloyati|40.49707|68.773152
Beshbuloq A/B|120301|Beshbuloq qishloq sh Kengashi Mingchinor kochasi||Sirdaryo viloyati|40.592639|69.011558
Zarbdor A/B|120302|Guliston tumani, Zaribdor MFY kochasi Alpomish, 16 yosh||Sirdaryo viloyati|40.514313|68.811795
Furqat A/B|120303|Mahalla Furqat, Komillik kochasi, 1-bino||Sirdaryo viloyati|40.473081|69.052434
Ozod A/B|120305|Guliston tumani, Yoshlik kochasi, 1-bino||Sirdaryo viloyati|40.488722|68.872186
Оltin tepa A/B|120306|Guliston tumani xamkor, kuchasi Oltin tepa MFY||Sirdaryo viloyati|40.448325|69.078975
Qizilobod A/B|120304|Guliston tumani Chortoq QFY Xalqaobod MFY||Sirdaryo viloyati|40.562886|68.921542
U. Nosir A/B|120308|Guliston tumani, Behizor kochasi||Sirdaryo viloyati|40.482666|68.947914
H. Olimjon A/B|120309|Guliston Tum Tayribakor kochasi 2-bino||Sirdaryo viloyati|40.591658|68.737758
Yangiobod PAB|120900|Yangiobod tumani, Mustaqillik kochasi, 4-uy|67-310-14-65|Sirdaryo viloyati|40.496266|68.703109
dostlik A/B|120904|Mahalla dostligi||Sirdaryo viloyati|40.578079|68.737789
Ittifoq A/B|120905|Yangixayot mahallasi||Sirdaryo viloyati|40.378831|68.782785
Mirzachul A/B|120907|Mirzachul mahallasi||Sirdaryo viloyati|40.499816|68.564501
Yoldoshev A/B|120912|Yoldoshobod MFY st. Baxmal||Sirdaryo viloyati|40.37081|68.664873
Mexnatabod A/B|120906|Tinchlik kochasi 1- uy||Sirdaryo viloyati|40.56756|68.660518
Nanbahor A/B|120909|Navbahor MFY||Sirdaryo viloyati|40.409758|68.477946
Sardoba A/B|120500|Ok Oltin Tumani Navoiy shoh kochasi||Sirdaryo viloyati|40.540978|68.409227
Andijon A/B|120501|Boqiston kochasi, Oq-Oltin tumani, Andijon mahallasi||Sirdaryo viloyati|40.608998|68.243638
Barlos A/B|120502|shodlik MFY Oq oltin tuman||Sirdaryo viloyati|40.504468|68.510792
Galaba A/B|120504|Turkiston kochasi 18, Axillik fermasi, Oq oltin kvartali||Sirdaryo viloyati|40.495188|68.317674
Fargona A/B|120505|St. Xalqaobod, 21, Fargona sh, Obod qishloq fuqarolar kengashi, Oqolta viloyati||Sirdaryo viloyati|40.540978|68.409227
Navbahor A/B|120909|Mirzaobod tumani, Navbahor MFY||Sirdaryo viloyati|40.409758|68.477946
Sayxunobod PAB|120400|Sayxunobod viloyati, Sayxun shahri, A. Navoiy kochasi, 56-uy|95-510-01-73|Sirdaryo viloyati|40.708191|68.836552
Birlashgan A/B|120401|Nurobod MFY st. A. Navoiy||Sirdaryo viloyati|40.725072|68.84773
zarbdor A/B|120404|St. Terakzor, Guliston MFY||Sirdaryo viloyati|40.621695|68.903678
Ittifoq A/B|120406|Dostlik MFY st. Chorboga||Sirdaryo viloyati|40.739055|68.813877
Nurota A/B|120407|Paxtaobod MFY kochasi Anoli||Sirdaryo viloyati|40.727723|68.773022
Ozbekiston A/B|120410|Payvad MFY Imkoniyatlar kochasi||Sirdaryo viloyati|40.654346|68.730121
Sh.Rahimov A/B|120411|Tire MFY Fitrat kochasi, 13-uy||Sirdaryo viloyati|40.699153|68.802571
shuruzak A/B|120412|Baxmal soy IMF st. Sulaymonga sayohat||Sirdaryo viloyati|40.623597|68.823348
Yangi hayot A/B|120413|Yangi hayot MFY st. Archazor||Sirdaryo viloyati|40.59712|69.011934
Uzun PAB|191100|Uzun tuman Bohoriston MFY||Surxandaryo viloyati|38.364502677784|68.006822702223
Termiz GPAB|190100|||Surxandaryo viloyati|37.225807368868|67.273194847377
Angor PAB|190200|||Surxandaryo viloyati|37.46294|67.147293303
Bandixon PAB|190300|||Surxandaryo viloyati|37.85771|67.38742
Baysun PAB|190400|||Surxandaryo viloyati|38.21081|67.20612
Denov PAB|190500||76-41-33-135|Surxandaryo viloyati|38.273844684231|67.906632856432
Jarkurgon PAB|190600||76-43-22-220|Surxandaryo viloyati|37.630847709302|67.512489038442
Korlik PAB|190700||76-47-75-672|Surxandaryo viloyati|38.169702112843|67.738626399479
Qiziriq PAB|190800||76-35-91-326|Surxandaryo viloyati|37.679424780379|67.240066513224
Kumkurgon PAB|190900|||Surxandaryo viloyati|37.834980185276|67.596867218073
Sariosiyo PAB|191000|||Surxandaryo viloyati|38.412302084055|67.957857836357
Uchkizil PAB|191200|||Surxandaryo viloyati|37.424553081044|67.162850218023
Xalqobod PAB|191300|||Surxandaryo viloyati|37.459352087333|66.92376644921
SHerobod PAB|191400||76-32-21-272|Surxandaryo viloyati|37.669936229534|67.021778535625
Shurchi PAB|191500||76-45-74-690|Surxandaryo viloyati|37.996079828658|67.789366238788
Yаngiruzgor A/B|191114|Uzun tuman Yngiruzgor MFY||Surxandaryo viloyati|38.365022057301|68.005459857377
Dustlik A/B|191105|Uzun tuman Dustlik MFY||Surxandaryo viloyati|38.419152350707|68.040852788319
Yаngikuch A/B|191113|Uzun tuman Dustlik MFY||Surxandaryo viloyati|38.372956076238|68.037500262574
Jonchekka A/B|191104|Uzun tuman jonchekka MFY||Surxandaryo viloyati|38.346048190864|68.069999510283
Serharakat A/B|191108|Uzun tuman Serharakat MFY||Surxandaryo viloyati|38.285678963928|68.009057288348
Fayzova A/B|191110|Uzun tumanFayzova MFY||Surxandaryo viloyati|38.208238575509|67.964741823255
Bobotog A/B|191103|Uzun tuman Bobotog MFY||Surxandaryo viloyati|38.059655279581|68.332927286372
Хursand A/B|191111|Uzun tuman Xyrcand MFY||Surxandaryo viloyati|38.115656288764|67.923780361291
Ulankul A/B|191109|Uzun tuman Ulankul MFY||Surxandaryo viloyati|38.231111775175|67.978658498734
Chakar A/B|191112|Uzun tuman Chakar MFY||Surxandaryo viloyati|38.388014524032|68.103012032088
Kurgoncha A/B|191107|Uzun tuman Kurgoncha MFY||Surxandaryo viloyati|38.391684752348|68.065413833331
Karashik A/B|191106|Uzun tuman Karashik MFY||Surxandaryo viloyati|38.401322905481|68.025864863419
Uzun-2 A/B|191102|Uzun tuman Uzun-2 MFY||Surxandaryo viloyati|38.371088345196|67.993718289834
Sariosiyo PAB|191000|Sariosiyo tumani A.Navoiy MFY||Surxandaryo viloyati|38.412302084055|67.957857836357
Tortuvli A/B|191015|Sariosiyo tumani Nurobod MFY||Surxandaryo viloyati|38.415674357617|67.908465446635
Farxod A/B|191016|Sariosiyo tumani Bogiobod MFY||Surxandaryo viloyati|38.44862|67.893193472
Sangardak A/B|191011|Sariosiyo tumani Sangardak MFY||Surxandaryo viloyati|38.55165|67.530583467
Galaba A/B|191007|Sariosiyo tumani Dustlik MFY||Surxandaryo viloyati|38.457407388651|67.9152420706
Tokchiyon A/B|191014|Sariosiyo tumani A.naoiyg MFY||Surxandaryo viloyati|38.45883|67.96806
Dashnobod A/B|191008|Sariosiyo tumani Kelajak sari MFY||Surxandaryo viloyati|38.5121|68.03488
Telpakchinor A/B|191013|Sariosiyo tumani Yokutli bog MFY||Surxandaryo viloyati|38.4342|67.99076
Sufiyon A/B|191012|Sariosiyo tumani A.naoiyg MFY||Surxandaryo viloyati|38.4139|67.95926
Buston A/B|191005|Sariosiyo tumani A.naoiyg MFY||Surxandaryo viloyati|38.44851|68.06938
Sariosiyo-1 A/B|191001|Sariosiyo tumani A.naoiyg MFY||Surxandaryo viloyati|38.40435|67.96358
sharg'un A/B|191019|Sariosiyo tumani shargun MFY||Surxandaryo viloyati|38.47198|67.96544
Denov PAB|190500|Denov tumani Yangixayot MFY||Surxandaryo viloyati|38.273844684231|67.906632856432
Denov-4 A/B|190504|Denov tumani Sufiy Alloxyor MFY||Surxandaryo viloyati|38.26803|67.89928
Denov-6 A/B|190506|Denov tumani Guliston MFY||Surxandaryo viloyati|38.28603|67.89439
Yangi Xazarbog A/B|190525|Denov tumani Yangi xazarbog MFY||Surxandaryo viloyati|38.20613|67.84458
Katta karshi A/B|190512|Denov tumani Minora MFY||Surxandaryo viloyati|38.36568|67.90782
Yangiobod A/B|190526|Denov tumani Yangi arik MFY||Surxandaryo viloyati|38.22239|67.9137
Potos A/B|190519|Denov tumani Urta kishlok MFY||Surxandaryo viloyati|38.28803|67.83101
Xayrobod A/B|190522|Denov tumani Bogi erom MFY||Surxandaryo viloyati|38.1748|67.89224
Kizil tulin A/B|190514|Denov tumani Bogi shamol MFY||Surxandaryo viloyati|38.31708|67.90321
Kizil gul A/B|190513|Denov tumani Kizil gul MFY||Surxandaryo viloyati|38.27352|67.94598
Ilonsoy A/B|190511|Denov tumani Kiziljar MFY||Surxandaryo viloyati|38.33305128226|67.866341548317
Sina A/B|190520|Denov tumani Fayzobod MFY||Surxandaryo viloyati|38.36251|67.69235
Xolchiyon A/B|190523|Denov tumani Mukumiy MFY||Surxandaryo viloyati|38.32321|67.97043
Korlik PAB|190700|Oltinsoy tumani Buston MFY||Surxandaryo viloyati|38.169702112843|67.738626399479
Katta Vaxshivor A/B|190703|Oltinsoy tumani Vaxshivor-1 MFY||Surxandaryo viloyati|38.3323|67.62555
Jindibulok A/B|190702|Oltinsoy tumani Jindibulok MFY||Surxandaryo viloyati|38.12373|67.72495
Romkombinat A/B|190706|Oltinsoy tumani Muminkul MFY||Surxandaryo viloyati|38.200805315733|67.794080463417
Sayrak A/B|190707|Oltinsoy tumani Jobu-1 MFY||Surxandaryo viloyati|38.192981522168|67.688095391172
Ok oltin A/B|190705|Oltinsoy tumani Xalkobod MFY||Surxandaryo viloyati|38.10826|67.67849
Chep A/B|190710|Oltinsoy tumani Chep MFY||Surxandaryo viloyati|38.190758715233|67.730131541232
Xujasoat A/B|190709|Oltinsoy tumani Тогaymurot MFY||Surxandaryo viloyati|38.2439228478|67.707554611258
Mirshadi A/B|190704|Oltinsoy tumani Mustakillik 10 yilligi MFY||Surxandaryo viloyati|38.09809|67.66326
Chinor A/B|190711|Oltinsoy tumani Chinor MFY||Surxandaryo viloyati|38.270786678441|67.647673830264
shurchi PAB|191500|shurchi tumani Navruz MFY||Surxandaryo viloyati|37.996079828658|67.789366238788
shurchi-1 A/B|191501|shurchi tumani Bobur MFY||Surxandaryo viloyati|38.02006|67.78486
shurchi-2 A/B|191502|shurchi tumani Xayrobod MFY||Surxandaryo viloyati|38.009066188221|67.790913053164
Dalbarzin A/B|191505|shurchi tumani Egarchi MFY||Surxandaryo viloyati|38.07062|67.84561
Kultepa A/B|191507|shurchi tumani Tamaddun MFY||Surxandaryo viloyati|38.04475|67.84909
Sovur A/B|191510|shurchi tumani Yeshgayrat MFY||Surxandaryo viloyati|37.97399|67.79024
Xushchekka A/B|191511|shurchi tumani Xushchekka MFY||Surxandaryo viloyati|37.97592|67.81798
08.Mar A/B|191503|shurchi tumani Xurlik MFY||Surxandaryo viloyati|37.97248|67.74146
Yalti A/B|191514|shurchi tumani Yalti MFY||Surxandaryo viloyati|38.1212|67.79134
Yangibozar A/B|191515|shurchi tumani Jarkishlok MFY||Surxandaryo viloyati|37.99028|67.81221
Kumkurgon PAB|190900|Kumkurgon tumani Oktom MFY||Surxandaryo viloyati|37.834980185276|67.596867218073
Yeshgayrat A/B|190905|Kumkurgon tumani Tugon MFY||Surxandaryo viloyati|37.837639647801|67.605294322108
Kumkurgon-2 A/B|190901|Kumkurgon tumani Bogara MFY||Surxandaryo viloyati|37.839646046846|67.588343714557
Yangier A/B|190916|Kumkurgon tumani Yangier MFY||Surxandaryo viloyati|37.82825|67.6116
Jaloir A/B|190906|Kumkurgon tumani Jaloir MFY||Surxandaryo viloyati|37.758839983201|67.553396021802
Yukori Kakaydi A/B|190915|Kumkurgon tumani Arslonboyli MFY||Surxandaryo viloyati|37.75383|67.52803
Uzbekiston A/B|190913|Kumkurgon tumani Chukirli MFY||Surxandaryo viloyati|38.015759080408|67.572287692321
Kucharsoy A/B|190911|Kumkurgon tumani Munchoktepa MFY||Surxandaryo viloyati|37.87834|67.63172
Jarkurgon PAB|190600|Jarkurgon tumani Surxon soxili MFY||Surxandaryo viloyati|37.630847709302|67.512489038442
Paxtaobod A/B|190615|Jarkurgon tumani Yoshlik MFY||Surxandaryo viloyati|37.536986227653|67.475974588609
Minor A/B|190613|Jarkurgon tumani Loykand MFY||Surxandaryo viloyati|37.47892|67.38092
shark A/B|190618|Jarkurgon tumani Yangi usul MFY||Surxandaryo viloyati|37.571367793397|67.497506947961
Zang A/B|190607|Jarkurgon tumani A.Navoiy MFY||Surxandaryo viloyati|37.48142|67.40906
Otepa A/B|190606|Jarkurgon tumani Gur-gur MFY||Surxandaryo viloyati|37.431735563055|67.450431897216
Surxon A/B|190616|Jarkurgon tumani Xujakishlok MFY||Surxandaryo viloyati|37.71173|67.50202
Madaniyat A/B|190611|Jarkurgon tumani Eskikishlok MFY||Surxandaryo viloyati|37.60516|67.45498
Okkurgon A/B|190614|Jarkurgon tumani Korakursok MFY||Surxandaryo viloyati|37.53939|67.43336
Jarkurgon-3 A/B|190603|Jarkurgon tumani Paxtazavod MFY||Surxandaryo viloyati|37.49481|67.40537
Ismoiltepa A/B|190608|Jarkurgon tumani Nurli-Diyor MFY||Surxandaryo viloyati|37.49574207122|67.444475068525
Boysun PAB|190400|Boysun tumani Tuzbozor MFY||Surxandaryo viloyati|38.21081|67.20612
Avlod A/B|190402|Boysun tumani Xunarmandlar MFY||Surxandaryo viloyati|38.23786|67.1891
Pasurxi A/B|190411|Boysun tumani Pasurxi MFY||Surxandaryo viloyati|38.20965|67.19292
Dashtigoz A/B|190405|Boysun tumani Dashtigoz MFY||Surxandaryo viloyati|38.15137|67.3185
Sayrob A/B|190414|Boysun tumani Kushchinor MFY||Surxandaryo viloyati|38.07632|66.96869
Darband A/B|190404|Boysun tumani Temirdarvoza MFY||Surxandaryo viloyati|38.20237|67.01328
Machay A/B|190410|Boysun tumani Yukori Machay MFY||Surxandaryo viloyati|38.34089|67.0852
Dugoba A/B|190406|Boysun tumani Kurgoncha MFY||Surxandaryo viloyati|38.31076|67.3861
Bandixon PAB|190300|Bandixon tumaniBandixon MFY||Surxandaryo viloyati|37.85771|67.38742
Qiziriq A/B|190301|Bandixon tumani Birdamlik MFY||Surxandaryo viloyati|37.80933|67.31183
Olmazor A/B|190302|Bandixon tumani Gulbog MFY||Surxandaryo viloyati|37.80941|67.31164
Kizirik PAB|190800|Kizirik tumani shodlik MFY||Surxandaryo viloyati|37.679424780379|67.240066513224
Gilambob A/B|190806|Kizirik tumani Istiklol MFY||Surxandaryo viloyati|37.63641|67.26072
Yakkaterak A/B|190811|Kizirik tumani Yakkaterak MFY||Surxandaryo viloyati|37.73155|67.35027
Takiya A/B|190809|Kizirik tumani Zarbdor MFY||Surxandaryo viloyati|37.58205|67.19712
Istara A/B|190807|Kizirik tumani Istara MFY||Surxandaryo viloyati|37.74043|67.30123
Kizirik-2 A/B|190802|Kizirik tumani Rabatak MFY||Surxandaryo viloyati|37.76129|67.4066
sherobod PAB|191400|sherobod tumani Buyuk ipak yuli MFY||Surxandaryo viloyati|37.669936229534|67.021778535625
sherobod-1 A/B|191401|sherobod tumani Baxor MFY||Surxandaryo viloyati|37.6638939804|67.00318441925
Okkurgon A/B|191410|sherobod tumani Gambur MFY||Surxandaryo viloyati|37.65362|67.01955
Paxtaobod A/B|191411|sherobod tumani Xujakiya-1 MFY||Surxandaryo viloyati|37.60178|66.92907
Seplon A/B|191414|sherobod tumani Majnuntol MFY||Surxandaryo viloyati|37.695230153866|67.041146966376
Istara A/B|191407|sherobod tumani Dexkonarik MFY||Surxandaryo viloyati|37.70948|67.1844
Kallamozor A/B|191408|sherobod tumani Guliston MFY||Surxandaryo viloyati|37.839110691697|67.041763610165
Poshxurt A/B|191413|sherobod tumani Poshxurt MFY||Surxandaryo viloyati|37.70397|66.77904
Bustonsoy A/B|191404|sherobod tumani Oltinvoxa MFY||Surxandaryo viloyati|37.60091|67.0592
Мexnatobod A/B|191409|sherobod tumani Chinobod MFY||Surxandaryo viloyati|37.64354|67.14213
Zarabog A/B|191406|sherobod tumani Zarabog MFY||Surxandaryo viloyati|37.76404|66.75119
Xalkobod PAB|191300|Muzrabot tumani shaffof MFY||Surxandaryo viloyati|37.459352087333|66.92376644921
Kungirot A/B|191308|Muzrabot tumani Navruz MFY||Surxandaryo viloyati|37.445671644692|66.817589888791
Beshkўton A/B|191302|Muzrabot tumani Mustakillik MFY||Surxandaryo viloyati|37.506268094756|67.061840385756
Obodon A/B|191301|Muzrabot tumani Gulobod MFY||Surxandaryo viloyati|37.50157|66.93771
Gagarin A/B|191305|Muzrabot tumani At-Termiziy MFY||Surxandaryo viloyati|37.417953423136|66.990607748917
Boldir A/B|191304|Muzrabot tumani Guliston MFY||Surxandaryo viloyati|37.40753|66.74779
Angor PAB|190200|Angor tumani shark guli MFY||Surxandaryo viloyati|37.46294|67.147293303
Yangiobod A/B|190217|Angor tumani Ulugbek MFY||Surxandaryo viloyati|37.48504477898|67.124563506048
Talimaron-1 A/B|190213|Angor tumani Xujanko MFY||Surxandaryo viloyati|37.49131432003|67.143945433035
Kunchish A/B|190208|Angor tumani Tulkin MFY||Surxandaryo viloyati|37.492538321041|67.245471182383
Xoshman A/B|190215|Angor tumani Novshaxar MFY||Surxandaryo viloyati|37.400527245069|67.105505644645
Kayran A/B|190203|Angor tumani Markaz MFY||Surxandaryo viloyati|37.441825707054|67.222284931583
Zang A/B|190202|Angor tumani Baxor MFY||Surxandaryo viloyati|37.453949090915|67.306348406333
Karvon A/B|190205|Angor tumani Zartepa MFY||Surxandaryo viloyati|37.44199|66.81159
Uchkizil PAB|191200|Termiz tumani Uchkizil MFY||Surxandaryo viloyati|37.424553081044|67.162850218023
Kaptarxona A/B|191204|Termiz tumani Xalkobod MFY||Surxandaryo viloyati|37.34856|67.18918
namuna-1 A/B|191209|Termiz tumani Kaxramon MFY||Surxandaryo viloyati|37.26126|67.25804
Navruz A/B|191207|Termiz tumani Navruz MFY||Surxandaryo viloyati|37.24209|67.34091
Yangiarik A/B|191212|Termiz tumani Istiklol MFY||Surxandaryo viloyati|37.26714|67.35351
Gulbaxor A/B|191201|Termiz tumani Gulbaxor MFY||Surxandaryo viloyati|37.25495|67.72204
Manguzar A/B|191206|Termiz tumani Manguzar MFY||Surxandaryo viloyati|37.25261|67.32275
Termiz PAB|190100|Termiz sh shodlik MFY||Surxandaryo viloyati|37.225807368868|67.273194847377
Termiz-8 A/B|190108|Termiz sh At-Termiziy-28 uy||Surxandaryo viloyati|37.236172507047|67.280409299067
Termiz-11 A/B|190111|Termiz sh Bogzor MFY||Surxandaryo viloyati|37.223045472071|67.283874101353
Termiz-6 A/B|190106|Termiz sh Majnuntol MFY||Surxandaryo viloyati|37.210396789958|67.276887002156
Termiz-13 A/B|190113|Termiz sh Pattakesar MFY||Surxandaryo viloyati|37.203020476161|67.296496237431
Termiz Bekat A/B|190115|Termiz sh shifokor MFY||Surxandaryo viloyati|37.250963997717|67.284458369742
Navoiy shaxar Navoiy-2 A/B|210102|Navoiy sh Ibn Sino kochasi 22|(0436)220-30-55|Navoi viloyati|40.087282|65.381036
Navoiy shaxar Navoiy- 3 A/B|210103|Navoiy sh, S.Ayniy. Kochasi 93а 52 xona|(0436)226-42-82|Navoi viloyati|40.084358|65.364965
Navoiy shaxar Navoiy - 4 A/B|210104|Navoiy sh Al.Buxoriy kocha 37|(0436)221-02-51|Navoi viloyati|40.075866|65.399396
Navoiy shaxar Navoiy - 9 A/B|210109|Navoiy sh Memorlar 14А|(0436)224-40-61|Navoi viloyati|40.114874|65.369683
Karmana A/B|210600|Karmana tumani Mustaqillik kochasi 1 uy|(0436)532-33-90|Navoi viloyati|40.141523|65.363819
Karmana Ayronchi A/B|210605|Karmana tumani, Таlqoq MFY|(0436)532-37-06|Navoi viloyati|40.145171|65.343177
Karmana Dormon A/B|210607|Karmana tumani, Дormon MFY|(0436)532-96-43|Navoi viloyati|40.135691|65.259031
Karmana Jaloyir A/B|210608|Karmana tumani, Jaloyir MFY||Navoi viloyati|40.152686|65.451195
Karmana Malikrabot A/B|210609|Karmana tumani, Malikrabot MFY|(0436)539-34-10|Navoi viloyati|40.129613|65.178053
Karmana Narpay A/B|210610|Karmana tumani, Kamolot MFY|(0436)532-61-28|Navoi viloyati|40.092585|65.440675
Karmana Xazara A/B|210611|Karmana tumani, Xazara MFY|(0436)532-72-42|Navoi viloyati|40.163495|65.01038
Zarafshon TPAB|210300|Zarafshon sh Amir Temur kochasi 45-uy|(0436) 573-56-63|Navoi viloyati|41.571651|64.20316
Zarafshon Daugistau A/B|210302|Zarafshon sh Muruntau qorgoni||Navoi viloyati|41.176398|64.243217
Zarafshon Muruntau A/B|210303|Zarafshon sh Daugistau qorgoni||Navoi viloyati|41.527903|64.599974
Tomdi A/B|210800|Tomdi tumani Oltintov kochasi 1 uy|(0436) 582-11-29|Navoi viloyati|41.714894|64.529908
Uchquduq A/B|210900|Uchquduq tumani Amir Temur kochasi 19-uy|(0436) 593-15-74|Navoi viloyati|42.152903|63.558796
shalxar A/B|210906|Uchquduq tumani shalxar mahallasi|(9989)603-21-40|Navoi viloyati|42.114578|63.65194
Besharabod TPAB|210200|Navbahor tumani Mustaqillik kochasi 7-uy|(79)-562-18-54|Navoi viloyati|40.225276|65.30538
Arabsaroy A/B|210201|Navbahor tumani Sovungar mahallasi|(79)-562-83-10|Navoi viloyati|40.186932|65.187041
Ijand A/B|210205|Navbahor tumani Yangi kuch mahallasi|(95)-607-80-49|Navoi viloyati|40.176539|65.570696
Qalqon ota A/B|210206|Navbahor tumani Qalqon ota mahallasi|(79)-562-33-92|Navoi viloyati|40.212043|65.387404
Keskanterak A/B|210207|Navbahor tumani Keskanterak mahallasi|(79)-562-22-30|Navoi viloyati|40.247285|65.225743
Mirza momin A/B|210208|Navbahor tumani Qorovultepa mahallasi||Navoi viloyati|40.185463|65.359927
Oq oltin A/B|210209|Navbahor tumani Oq oltin mahallasi|(95)-607-80-35|Navoi viloyati|40.211329|65.288468
Yangiqorgon A/B|210212|Navbahor tumani Sarbozor mahallasi|(79)-562-81-34|Navoi viloyati|40.189905|65.246505
Konimex A/B|210500|Konimex tumani Dostlik mahallasi||Navoi viloyati|40.282183|65.138496
Balakarak A/B|210502|Konimex tumani Balakarak ovuli||Navoi viloyati|41.020503|64.384974
Katagan A/B|210504|Konimex tumani shorkol ovuli||Navoi viloyati|40.313749|64.942622
Sarjal A/B|210505|Konimex tumani Zafarobod qorgoni||Navoi viloyati|40.531965|65.016765
Qiziltepa PAB|210400|, Qiziltepa tumani, kochasi Ozbekiston shox 41|(0436) 555-25-45|Navoi viloyati|40.046178|64.833922
Azizobod A/B|210403|, Qiziltepa tumani, Azizobod MSG|(0436) 555-42-49|Navoi viloyati|39.985412|64.699643
Arabon A/B|210404|, Qiziltepa tumani, seloKonsurun|(0436) 555-62-35|Navoi viloyati|39.948276|64.660437
Vangozi A/B|210406|, Qiziltepa tumani, mahalla Vangozi|(0436) 555-82-27|Navoi viloyati|40.027286|64.766698
Gardiyon A/B|210408|, Qiziltepa tumani, mahalla Balandgardiyon|(0436) 555-53-81|Navoi viloyati|40.107375|64.82256
Oq soch A/B|210410|, Qiziltepa tumani, mahalla Ozbekiston 43||Navoi viloyati|40.046178|64.833922
Tavois A/B|210411|, Qiziltepa tumani, mahalla Tavois|(0436)555-14-91|Navoi viloyati|40.061759|64.836412
Uzilishkent A/B|210414|, Qiziltepa tumani, mahalla Hasancna|(0436) 555-72-60|Navoi viloyati|40.157441|64.918426
Xoja-Hasan A/B|210415|, Qiziltepa tumani, mahalla Xoja-Hasan|(0436) 555-76-41|Navoi viloyati|40.174675|64.944346
Yuqsun A/B|210416|, Qiziltepa tumani, mahalla Boston|(0436) 555-11-66|Navoi viloyati|40.065306|64.812307
Nurota PAB|210700|Nurota tumani, Sh.Rashidov ko'chasi 25 uy|(0436)523-12-02|Navoi viloyati|40.559564|65.688032
G'ozg'on A/B|210704|Nurota tumani, G'ozg'on shi|(0436)523-34-30|Navoi viloyati|40.590665|65.497634
Gum A/B|210705|Nurota tumani, Jilontamg'ali qishloq'i|(0436)603-80-53|Navoi viloyati|40.487234|66.224354
Qaroquduq A/B|210708|Nurota tumani, Chashma qishloq'i|(0436)607-40-23|Navoi viloyati|40.381954|65.707436
Kattaij A/B|210709|Nurota tumani, Kattaij qishloq'i||Navoi viloyati|40.668897|66.580884
Qizilcha A/B|210710|Nurota tumani, Qizilcha qishloq'i|(0436)523-83-48|Navoi viloyati|40.730432|66.117758
Oqqula A/B|210713|Nurota tumani, Oqqula qishloq'i|(0436)607-49-56|Navoi viloyati|40.543173|66.024497
Soykechar A/B|210716|Nurota tumani, Soykechar qishloq'i||Navoi viloyati|40.513444|66.122554
Temirqovuq A/B|210718|Nurota tumani, Temirqovuq qishloq'i|(0436)523-81-77|Navoi viloyati|40.722887|66.414313
Chuya A/B|210720|Nurota tumani, Chuya qishloq'i|(0436)603-80-57|Navoi viloyati|40.449447|66.046059
Yangibino A/B|210721|Nurota tumani, Yangibino qishloq'i|(0436)607-40-26|Navoi viloyati|40.544956|65.865885
Nuota 2 A/B|210702|Nurota tumani, Nurota shi||Navoi viloyati|40|65
Yangirabod PAB|211000|Xatirchi tumani, Shifokorlar 29|(0436)544-00-21|Navoi viloyati|40.030153|65.971402
Nayman A/B|211003|Xatirchi tumani Chag'atoy MFY|94-376-76-80|Navoi viloyati|40.063|66.046658
Beshbola A/B|211004|Xatirchi tumani Qurg'oncha MFY|94-484-28-02|Navoi viloyati|40.037609|65.858693
Zarafshon A/B|211005|Xatirchi tumani Zarofshon MFY|93-439-69-72|Navoi viloyati|40.116128|65.662864
Toshquloq A/B|211016|Xatirchi tumani Novja MFY|93-437-54-70|Navoi viloyati|40.099054|65.793805
Langar A/B|211009|Xatirchi tumani Langar MFY|93-310-42-42|Navoi viloyati|40.392676|65.984816
Navot A/B|211011|Xatirchi tumani,Bog'ishamol MFY|99-944-99-06|Navoi viloyati|40.061212|65.93944
Oltinshoy A/B|211012|Xatirchi tumani,Baxchijar MFY|94-225-66-65|Navoi viloyati|40.063|66.046658
Tomabaxrin A/B|211014|Xatirchi tumani Tomabaxrin MFY|93-087-72-11|Navoi viloyati|40.094993|65.737829
Turkmen A/B|211017|Xatirchi tumani Xujaqurg'on MFY|94-256-64-66|Navoi viloyati|40.066497|66.001767
Angren tumani PAB|110200|Angren sh,Istiqlol ko‘chasi 3 uy|70-66-2-21-26|Toshkent viloyati|41.009345|70.076121
Angren Angren -3 A/B|110203|Angren sh,Navoiy ko‘chasi 20 uy|70-66-2-71-52|Toshkent viloyati|41.010314|70.087232
Angren Angren -6 A/B|110206|Angren sh,O'z.Mustaqilligi ko‘chasi 96 uy|70-66-2-10-20|Toshkent viloyati|41.011137|70.066043
Angren Angren 9 A/B|110209|Angren sh,14 Dahasi 29 uy|70-700-46-93|Toshkent viloyati|41.041748|70.088567
Angren Angren 13 A/B|110213|Angren sh,3/2 daha 9 uy|70-66-5-02-72|Toshkent viloyati|41.02617|70.08335
Angren Angren -23 A/B|110223|Angren sh, 2/2 daha 38 uy|70-66-5-08-90|Toshkent viloyati|41.018948|70.089592
Angren Angren 25 A/B|110225|Angren sh,5/4 daha 2 uy|70-66-3-09-61|Toshkent viloyati|40.996375|70.061084
BUKA PAB|110600|Buka tumani, Yuqori,Toshloq ko‘chasi 1 uy|(70)-5736035|Toshkent viloyati|40.813864|69.203879
Qoraqoyli A/B|110606|Azamatov fu Boka tumani||Toshkent viloyati|40.813705|69.291093
Jagalbayli A/B|110604|Boka tumani Y hojimetov FU||Toshkent viloyati|40.7874228|69.2089585
M,Ozbekiston A/B|110613|Boka tumani M,Ozbekiston FU||Toshkent viloyati|40.720642|69.282159
Boston A/B|110603|Boka tumani Boston Fu||Toshkent viloyati|40.658042|69.082776
Kokorol A/B|110607|Boka tumani Kokorol Fu||Toshkent viloyati|40.645337|69.218178
Y.Sanganak A/B|110615|Boka tumani Dostlik FU||Toshkent viloyati|40.735113|69.08861
Turon A/B|110612|Boka tumani O.Yoldosshev fu||Toshkent viloyati|40.794922|69.12889
Ramadon A/B|110610|Boka tumani T.Rajabov FU||Toshkent viloyati|40.83822|69.128383
Ohangaron PAB|110300|Ohangaron shahri, Ezgulik ko‘chasi 98 uy|(70)-645-22-53|Toshkent viloyati|40.905529|69.639139
Ozodlik A/B|110307|Ohangaron tumani, Eyvalek qorgoni, Majnuntol ko‘ch.||Toshkent viloyati|40.941219|69.521007
Gallaquduq A/B|110308|Ohangaron tumani,Gallaquduq MFY , Quruvchilar ko‘ch 18/2-uy.||Toshkent viloyati|41.005972|69.471536
Qaraxitoy A/B|110311|Ohangaron tumani,Tut MFY , Sada ko‘ch 1-uy.||Toshkent viloyati|40.90565|69.729781
Nurobod A/B|110313|Ohangaron tumani,Nurobod qorgoni , 53-uy 45-xonadon.||Toshkent viloyati|40.905078|69.802101
Susam A/B|110314|Ohangaron tumani,Susam MFY , Navruz ko‘ch 25-uy.||Toshkent viloyati|40.91187|69.947897
Sanam A/B|110318|Ohangaron tumani,Sanam MFY , Tinchlik ko‘ch b/n-uy.||Toshkent viloyati|40.897117|69.880324
Quyun A/B|110312|Ohangaron tumani,Quyun MFY , shifokorlar ko‘ch 36-uy.||Toshkent viloyati|40.867364|69.677141
Dostobod PAB|110900|Quyi chirchiq tumani, Navqiron ko‘ch. 2 uy|(70)-56-72-605|Toshkent viloyati|40.864926|68.935352
Gul A/B|110908|Dostobod shahri, Gul MFY Oxangrabo ko‘chasi,||Toshkent viloyati|40.853022|68.785789
Qorgoncha A/B|110911|Dostobod shahri, Toqboy MFY Dostlik ko‘chasi, 2uy||Toshkent viloyati|40.90891|68.801934
Yangi xayot A/B|110920|Dostobod shahri, Bogiston MFY Majnuntol ko‘chasi,||Toshkent viloyati|40.943156|68.944306
Ming chinor A/B|110913|Dostobod shahri, Oydinobod MFY Yoshlik ko‘chasi,|(70)-56-76-435|Toshkent viloyati|40.913325|69.007987
Otajonov A/B|110904|Dostobod shahri, Madaniyat MFY Markaziy ko‘chasi,||Toshkent viloyati|41.056304|69.109976
Nayman A/B|110914|Dostobod shahri, Sergeli MFY Gulzor ko‘chasi,||Toshkent viloyati|41.129945|69.195556
Beruniy A/B|110907|Dostobod shahri, Beruniy MFY Fayzobod ko‘chasi,||Toshkent viloyati|41.005282|69.150402
Uyali A/B|110919|Dostobod shahri, Koksaroy MFY Oqibat ko‘chasi,||Toshkent viloyati|40.956913|69.117076
Qibray PAB|111200|Qibray tumani Zebuniso ko'chasi 2-uy|95-61-348|Toshkent viloyati|41.386543|69.461101
Qipchoq A/B|111213|Qipchoq MFY abay ko'chasi 31 uy||Toshkent viloyati|41.3697|69.493171
Chinobod A/B|111224|Bo'ston MFY X.Olimjon ko'chasi 2 uy|95-194-78-29|Toshkent viloyati|41.400803|69.446136
Oq-qovoq A/B|111202|Batanika MFY Olimlar daxasi 17 uy||Toshkent viloyati|41.415426|69.483351
Qizil ko'prik A/B|111211|A.Navoiy MFQ A.Navoiy ko'chasi 37 A uy|95-194-58-18|Toshkent viloyati|41.411319|69.506466
Qizil shalola A/B|111212|Qizil shalola MFQ sharshara ko'chasi 13 uy|95-142-09-57|Toshkent viloyati|41.458206|69.432412
Madaniyat A/B|111216|Ziyokorlar MFQ Birdamlik ko'chasi 258-uy|95-194-76-49|Toshkent viloyati|41.428557|69.359051
O'n qo'rg'on A/B|111222|O'nqo'rg'on MFY Ohunboboev ko'chasi 100 uy|95-194-78-93|Toshkent viloyati|41.391914|69.348938
Enbekchi A/B|111225|O'tkir MFQ O'tkir ko'chasi 3 uy||Toshkent viloyati|41.410085|69.402309
Quruvchi A/B|111214|Boyjigit MFQ Memor ko'chasi 7/32 uy||Toshkent viloyati|41.366579|69.387232
Salar A/B|111218|Salar sh FQ Oliygoh ko'chasi 1/2 uy|95-142-09-69|Toshkent viloyati|41.381159|69.352239
Do'rmon A/B|111208|Do'rmon MFQ Markaziy ko'chasi 106 uy|95-177-13-26|Toshkent viloyati|41.36731|69.416104
Nurafshon PAB|111500|Nurafshon sh Bobur kochasi, 1-uy|(70) 76-26-344|Toshkent viloyati|41.040068|69.357043
Qorasuv A/B|111507|Ortachirchiq tumani, Qorasuv mahallasi|(70)76-23-117|Toshkent viloyati|41.083868|69.32741
Navoiy A/B|111509|Ortachirchiq tumani, Xalqobod mahallasi||Toshkent viloyati|41.071787|69.233014
Yangi turmush A/B|111518|Ortachirchiq tumani, Qutb yulduzi mahallasi||Toshkent viloyati|41.137084|69.302123
Bektemir A/B|111503|Ortachirchiq tumani, Yangihayot mahallasi||Toshkent viloyati|41.215892|69.33524
Mashral A/B|111516|Ortachirchiq tumani, Mashal mahallasi||Toshkent viloyati|41.172803|69.410298
Ortasaroy A/B|111514|Ortachirchiq tumani, Ortasaroy mahallasi||Toshkent viloyati|41.12714|69.419418
Toytepa-2 A/B|111502|Ortachirchiq tumani, Jangabay mahallasi||Toshkent viloyati|41.084342|69.417573
Yuqoriovul A/B|111517|Ortachirchiq tumani, Ortaovul mahallasi||Toshkent viloyati|41.001519|69.419514
Chigiriq A/B|111515|Nurafshon sh Chigiriq mahallasi|(70) 76-46-343|Toshkent viloyati|41.010777|69.358112
Yangihayot A/B|111519|Nurafshon sh Yuksalish mahallasi|(70)76-44-568|Toshkent viloyati|40.99517|69.36478
Tuyabugiz A/B|111511|Ortachirchiq tumani, Adolat mahallasi|(70)76-43-508|Toshkent viloyati|40.999622|69.305086
Kuchlik A/B|111508|Ortachirchiq tumani, Kuchlik mahallasi||Toshkent viloyati|41.36731|69.416104
Oqqorgon PAB|110400|Oqqogon tumani Oxunboboev kochasi3 uy||Toshkent viloyati|40.878664|69.043339
Alimkent A/B|110401|Oqqogon tumani Alimkent qorgoni Mustaqillik kochasi 127 uy||Toshkent viloyati|40.963028|69.170041
Dostlik A/B|110403|Oqqogon tumani XamzaobodMFY Muqumiy kochasi 18 uy||Toshkent viloyati|40.771976|68.962187
Istiqlol A/B|110405|Oqqogon tumani Zhoxruxiya MFYU Aloqa kochasi||Toshkent viloyati|40.735961|68.981964
Qorasuv A/B|110406|Oqqogon tumani Eltamgali MFYU Tinchlik kochasi||Toshkent viloyati|40.826106|68.950533
Qushtamgali A/B|110407|Oqqogon tumani Qushtamgali MFY Omad kochasi||Toshkent viloyati|40.855134|69.995582
Qorgontepa A/B|110408|Oqqogon tumani Qaxramon MFY Diyonat kochasi||Toshkent viloyati|40.981976|69.213128
Xonobod A/B|110411|Oqqogon tumani Xonobod MFY Amir Temur kochasi||Toshkent viloyati|40.914424|69.112652
Olmaliq PAB|110100|Olmaliq shahri, Ehtirom ko‘chasi, 8 uy|(70)-61-3-00-73|Toshkent viloyati|40.862432|69.593025
Olmaliq 1 A/B|110101|Olmaliq shahri, Furqat ko‘chasi, 22 uy|(70)-61-5-26-08|Toshkent viloyati|40.851634|69.601777
Olmaliq 3 A/B|110103|Olmaliq shahri, Ipak yuli ko‘chasi, 54 uy|93-186-50-78|Toshkent viloyati|40.84099|69.605416
Olmaliq 5 A/B|110105|Olmaliq shahri, Faxriylar ko‘chasi, 28 uy|(70)-61-4-32-79|Toshkent viloyati|40.838226|69.615216
Olmaliq 17 A/B|110117|Olmaliq shahri, Metallurglar ko‘chasi, 22 uy|(70)-61-3-40-39|Toshkent viloyati|40.872747|69.58307
Piskent PAB|111400|Piskent tumani A.Temur kochasi 103-uy|(70)54-53-055|Toshkent viloyati|40.896869|69.350337
Oqtepa A/B|111406|Piskent tumani Novkent MFY|97-746-31-50|Toshkent viloyati|40.919684|69.269585
Dostbekov A/B|111409|Piskent tumani Fayzobod MFY|99-401-61-67|Toshkent viloyati|40.864483|69.2673
Мuratali A/B|111413|Piskent tumani Xoliqberdi MFY|99-067-32-21|Toshkent viloyati|40.821553|69.343364
Ozbekiston mustaqilligi A/B|111415|Piskent tumani Mustaqillik MFY|94-216-13-67|Toshkent viloyati|40.828346|69.416858
Qirqqizobod A/B|111411|Piskent tumani Kolota MFY|94-402-25-13|Toshkent viloyati|40.826731|69.501956
Kerovchi A/B|111410|Piskent tumani Kelovchi MFY|99-403-68-25|Toshkent viloyati|40|69.490855
Chirchiq PAB|111700|Chirchik sh P.Yusupova kochasi 5 uy|(7071)-6-51-76|Toshkent viloyati|41.469781|69.584878
Chirchiq 2 A/B|111702|Chirchik sh Xuja Axror Vali kuchasi 4 uy|(7071)-6-05-35|Toshkent viloyati|41.49523|69.60882
Chirchiq 4 A/B|111704|Chirchik sh Zakovat kuchasi 16 uy|(7071)-6-28-55|Toshkent viloyati|41.486154|69.589551
Chirchiq 7 A/B|111707|Chirchik sh 8 mitti tuman 9 uy|(7071)-2-16-57|Toshkent viloyati|41.459563|69.549927
Chirchiq 8 A/B|111708|Chirchik sh Toshkent kochasi 2 uy|(7071)-6-34-41|Toshkent viloyati|41.459764|69.573203
Chirchiq 9 A/B|111709|Тошкент вилояти, Чирчиқ шаҳри, Соғлом авлод кўчаси, 1-уй|(7071)-5-42-62|Toshkent viloyati|40.872747|69.58307
Chirchiq 12 A/B|111712|Тошкент вилояти, Чирчиқ шаҳри, А.Навоий кўчаси, 2 А-уй|(7071)-7-15-23|Toshkent viloyati|40.896869|69.350337
Chirchiq 13 A/B|111713|Chirchik sh Saglom avlod kochasi 1 uy|(7071)-3-14-50|Toshkent viloyati|41.509481|69.628603
Chirchiq 18 A/B|111718|Chirchik sh A.Temur kochasi 106 uy|(7071)-6-51-26|Toshkent viloyati|41.472825|69.573729
Chirchiq 22 A/B|111722|Chirchik sh 1 mitti tuman kochasi 14 uy|(7071)-6-42-81|Toshkent viloyati|41.486118|69.575951
Chirchiq 24 A/B|111724|Chirchik sh 3 mitti tuman kuchasi 36 uy|(7071)-4-21-22|Toshkent viloyati|41.492596|69.581627
Chirchiq 27 A/B|111727|Chirchik sh A.Temur kochasi 11 uy|(7071)-2-68-20|Toshkent viloyati|41.455236|69.558029
Yangibozor PAB|111900|Yuqori chirchiq tumani, Yangibozor qo'rg'oni, Mustaqillik ko'chasi 35 uy.|70-98-33-225|Toshkent viloyati|41.315125|69.518921
Bolta A/B|111901|Yuqori chirchiq tumani, Yashnaobod MFY, Karvon ko'chasi 7 uy.||Toshkent viloyati|41.281559|61
Bardanko'l A/B|111902|Yuqori chirchiq tumani, Mirobod MFY, Mirobod ko'chasi 6 uy.||Toshkent viloyati|41.249633|69.401462
Guliston A/B|111903|Yuqori chirchiq tumani, Guliston MFY, Tayanch ko'chasi 21 uy.||Toshkent viloyati|41.247114|69.483278
Do'stlik A/B|111904|Yuqori chirchiq tumani, Bardanko'l xududi, G.Xvan MFY, Abadiyat ko'chasi 18 uy.||Toshkent viloyati|41.256171|69.435427
Jumabozor A/B|111905|Yuqori chirchiq tumani, Jumabozor MFY, Navoiy ko'chasi 9 uy.||Toshkent viloyati|41.232316|69.508531
Iyik ota A/B|111906|Yuqori chirchiq tumani, Gulbog' MFY, O'zbekiston ko'chasi 112 uy.||Toshkent viloyati|41.227207|69.367725
Kavardan A/B|111907|Yuqori chirchiq tumani, Kavardan MFY, Navoiy ko'chasi 17 uy.||Toshkent viloyati|41.3573|69.55513
Kangli A/B|111908|Yuqori chirchiq tumani, Jambul MFY, Kangli ko'chasi 9 uy.||Toshkent viloyati|41.1549|69.567679
Surankent A/B|111909|Yuqori chirchiq tumani, Axmad Yassaviy MFY, Sixatgoh ko'chasi 1 uy.||Toshkent viloyati|41.184218|69.44042
O'zbekiston A/B|111911|Yuqori chirchiq tumani, Istiqlol MFY, Markaziy ko'chasi 1 uy.||Toshkent viloyati|41.308069|69.466574
Usmon Yusupov A/B|111912|Yuqori chirchiq tumani, Qizil soy MFY, Buyuk Ipak yo'li ko'chasi 4 uy.||Toshkent viloyati|41.151206|69.452203
Yuqori chirchiq A/B|111913|Yuqori chirchiq tumani, Sakson ota soy MFY, Chaman ko'chasi 6 uy.||Toshkent viloyati|41.405833|69.568398
Parkent PAB|111300|Parkent tumani, Alisher Navoiy ko'chasi 76 uy.||Toshkent viloyati|41.294157|69.681582
Bo'ston A/B|111303|Parkent tumani, Bo'ston MFY, Baxor ko'chasi 20 uy.||Toshkent viloyati|41.364048|69.629833
Zarkent A/B|111304|Parkent tumani, Zarkent qishloq'I, Istiqlol MFY, Soy soxil ko'chasi 175 uy.||Toshkent viloyati|41.277133|69.804794
Qoraqalpoq A/B|111305|Parkent tumani, Qoraqalpoq MFY, Muqimiy ko'chasi 2 uy.||Toshkent viloyati|41.307886|69.562798
Nomdanak A/B|111307|Parkent tumani, Nomdanak qishloq'I, Chinorli MFY, Kattabog' ko'chasi 30 uy.||Toshkent viloyati|41.181454|69.683492
So'qoq A/B|111308|Parkent tumani, So'qoq MFY, shox ko'chasi 1 uy.||Toshkent viloyati|41.24767|69.80148
Xisarak A/B|111309|Parkent tumani, Xisarak MFY, Beruniy ko'chasi 34 uy.||Toshkent viloyati|41.306076|69.76241
Changi A/B|111310|Parkent tumani, Changi qishloq'I, Teman MFY, Muqimiy ko'chasi 2 uy.||Toshkent viloyati|41.298882|69.745255
shampan A/B|111311|Parkent tumani, shampan MFY, Intizor ko'chasi 17 uy.||Toshkent viloyati|41.214799|69.723262
Yangiyo PAB|112000|Yangiyo'l sh A.Alimjanova ko'chasi, 5 uy|(70)-602-20-30,                           (70)-602-20-36,                          (70)-602-25-84|Toshkent viloyati|41.119321|69.055547
Gulbahor PAB|110800|Yangiyo'l tumani, Sh.Rashidov ko'chasi 5 uy|70-601-12-01|Toshkent viloyati|41.151206|69.452203
Chang tepa A/B|110819|Yangiyo'l tumani, U.Musaev ko'chasi||Toshkent viloyati|41.405833|69.568398
O'zbekiston A/B|110815|Yangiyo'l tumani, G'alaba m.f.y. G'alaba ko'chasi 1 uy||Toshkent viloyati|41.152887|69.107816
Niyozbosh A/B|110814|Yangi yo'l tumani||Toshkent viloyati|41.364048|69.629833
sho'ralisoy A/B|110820|Yangiyo'l tumani, sho'ralisoy m.f.y, sho'ralisoy ko'chasi||Toshkent viloyati|41.277133|69.804794
Hajavul A/B|110818|Yangiyo'l tumani, Ho'jabod m.f.y, Erkin ko'chasi||Toshkent viloyati|41.307886|69.562798
Dang'ir A/B|110804|Yangiyo'l tumani, Registon m.f.y, Dang'ir ko'chasi||Toshkent viloyati|41.181454|69.683492
Halqobod A/B|110816|Yangiyo'l tumani, Halqobod q.f.y, Ming-o'rik ko'chasi uy||Toshkent viloyati|41.24767|69.80148
Qo'sh- yog'och A/B|110808|Yangiyo'l tumani, Qo'sh-yog'och q.f.y, Oybek ko'chasi 17 uy||Toshkent viloyati|41.306076|69.76241
NAU A/B|110812|Yangiyo'l tumani, Bahor m.f.y, Mevazor ko'chasi 1 uy||Toshkent viloyati|41.008476|68.909613
Do'stlik A/B|110805|Yangiyo'l tumani, Yo'g'on tepa q.f.y, Obod m.f.y, A.Temur ko'chasi||Toshkent viloyati|41.008476|68.909613
Qizil sharq A/B|110806|Yangiyo'l tumani, Janbul m.f.y, Janbu ko'chasi 151 uy||Toshkent viloyati|41.298882|69.745255
Dalvarzin A/B|111004|Bekobod tumani Bobur Mirzo MFY Ustozlar kochasi|99-921-45-79|Toshkent viloyati|40.534131|69.213163
Juma bozor A/B|111006|Bekobod tumani Buyodkor MFY Faravon kochasi|99-461-55-23|Toshkent viloyati|40.354794|69.20381
Oybek A/B|111001|Bekobod tumani Qora qoyli MFY|93-186-50-78|Toshkent viloyati|40.939962|68.763927
Baxoriston A/B|111003|Bekobod tumani Bekobod MFY|70-935-37-17|Toshkent viloyati|40.909406|68.712396
Oltinchipol A/B|111002|Bekobod tumani Mallaboy MFY U.Nosir kochasi 5-uy,|(70)-61-3-40-39|Toshkent viloyati|40.95778|68.7367
Ozbekiston A/B|111013|Bekobod tumani Yoshlik MFY S.Pochiumarov kochasi|99-307-05-85|Toshkent viloyati|40.969975|68.760626
Xoss A/B|111016|Bekobod tumani Xos MFY O.Tojiboyev kochasi|90-907-35-94|Toshkent viloyati|41.101814|68.832764
Qiyot A/B|111007|Bekobod tumani Uyas MFY Mustaqillik kochasi|90-034-95-74|Toshkent viloyati|41.016676|68.939911
Kukaniy A/B|111008|Bekobod tumani Qushtamgali MFY Sohil boyi kochasi|99-791-30-46|Toshkent viloyati|40.962625|68.853417
Keles PAB|111100|Keles shahri Ofarin 3uy|70 96 50 317|Toshkent viloyati|41.074842|69.026613
Хаsanboy A/B|111112|Xasanboy Yuqori Xasanboy 52 uy|(99)868-77-65|Toshkent viloyati|41.181076|69.107276
Тutzor A/B|111111|Sabzavot QFY Tepaqorgon|(97)421-61-46|Toshkent viloyati|41.152887|69.107816
shorobozor A/B|111116|Guliston QFY Ibrat MFY Chimkent yoli 2 uy|(97)759-59-85|Toshkent viloyati|41.105841|69.069436
Chuvalachi A/B|111114|Chuvalachi QFY Bayram 2 uy|(97)758-21-29|Toshkent viloyati|41.09289|68.955262
Sobir Raximov A/B|111108|Kokterak QFY Yonariq 2 uy|(99)859-79-60|Toshkent viloyati|41.2523|69.124
Кokterak A/B|111107|Keles shaxri Xamza 3 uy|(93)581-34-43|Toshkent viloyati|41.2509|69.1153
Хiyobon A/B|111113|Masalboy QFY Oydin 142uy|(99)877- 21- 57|Toshkent viloyati|41.254|69.1039
Sagbon-oqtepa A/B|111109|Qizgaldoq QFY Bobur 101 uy|(99)823-39-69|Toshkent viloyati|41.225|69.104
Кoksaroy A/B|111106|Koksaroy QFY Diydor MFY Keles 3 uy|(99)854-52-53|Toshkent viloyati|41.178946|69.119954
Nazarbek A/B|111812|Nazarbek QFY Aloqa kochasi 18 uy|(99)051-37-82|Toshkent viloyati|41.138372|69.028632
Ittifoq A/B|111810|Turkiston QFY Navbaxor MFY Inoq kochasi 7 uy|(97)715-12-33|Toshkent viloyati|41.30938|69.102019
Bozsuv A/B|111804|Boz suv QFY Achchhisoy MFY Minavar 1-uy|(94)892-57-77|Toshkent viloyati|41.034634|69.028217
Ortaul A/B|111816|Orta aul QFY TMK Fayz|(90)315-87-26|Toshkent viloyati|41.072042|69.013824
Gulbog A/B|111806|Gulbog QFY Bogzor qorgoni|(97)432-42-08|Toshkent viloyati|40.956913|69.117076
Erkin A/B|111818|Erkin QFY Erkin kochasi 49 uy|(90)954-65-34|Toshkent viloyati|40.534131|69.213163
Eshonguzar A/B|111800|Eshonguzar Qorgoni Oxunboboyev 3 uy|(99)850-56-25|Toshkent viloyati|40.354794|69.20381
Chinoz PAB|111600|Chinoz tumani Afgon MFY Ziyokor kocha 3 uy|(70)59-32-501|Toshkent viloyati|40.596019|69.289657
Yangi Chinoz A/B|111603|Chinoz tumani Markaziy MFY Navruz kocha 69uy|(70)59-34-213|Toshkent viloyati|40.402653|69.276094
Yallama A/B|111616|Chinoz tumani Yallama MFY Obi-hayot kocha||Toshkent viloyati|40.341645|69.248411
Kotarma A/B|111609|Chinoz tumani Kotarma MFY Posponov kocha||Toshkent viloyati|40.342455|69.080704
Paxtakon A/B|111612|Chinoz tumani Tong yulduzi MFY Markaz kocha|95-142-0981|Toshkent viloyati|40.264183|69.146011
Paxta A/B|111610|Chinoz tumani Ahillik MFY Samarqand kocha|(70)59-40-106|Toshkent viloyati|40.269397|69.202443
Olmazor A/B|111604|Chinoz tumani Nafis MFY Samarqand kocha|(70)-59-36-326|Toshkent viloyati|40.2995|69.17489
Gazalkent PAB|110700|Gazakent sh Bostonliq kuchasi 7 uy|(7074)21-022|Toshkent viloyati|41.562076|69.769816
Gazalkent 2 A/B|110702|Gazalkent qishloqI A,Ikromov kochasi|(7074)21-540|Toshkent viloyati|41.563264|69.769296
Soyliq A/B|110714|Gazalkent qishloqI Oqtosh kochasi 4-uy|(7074)26-490|Toshkent viloyati|41.605694|69.765843
Tovoqsoy A/B|110716|Tovoqsoy qishloq Turon kochasi|(7074)32-590|Toshkent viloyati|41.552881|69.681256
Ozodbosh A/B|110704|Ozodbosh qishloqi|(7074)31-196|Toshkent viloyati|41.532279|69.649437
Qoraboy A/B|110710|Qoraboy qishloqI Xunarmand 18-uy|(7074)22-154|Toshkent viloyati|41.480354|69.639901
Qoshqorgon A/B|110712|Qoshqorgon qishloqI Bozorboshi 30-uy|(7074)63-064|Toshkent viloyati|41.480354|69.639901
Yangiovul A/B|110724|Yangiovul qishloqI Ziyokikar 39-uy||Toshkent viloyati|41.49505|69.661758
Dumaloq A/B|110707|Dumaloq qishloqI Sariqanki 130-uy||Toshkent viloyati|41.547965|69.728615
Chimgan A/B|110723|Chimgan qishloqi|(7074)21-540|Toshkent viloyati|41.549161|70.021778
Burchmullo A/B|110706|Burchmullo qishloqI|(7074)39-321|Toshkent viloyati|41.60834|70.098112
Joxonobod A/B|110708|Nanay qishloqi||Toshkent viloyati|41.711256|70.107459
Sijjak A/B|110715|Sijjak qishloqi|(7074)49-328|Toshkent viloyati|41.690178|70.056021
Charvoq 1 A/B|110722|Besh tut MFY|(7074)24-645|Toshkent viloyati|41.636938|69.947165
Xumson A/B|110720|Xumson qishloqi|(7074)37-131|Toshkent viloyati|41.674481|69.957371
Charvoq jil A/B|110721|Charvoq qorgoni Dostlik kochasi||Toshkent viloyati|41.641479|69.940833
Xojakent A/B|110719|Xojakent qishloqI Dosnkik kochasi|(7074)44-442|Toshkent viloyati|41.632706|69.938221
Qoronqul A/B|110711|Qoronqul kochasi Obiravon kochasi 60-uy|(7074)24-502|Toshkent viloyati|41.599353|69.87486
Bekobod tumani PAB|110500|G.Bekabad ko‘cha Xodjimuratova 18a|70-214-10-52|Toshkent viloyati|40.216365|69.240463
Bekobod tumani index 2 A/B|110502|Bekobod sh ko‘cha Istiqbol 19|90-135-28-58|Toshkent viloyati|40.214512|69.272043
Bekobod tumani index 3 A/B|110503|Bekobod sh ko‘cha Mavonaunaxr 27|90-372-80-13|Toshkent viloyati|40.218028|69.232175
Bekobod tumani index 4 A/B|110504|Bekobod sh ko‘cha Jomiy MFY Tojikiston ko‘chasi|90-921-46-36|Toshkent viloyati|40.210279|69.2579
Bekobod tumani index 14 A/B|110514|Bekobod sh 11-daxa 15 uy|90-391-34-23|Toshkent viloyati|40.226389|69.255167
Bekobod tumani index 16 A/B|110516|G.Bekabad ko‘cha Amir Temur 1a|70-91-3-39-45|Toshkent viloyati|40.23004|69.26655
Zafar PAB|111000|Zafar qishlig', U.Nosir ko'chasi, 5|70-935-16-67|Toshkent viloyati|40.381891|69.254428
Xo'ja-Yakshaba A/B|200714|Kogon tumani X-Yakshaba MFY Xonzi qishloqi||Buxoro viloyati|39.844621|64.571583
Qipchoq A/B|200303|Vokent tuman Changaron MFY Changaron qishloqi||Buxoro viloyati|40.022142|64.341441
Anjirbog A/B|200301|Vokent tuman Anjirbog MFY Anjirbog qishloqi||Buxoro viloyati|40.341352|64.293023
Kolxatib A/B|200304|Vokent tuman Kolxatib MFY Kolxatib qishloqi|33-47-184|Buxoro viloyati|39.592064|64.363336
Rozmoz A/B|200308|Vokent tuman Rozmoz MFY Rozmoz qishloqi||Buxoro viloyati|40.013647|64.675584
Xargosh A/B|200311|Vokent tuman Paxtakor MFY Navbahor qishloqi||Buxoro viloyati|39.928233|64.445098
Vobkent A/B|200312|Vokent tuman Shanba MFY Shanba qishloqi||Buxoro viloyati|39.571931|64.352313
Rohkent A/B|200309|Vokent tuman Guliston MFY Rohkent qishloqi||Buxoro viloyati|39.595547|64.285644
Sayyot A/B|200812|Qorakol tuman Sayyot qishloq|99-024-00-97|Buxoro viloyati|39.501589|63.874612
Qazon A/B|200807|Qorakol tuman Qazon qishloq|94-127-20-74|Buxoro viloyati|39.502478|63.845646
Gojali A/B|200804|Qorakol tuman Quvacha qishloq ,|93-479-60-90|Buxoro viloyati|39.517897|63.807545
Dargali A/B|200805|Qorakol tuman Dargali qishloq|93-652-28-33|Buxoro viloyati|39.521464|63.793577
Dorman A/B|201103|Shofirkon tuman Dorman MFY Dorman qishloq||Buxoro viloyati|40.117508|64.570572
Jilvon A/B|201104|Shofirkon tuman sh ,Rashidov MFY Dexqonobod qishloq||Buxoro viloyati|40.183623|64.435935
Kolxovli A/B|201110|Shofirkon tuman shodlik MFY S,Raximov kocha|(65)-502-22-93|Buxoro viloyati|40.134606|64.515665
